{"type": "FeatureCollection", "features": [{"type": "Feature", "properties": {"address_id": "lp-55", "label": "ЛП-55", "name": "Ленинский проспект, 55/1 ст1", "full_name": "Москва, Ленинский проспект, 55/1 ст1", "address": "Москва, Ленинский проспект, 55/1 стр. 1"}, "geometry": {"type": "Point", "coordinates": [37.563385, 55.69736]}}, {"type": "Feature", "properties": {"address_id": "siti", "label": "Сити", "name": "Башня на Набережной, многофункциональный комплекс", "full_name": "Москва, Башня на Набережной, многофункциональный комплекс", "address": "Москва, Пресненская набережная, 10"}, "geometry": {"type": "Point", "coordinates": [37.536831, 55.746681]}}, {"type": "Feature", "properties": {"address_id": "kurchatnik", "label": "Курчатник", "name": "Национальный исследовательский центр Курчатовский институт", "full_name": "Москва, Национальный исследовательский центр Курчатовский институт", "address": "Москва, площадь Академика Курчатова, 1"}, "geometry": {"type": "Point", "coordinates": [37.477133, 55.801296]}}]}