{"type": "FeatureCollection", "features": [{"type": "Feature", "properties": {"line_id": "1", "name": "Сокольническая", "colour": "#EF161E"}, "geometry": {"type": "LineString", "coordinates": [[37.7329261, 55.8154055], [37.744764, 55.803943], [37.7154778, 55.7962395], [37.679683, 55.78925], [37.6661449, 55.7799958], [37.6561361, 55.7764063], [37.649106, 55.76908], [37.6383605, 55.7649152], [37.626581, 55.75966], [37.6150129, 55.7572235], [37.6103187, 55.7522265], [37.603031, 55.745155], [37.5931278, 55.7351793], [37.580683, 55.727474], [37.5620735, 55.7224328], [37.561049, 55.7115933], [37.5345267, 55.6931907], [37.50631, 55.676978], [37.483152, 55.66375], [37.4729972, 55.645646], [37.441696, 55.632969], [37.424165, 55.621907], [37.407999, 55.60118], [37.433222, 55.586457], [37.459057, 55.568985], [37.468651, 55.560074]]}}, {"type": "Feature", "properties": {"line_id": "2", "name": "Замоскворецкая", "colour": "#4DBE52"}, "geometry": {"type": "LineString", "coordinates": [[37.766061, 55.632813], [37.744544, 55.613866], [37.71909, 55.610953], [37.694966, 55.613195], [37.669453, 55.621456], [37.6570599, 55.6347702], [37.648843, 55.655134], [37.6633652, 55.6795093], [37.664496, 55.693704], [37.6573453, 55.7086], [37.636263, 55.731266], [37.6292832, 55.7424277], [37.6049562, 55.765362], [37.5960546, 55.7703912], [37.5595953, 55.7891159], [37.532628, 55.800365], [37.515548, 55.80478], [37.497888, 55.819087], [37.486703, 55.839933], [37.4760633, 55.8551525], [37.475692, 55.865369], [37.480768, 55.878273]]}}, {"type": "Feature", "properties": {"line_id": "3", "name": "Арбатско-Покровская", "colour": "#0078BE"}, "geometry": {"type": "LineString", "coordinates": [[37.7984928, 55.8084991], [37.799363, 55.794507], [37.781435, 55.787775], [37.749619, 55.788451], [37.719423, 55.78306], [37.705287, 55.782094], [37.679113, 55.7724663], [37.6233539, 55.7564497], [37.601518, 55.752161], [37.5673351, 55.7440118], [37.5174924, 55.7358848], [37.470717, 55.729576], [37.4452868, 55.7306809], [37.416918, 55.740611], [37.408013, 55.756838], [37.403083, 55.803723], [37.38537, 55.825476], [37.38199, 55.835749], [37.361364, 55.846006], [37.354181, 55.855876]]}}, {"type": "Feature", "properties": {"line_id": "4", "name": "Филёвская", "colour": "#00A2DC"}, "geometry": {"type": "LineString", "coordinates": [[37.4452868, 55.7306809], [37.4833029, 55.73957], [37.497743, 55.743792], [37.514797, 55.746099], [37.534377, 55.740005], [37.5483398, 55.738878], [37.5836873, 55.747933], [37.601518, 55.752161], [37.542048, 55.750015], [37.533181, 55.747819]]}}, {"type": "Feature", "properties": {"line_id": "4A", "name": "Филёвская (вилка)", "colour": "#00A2DC"}, "geometry": {"type": "LineString", "coordinates": [[37.542048, 55.750015], [37.533181, 55.747819]]}}, {"type": "Feature", "properties": {"line_id": "5", "name": "Кольцевая", "colour": "#9A6B2A"}, "geometry": {"type": "LineString", "coordinates": [[37.5931278, 55.7351793], [37.6113133, 55.7292498], [37.622529, 55.72898], [37.636263, 55.731266], [37.6533745, 55.7424507], [37.6602746, 55.7585098], [37.6561361, 55.7764063], [37.6336099, 55.7797015], [37.6014405, 55.7796266], [37.5817828, 55.7771985], [37.5771211, 55.7602466], [37.5673351, 55.7440118], [37.5931278, 55.7351793]]}}, {"type": "Feature", "properties": {"line_id": "6", "name": "Калужско-Рижская", "colour": "#F07E24"}, "geometry": {"type": "LineString", "coordinates": [[37.661562, 55.888103], [37.664341, 55.870641], [37.653379, 55.855558], [37.637811, 55.844597], [37.640751, 55.819626], [37.638699, 55.807794], [37.636114, 55.792494], [37.633199, 55.781827], [37.63285, 55.772315], [37.636732, 55.765371], [37.631326, 55.756498], [37.625624, 55.74073], [37.612851, 55.731232], [37.607892, 55.718828], [37.58499, 55.70678], [37.5723, 55.687147], [37.562595, 55.677671], [37.554493, 55.670077], [37.540075, 55.656682], [37.526115, 55.642357], [37.519156, 55.631857], [37.505912, 55.61873], [37.5334, 55.606182], [37.553017, 55.601947]]}}, {"type": "Feature", "properties": {"line_id": "7", "name": "Таганско-Краснопресненская", "colour": "#A71965"}, "geometry": {"type": "LineString", "coordinates": [[37.436808, 55.859676], [37.44076, 55.84926], [37.437024, 55.825479], [37.4352, 55.8182], [37.463241, 55.8094], [37.493317, 55.793581], [37.517895, 55.777201], [37.545518, 55.773505], [37.562271, 55.763944], [37.581242, 55.760793], [37.604356, 55.765607], [37.624423, 55.761498], [37.633877, 55.75436], [37.653605, 55.739502], [37.666917, 55.731546], [37.685197, 55.725546], [37.732117, 55.709211], [37.763295, 55.705493], [37.792694, 55.716139], [37.816788, 55.715983], [37.851044, 55.702036], [37.855833, 55.684722], [37.8582, 55.6743]]}}, {"type": "Feature", "properties": {"line_id": "8", "name": "Калининская", "colour": "#FFD702"}, "geometry": {"type": "LineString", "coordinates": [[37.864052, 55.745113], [37.814587, 55.752237], [37.78422, 55.75098], [37.751703, 55.75809], [37.717444, 55.751933], [37.680726, 55.747115], [37.65604, 55.740746], [37.626142, 55.741125]]}}, {"type": "Feature", "properties": {"line_id": "8A", "name": "Солнцевская", "colour": "#FFD702"}, "geometry": {"type": "LineString", "coordinates": [[37.626142, 55.741125], [37.65604, 55.740746], [37.680726, 55.747115], [37.717444, 55.751933]]}}, {"type": "Feature", "properties": {"line_id": "8KS", "name": "Калининско-Солнцевская", "colour": "#FFD702"}, "geometry": {"type": "LineString", "coordinates": [[37.626142, 55.741125], [37.65604, 55.740746], [37.680726, 55.747115], [37.717444, 55.751933], [37.751703, 55.75809], [37.78422, 55.75098], [37.814587, 55.752237], [37.864052, 55.745113]]}}, {"type": "Feature", "properties": {"line_id": "9", "name": "Серпуховско-Тимирязевская", "colour": "#909197"}, "geometry": {"type": "LineString", "coordinates": [[37.586473, 55.899034], [37.603011, 55.883868], [37.605066, 55.864273], [37.590451, 55.848236], [37.575512, 55.836565], [37.574498, 55.81866], [37.581734, 55.808056], [37.587163, 55.794054], [37.599141, 55.781999], [37.620466, 55.771653], [37.608493, 55.765747], [37.60934, 55.750399], [37.618594, 55.736795], [37.624792, 55.726548], [37.622569, 55.70961], [37.620917, 55.682099], [37.610397, 55.672962], [37.605274, 55.662379], [37.59809, 55.651451], [37.606065, 55.640538], [37.609047, 55.622436], [37.602386, 55.610962], [37.601498, 55.596753], [37.596999, 55.583477], [37.576856, 55.568201]]}}, {"type": "Feature", "properties": {"line_id": "10", "name": "Люблинско-Дмитровская", "colour": "#9ACD32"}, "geometry": {"type": "LineString", "coordinates": [[37.547117, 55.866556], [37.561589, 55.855143], [37.575531, 55.844748], [37.573762, 55.835392], [37.587344, 55.822888], [37.602247, 55.813531], [37.6168464, 55.7935432], [37.614065, 55.7817338], [37.621908, 55.767798], [37.639251, 55.765802], [37.6593866, 55.7560807], [37.6795593, 55.7468006], [37.665521, 55.7322759], [37.676631, 55.717828], [37.685595, 55.706289], [37.726901, 55.693163], [37.75332, 55.690904], [37.761759, 55.67568], [37.7497575, 55.6590248], [37.743734, 55.650167], [37.744072, 55.6334629], [37.7432181, 55.6202081], [37.744946, 55.612031]]}}, {"type": "Feature", "properties": {"line_id": "11", "name": "Большая кольцевая", "colour": "#82C0C0"}, "geometry": {"type": "LineString", "coordinates": [[37.485077, 55.7757], [37.520797, 55.776862], [37.533301, 55.786602], [37.557322, 55.791957], [37.586122, 55.792807], [37.6168464, 55.7935432], [37.636114, 55.792494], [37.679683, 55.78925], [37.705287, 55.782094], [37.706759, 55.764699], [37.719155, 55.753669], [37.730313, 55.731681], [37.732117, 55.709211], [37.726901, 55.697189], [37.648843, 55.655134], [37.5969296, 55.6525055], [37.57369, 55.655717], [37.539446, 55.658845], [37.52218, 55.669823], [37.503748, 55.678517], [37.485307, 55.6882], [37.464931, 55.697189], [37.45177, 55.71517], [37.445985, 55.728707], [37.459738, 55.748108], [37.471391, 55.761152], [37.485077, 55.7757]]}}, {"type": "Feature", "properties": {"line_id": "11A", "name": "Каховская", "colour": "#82C0C0"}, "geometry": {"type": "LineString", "coordinates": [[37.539904, 55.749025], [37.524067, 55.757116]]}}, {"type": "Feature", "properties": {"line_id": "11K", "name": "Каховская (сегмент)", "colour": "#82C0C0"}, "geometry": {"type": "LineString", "coordinates": [[37.5969296, 55.6525055], [37.57369, 55.655717], [37.539446, 55.658845]]}}, {"type": "Feature", "properties": {"line_id": "12", "name": "Бутовская", "colour": "#A6B7D4"}, "geometry": {"type": "LineString", "coordinates": [[37.555577, 55.600761], [37.579106, 55.581433], [37.576515, 55.569341], [37.55466, 55.548141], [37.54229, 55.545169], [37.531716, 55.542106], [37.515382, 55.537949]]}}, {"type": "Feature", "properties": {"line_id": "13", "name": "Монорельс", "colour": "#0066B3"}, "geometry": {"type": "LineString", "coordinates": [[37.578891, 55.819012], [37.5891812, 55.8217654], [37.608926, 55.821818], [37.641478, 55.821061], [37.638473, 55.824049], [37.644801, 55.8292094]]}}, {"type": "Feature", "properties": {"line_id": "14", "name": "МЦК", "colour": "#F32735"}, "geometry": {"type": "LineString", "coordinates": [[37.5694, 55.8472], [37.593, 55.8476], [37.6413, 55.846], [37.6653, 55.84], [37.7006, 55.83], [37.7369, 55.8172], [37.746, 55.8039], [37.7428, 55.7886], [37.7451, 55.7714], [37.7463, 55.759], [37.7344, 55.7411], [37.7282, 55.7322], [37.7161, 55.7239], [37.6978, 55.7183], [37.6978, 55.7183], [37.6631, 55.7063], [37.6483, 55.6983], [37.6189, 55.69], [37.605, 55.69], [37.5858, 55.7069], [37.5631, 55.7203], [37.5333, 55.7408], [37.5322, 55.7472], [37.5256, 55.7575], [37.5072, 55.7772], [37.5045, 55.7878], [37.4988, 55.7991], [37.4869, 55.8136], [37.4961, 55.8258], [37.5203, 55.8397], [37.5513, 55.8472], [37.5694, 55.8472]]}}, {"type": "Feature", "properties": {"line_id": "15", "name": "Некрасовская", "colour": "#D77AAB"}, "geometry": {"type": "LineString", "coordinates": [[37.703018, 55.780284], [37.706759, 55.764699], [37.719155, 55.753669], [37.730313, 55.731681], [37.752257, 55.727207], [37.781277, 55.718623], [37.817999, 55.705353], [37.851312, 55.703427], [37.879053, 55.710313], [37.900575, 55.708517], [37.928036, 55.702969]]}}, {"type": "Feature", "properties": {"line_id": "16", "name": "Троицкая", "colour": "#78B0A0"}, "geometry": {"type": "LineString", "coordinates": [[37.52218, 55.669823], [37.539446, 55.658845], [37.57369, 55.655717], [37.5969296, 55.6525055], [37.606065, 55.640538], [37.609047, 55.622436], [37.468651, 55.560074], [37.576856, 55.568201], [37.596999, 55.583477], [37.601498, 55.596753], [37.602386, 55.610962], [37.515382, 55.537949], [37.531716, 55.542106], [37.55466, 55.548141]]}}, {"type": "Feature", "properties": {"line_id": "17", "name": "Рублёво-Архангельская", "colour": "#78909C"}, "geometry": {"type": "LineString", "coordinates": [[37.539904, 55.749025], [37.524067, 55.757116], [37.485077, 55.7757]]}}]}