{"type": "FeatureCollection", "features": [{"type": "Feature", "properties": {"address_id": "lp-55", "label": "ЛП-55", "name": "Ленинский проспект, 55/1 ст1", "min": 20, "mode": "driving", "method": "isochrone driving reverse:true", "status": "approx: гипотеза A (start_time = выезд), +8–14% (Гейт 2)", "start_time": "2026-10-14T05:10:00Z", "request_hash": "bc00fe5668b1c1d34cd3fd2bed5d4ae8a387dfb8", "was_invalid": false}, "geometry": {"type": "MultiPolygon", "coordinates": [[[[37.539544, 55.655043], [37.547351, 55.662635], [37.550798, 55.660407], [37.547377, 55.657923], [37.558447, 55.660553], [37.562644, 55.658296], [37.564581, 55.65922], [37.560781, 55.662372], [37.551447, 55.664837], [37.553943, 55.667045], [37.56152, 55.665239], [37.575721, 55.666692], [37.579895, 55.663942], [37.586078, 55.668303], [37.599798, 55.664727], [37.59371, 55.669059], [37.596001, 55.670994], [37.599568, 55.668696], [37.601264, 55.669331], [37.602546, 55.671659], [37.598424, 55.673601], [37.600241, 55.674823], [37.610523, 55.668692], [37.61176, 55.672123], [37.616353, 55.673222], [37.617595, 55.672123], [37.617903, 55.67292], [37.615402, 55.675002], [37.617342, 55.677426], [37.613366, 55.676772], [37.609118, 55.673186], [37.603101, 55.677222], [37.610762, 55.680188], [37.615508, 55.683715], [37.614683, 55.686437], [37.622913, 55.690171], [37.622324, 55.699924], [37.624255, 55.700102], [37.626133, 55.696444], [37.627869, 55.702124], [37.628119, 55.697419], [37.631968, 55.695854], [37.631773, 55.698155], [37.636886, 55.699143], [37.63818, 55.701242], [37.631393, 55.702124], [37.631701, 55.703371], [37.638973, 55.703938], [37.653887, 55.702221], [37.655681, 55.703627], [37.652438, 55.703656], [37.652806, 55.706011], [37.649282, 55.703954], [37.646988, 55.707294], [37.640192, 55.706698], [37.638968, 55.705042], [37.636639, 55.706646], [37.627377, 55.706429], [37.627213, 55.707708], [37.629884, 55.707637], [37.634834, 55.711644], [37.635978, 55.719365], [37.631476, 55.720352], [37.636889, 55.721822], [37.633457, 55.723908], [37.639318, 55.726511], [37.636553, 55.726983], [37.636498, 55.730451], [37.649331, 55.727589], [37.652987, 55.728861], [37.65038, 55.731014], [37.653229, 55.73171], [37.651412, 55.735413], [37.653985, 55.736837], [37.653898, 55.740178], [37.658863, 55.74076], [37.655839, 55.743346], [37.655525, 55.748087], [37.657707, 55.749155], [37.658734, 55.75515], [37.654741, 55.755153], [37.654111, 55.749824], [37.650374, 55.749168], [37.653933, 55.747229], [37.653887, 55.743964], [37.648178, 55.744705], [37.646988, 55.743129], [37.642662, 55.746731], [37.636429, 55.747741], [37.635783, 55.74996], [37.633026, 55.749096], [37.632531, 55.751297], [37.627193, 55.75095], [37.628487, 55.753963], [37.626653, 55.752685], [37.62143, 55.753846], [37.620564, 55.750031], [37.61234, 55.74841], [37.615071, 55.754503], [37.613366, 55.755134], [37.609224, 55.749773], [37.606623, 55.750413], [37.607442, 55.753691], [37.599594, 55.756156], [37.599189, 55.759699], [37.595636, 55.7578], [37.599002, 55.753555], [37.595213, 55.755211], [37.594819, 55.753714], [37.590367, 55.752911], [37.591051, 55.755228], [37.585822, 55.755499], [37.584528, 55.75755], [37.591672, 55.766093], [37.599189, 55.770873], [37.602411, 55.771042], [37.599887, 55.772031], [37.592971, 55.769557], [37.583275, 55.76205], [37.58406, 55.760637], [37.576181, 55.760174], [37.574476, 55.758909], [37.577052, 55.757334], [37.573697, 55.75549], [37.573346, 55.757767], [37.568523, 55.757686], [37.565363, 55.754791], [37.55841, 55.756341], [37.552623, 55.750465], [37.553851, 55.748954], [37.556179, 55.75063], [37.560876, 55.749763], [37.554604, 55.748375], [37.551551, 55.749381], [37.534401, 55.744543], [37.533222, 55.748255], [37.540038, 55.750688], [37.543919, 55.748372], [37.544376, 55.751915], [37.549792, 55.754018], [37.547035, 55.755228], [37.541208, 55.753487], [37.537715, 55.756506], [37.536908, 55.752921], [37.53514, 55.753733], [37.534108, 55.756891], [37.538578, 55.766925], [37.545554, 55.772623], [37.556423, 55.77554], [37.555064, 55.777865], [37.553615, 55.775203], [37.545549, 55.773887], [37.537672, 55.767659], [37.526637, 55.767956], [37.527508, 55.765725], [37.535025, 55.76577], [37.531176, 55.756185], [37.528347, 55.756214], [37.52538, 55.76162], [37.520913, 55.763622], [37.520755, 55.765501], [37.517898, 55.765589], [37.529873, 55.753015], [37.529842, 55.750459], [37.514483, 55.744789], [37.50859, 55.739624], [37.503232, 55.740744], [37.503522, 55.742861], [37.499497, 55.7432], [37.499293, 55.745268], [37.496692, 55.74531], [37.493967, 55.742071], [37.49589, 55.73887], [37.500943, 55.737287], [37.504721, 55.738239], [37.504626, 55.736724], [37.474149, 55.7306], [37.457367, 55.728719], [37.455001, 55.727194], [37.45102, 55.727566], [37.451618, 55.726245], [37.455519, 55.726197], [37.487815, 55.731827], [37.496913, 55.731377], [37.510073, 55.733264], [37.503232, 55.724999], [37.516814, 55.731202], [37.520755, 55.731234], [37.517639, 55.730169], [37.519094, 55.726346], [37.527534, 55.723927], [37.522425, 55.724134], [37.519993, 55.721981], [37.521574, 55.720585], [37.518039, 55.721233], [37.516481, 55.723574], [37.505284, 55.721482], [37.507403, 55.718944], [37.505304, 55.717933], [37.513983, 55.716573], [37.507748, 55.712709], [37.502579, 55.720624], [37.499897, 55.721175], [37.504177, 55.710821], [37.504137, 55.707747], [37.500567, 55.705781], [37.506954, 55.702538], [37.500696, 55.700099], [37.500268, 55.698236], [37.507857, 55.701777], [37.513606, 55.697646], [37.518159, 55.701385], [37.521382, 55.697857], [37.527666, 55.695423], [37.521758, 55.695038], [37.518964, 55.693126], [37.512209, 55.69462], [37.511332, 55.69693], [37.5055, 55.695193], [37.505508, 55.692728], [37.51043, 55.69298], [37.51968, 55.685734], [37.507049, 55.67836], [37.503255, 55.678334], [37.503358, 55.676013], [37.495965, 55.672029], [37.497431, 55.670527], [37.5047, 55.673543], [37.506733, 55.667233], [37.518277, 55.670842], [37.508975, 55.664104], [37.504761, 55.667791], [37.500682, 55.667762], [37.506034, 55.663595], [37.505511, 55.661046], [37.510941, 55.661026], [37.511712, 55.663663], [37.520795, 55.668923], [37.524992, 55.664289], [37.518884, 55.659051], [37.520249, 55.657011], [37.523552, 55.65874], [37.52632, 55.656243], [37.533708, 55.655552], [37.536525, 55.656603], [37.539544, 55.655043]]]]}}, {"type": "Feature", "properties": {"address_id": "lp-55", "label": "ЛП-55", "name": "Ленинский проспект, 55/1 ст1", "min": 40, "mode": "driving", "method": "isochrone driving reverse:true", "status": "approx: гипотеза A (start_time = выезд), +8–14% (Гейт 2)", "start_time": "2026-10-14T04:50:00Z", "request_hash": "3d9dbe97d3f7677a8776fc66c4239eab3c53f525", "was_invalid": false}, "geometry": {"type": "MultiPolygon", "coordinates": [[[[37.535924, 55.595387], [37.539038, 55.596293], [37.543879, 55.602549], [37.547012, 55.599766], [37.550979, 55.600994], [37.55588, 55.600022], [37.552977, 55.602796], [37.545178, 55.605005], [37.549053, 55.60922], [37.555394, 55.61059], [37.557593, 55.609639], [37.560071, 55.61297], [37.546859, 55.62075], [37.543364, 55.630523], [37.548058, 55.637744], [37.55918, 55.641184], [37.566502, 55.646826], [37.586104, 55.642274], [37.587305, 55.639681], [37.584313, 55.637702], [37.587394, 55.635972], [37.584517, 55.633804], [37.587256, 55.631591], [37.591013, 55.631828], [37.589246, 55.629102], [37.592071, 55.629108], [37.597536, 55.632915], [37.600037, 55.632026], [37.594986, 55.623412], [37.606108, 55.620808], [37.601161, 55.611051], [37.609026, 55.608054], [37.612495, 55.609155], [37.619642, 55.607687], [37.621022, 55.609097], [37.617885, 55.610428], [37.621137, 55.613344], [37.625627, 55.612354], [37.624008, 55.608116], [37.632396, 55.609983], [37.630611, 55.611925], [37.634719, 55.613029], [37.629473, 55.614178], [37.627768, 55.617357], [37.632871, 55.615058], [37.633661, 55.616867], [37.632319, 55.619032], [37.627492, 55.619555], [37.625037, 55.62199], [37.62667, 55.624067], [37.622634, 55.628832], [37.628504, 55.631714], [37.630522, 55.630543], [37.630605, 55.633931], [37.639146, 55.633136], [37.637404, 55.630497], [37.631226, 55.629683], [37.632143, 55.628345], [37.636907, 55.628112], [37.636648, 55.624343], [37.641561, 55.623908], [37.640767, 55.627255], [37.644984, 55.62731], [37.642984, 55.62633], [37.64445, 55.622318], [37.641906, 55.619298], [37.64217, 55.613776], [37.64516, 55.616984], [37.644231, 55.620782], [37.650173, 55.624067], [37.646827, 55.62731], [37.649276, 55.637053], [37.655396, 55.636599], [37.657078, 55.633], [37.660769, 55.631348], [37.659101, 55.635427], [37.661464, 55.63702], [37.658469, 55.638007], [37.679948, 55.636774], [37.68146, 55.635541], [37.687497, 55.636255], [37.688049, 55.638474], [37.692398, 55.637767], [37.689176, 55.64034], [37.690731, 55.642945], [37.686114, 55.641294], [37.66513, 55.649885], [37.664586, 55.654118], [37.659662, 55.652963], [37.655914, 55.65441], [37.655934, 55.659535], [37.663571, 55.664976], [37.666308, 55.670758], [37.665351, 55.67471], [37.671135, 55.67602], [37.675398, 55.674279], [37.679796, 55.674979], [37.680379, 55.681307], [37.685358, 55.67658], [37.683521, 55.674525], [37.689572, 55.674249], [37.691013, 55.676914], [37.686701, 55.678606], [37.684662, 55.682097], [37.687514, 55.680999], [37.687968, 55.683293], [37.697541, 55.685403], [37.70026, 55.688288], [37.696391, 55.691807], [37.691056, 55.691924], [37.68687, 55.691311], [37.674644, 55.687624], [37.672586, 55.687474], [37.672336, 55.686975], [37.669924, 55.686988], [37.671983, 55.68716], [37.672236, 55.687659], [37.674239, 55.687834], [37.675682, 55.688959], [37.683352, 55.691123], [37.685887, 55.694092], [37.684901, 55.69739], [37.691757, 55.702571], [37.696365, 55.701968], [37.708001, 55.698064], [37.7064, 55.697361], [37.708588, 55.694792], [37.713877, 55.692131], [37.715599, 55.678328], [37.71875, 55.681216], [37.718336, 55.685374], [37.721785, 55.684878], [37.722981, 55.68154], [37.726589, 55.681657], [37.730055, 55.684113], [37.726048, 55.686185], [37.725105, 55.688998], [37.721713, 55.68658], [37.7191, 55.687624], [37.724772, 55.692332], [37.730995, 55.692125], [37.738274, 55.699312], [37.732979, 55.70109], [37.733401, 55.702959], [37.742727, 55.704242], [37.740873, 55.707278], [37.746104, 55.707184], [37.74682, 55.703685], [37.750442, 55.701417], [37.74939, 55.707193], [37.76464, 55.704706], [37.765597, 55.701651], [37.768883, 55.704061], [37.773606, 55.703705], [37.773755, 55.705295], [37.767319, 55.706202], [37.764134, 55.70984], [37.761593, 55.709671], [37.763113, 55.706759], [37.750241, 55.708891], [37.751977, 55.71063], [37.746734, 55.712097], [37.744282, 55.715521], [37.746182, 55.717049], [37.742833, 55.71828], [37.740128, 55.718506], [37.73201, 55.714688], [37.729547, 55.716152], [37.732062, 55.719151], [37.740361, 55.720025], [37.734971, 55.721664], [37.739205, 55.724659], [37.730955, 55.723007], [37.727158, 55.725232], [37.728368, 55.727961], [37.73427, 55.727424], [37.73671, 55.72563], [37.741266, 55.72585], [37.741289, 55.729321], [37.752817, 55.728126], [37.756189, 55.726303], [37.761101, 55.731289], [37.759098, 55.733286], [37.746268, 55.732011], [37.732033, 55.733798], [37.72608, 55.732354], [37.73103, 55.742644], [37.735555, 55.744773], [37.736911, 55.743967], [37.732697, 55.7372], [37.734247, 55.734795], [37.737834, 55.738401], [37.747001, 55.738504], [37.749307, 55.735368], [37.752233, 55.73719], [37.740349, 55.745414], [37.721618, 55.750465], [37.733493, 55.752901], [37.73732, 55.755645], [37.729777, 55.756499], [37.728618, 55.754881], [37.724821, 55.756735], [37.720411, 55.754403], [37.7204, 55.758838], [37.724407, 55.762755], [37.72046, 55.763328], [37.721044, 55.767064], [37.714553, 55.773111], [37.717508, 55.774398], [37.716548, 55.776335], [37.720328, 55.781024], [37.724502, 55.781547], [37.724786, 55.783885], [37.722415, 55.784935], [37.721765, 55.782582], [37.719112, 55.78606], [37.712765, 55.786623], [37.716263, 55.789261], [37.71319, 55.79057], [37.713245, 55.794422], [37.717583, 55.796161], [37.714829, 55.79747], [37.712517, 55.796381], [37.710163, 55.800518], [37.707559, 55.798931], [37.707889, 55.795547], [37.701916, 55.798798], [37.705075, 55.799635], [37.705745, 55.803032], [37.699153, 55.802166], [37.701275, 55.806499], [37.699015, 55.808809], [37.69713, 55.80825], [37.699564, 55.806744], [37.696684, 55.802056], [37.689555, 55.800682], [37.683745, 55.803297], [37.685134, 55.799496], [37.68236, 55.799118], [37.676111, 55.793049], [37.661709, 55.794364], [37.66362, 55.797354], [37.660409, 55.801807], [37.654775, 55.80097], [37.655204, 55.798863], [37.651242, 55.797877], [37.655209, 55.795033], [37.637838, 55.793718], [37.637956, 55.795987], [37.646105, 55.795586], [37.646519, 55.799555], [37.650909, 55.802256], [37.64551, 55.806062], [37.646833, 55.808818], [37.655097, 55.810773], [37.65727, 55.809733], [37.660027, 55.81127], [37.658552, 55.812766], [37.654626, 55.811648], [37.652521, 55.813222], [37.654157, 55.814042], [37.649026, 55.81433], [37.646982, 55.816814], [37.644956, 55.814327], [37.640146, 55.814756], [37.638861, 55.813125], [37.638562, 55.815089], [37.641411, 55.817676], [37.639025, 55.818348], [37.641592, 55.81901], [37.640532, 55.821113], [37.637105, 55.81838], [37.636955, 55.814294], [37.633681, 55.814766], [37.630022, 55.811732], [37.625681, 55.811225], [37.629059, 55.807953], [37.628616, 55.804615], [37.623287, 55.807381], [37.619323, 55.815405], [37.616712, 55.81537], [37.6179, 55.814055], [37.614393, 55.810292], [37.601103, 55.813764], [37.602532, 55.8119], [37.599522, 55.810334], [37.604846, 55.809549], [37.605292, 55.807219], [37.608181, 55.807529], [37.606827, 55.805154], [37.604444, 55.806289], [37.597372, 55.805972], [37.595745, 55.813787], [37.591468, 55.813997], [37.591511, 55.811749], [37.587966, 55.813829], [37.587627, 55.816597], [37.582614, 55.816126], [37.580354, 55.817314], [37.580766, 55.813897], [37.577868, 55.814394], [37.573654, 55.826903], [37.570834, 55.826894], [37.56722, 55.824123], [37.571567, 55.822166], [37.572955, 55.818997], [37.571098, 55.817554], [37.570213, 55.820137], [37.564952, 55.818067], [37.560367, 55.822883], [37.562644, 55.824811], [37.559315, 55.824624], [37.556101, 55.82762], [37.553471, 55.826748], [37.558847, 55.81901], [37.553569, 55.817218], [37.553296, 55.815454], [37.557838, 55.808434], [37.554917, 55.806079], [37.55972, 55.804334], [37.553911, 55.804085], [37.543881, 55.810812], [37.536511, 55.807972], [37.539584, 55.811277], [37.531202, 55.814265], [37.519102, 55.812973], [37.5206, 55.814646], [37.537175, 55.816439], [37.538014, 55.818513], [37.530115, 55.822886], [37.533625, 55.826807], [37.533401, 55.831715], [37.547317, 55.839841], [37.534349, 55.837714], [37.534197, 55.835528], [37.530431, 55.83558], [37.530213, 55.837265], [37.52699, 55.836639], [37.525024, 55.831773], [37.51782, 55.834136], [37.511283, 55.832409], [37.508535, 55.836377], [37.51387, 55.836936], [37.514319, 55.838366], [37.506385, 55.838211], [37.504721, 55.843763], [37.50176, 55.84396], [37.501237, 55.838879], [37.495806, 55.839974], [37.494625, 55.838605], [37.504419, 55.835518], [37.50481, 55.830213], [37.492986, 55.826025], [37.483477, 55.839031], [37.485354, 55.840277], [37.480054, 55.841442], [37.47868, 55.843754], [37.476432, 55.842892], [37.477489, 55.841013], [37.486211, 55.830627], [37.480996, 55.827656], [37.475661, 55.828899], [37.474132, 55.82804], [37.478064, 55.825192], [37.487433, 55.826206], [37.491825, 55.822188], [37.487562, 55.821139], [37.485015, 55.815703], [37.47903, 55.815531], [37.479183, 55.813797], [37.476866, 55.813777], [37.471654, 55.815777], [37.469021, 55.8211], [37.462297, 55.826913], [37.459, 55.825773], [37.463571, 55.821894], [37.461219, 55.819036], [37.450232, 55.820215], [37.452912, 55.820777], [37.451376, 55.822867], [37.453153, 55.825453], [37.457537, 55.825944], [37.459555, 55.830388], [37.454964, 55.827827], [37.452656, 55.830239], [37.450261, 55.827775], [37.446892, 55.829096], [37.44281, 55.828347], [37.444331, 55.825944], [37.447599, 55.824791], [37.448059, 55.826322], [37.449959, 55.825027], [37.446883, 55.821429], [37.439996, 55.823735], [37.437633, 55.823002], [37.441652, 55.818949], [37.440689, 55.815816], [37.443744, 55.815612], [37.446906, 55.817993], [37.446449, 55.815806], [37.449422, 55.81527], [37.451983, 55.810818], [37.447806, 55.810104], [37.447806, 55.808511], [37.458641, 55.80866], [37.452949, 55.805956], [37.43613, 55.804175], [37.448373, 55.804311], [37.447594, 55.798378], [37.451667, 55.796497], [37.453952, 55.791223], [37.450307, 55.788572], [37.449094, 55.790528], [37.451129, 55.79206], [37.446556, 55.793517], [37.443566, 55.788608], [37.440798, 55.789733], [37.433042, 55.786613], [37.426293, 55.785963], [37.415749, 55.79142], [37.409735, 55.791271], [37.411488, 55.797628], [37.407337, 55.800262], [37.41037, 55.803002], [37.406774, 55.803116], [37.402091, 55.800307], [37.393637, 55.801587], [37.395011, 55.804263], [37.39995, 55.804647], [37.397181, 55.806728], [37.399892, 55.810214], [37.410206, 55.806857], [37.410778, 55.8093], [37.406291, 55.809952], [37.40918, 55.813047], [37.411644, 55.813196], [37.409709, 55.813994], [37.40438, 55.811694], [37.400714, 55.812957], [37.40477, 55.818313], [37.395925, 55.820948], [37.396888, 55.828463], [37.394948, 55.829758], [37.398004, 55.83999], [37.396598, 55.842404], [37.391717, 55.843947], [37.394476, 55.832984], [37.388854, 55.832141], [37.393068, 55.829377], [37.381386, 55.830188], [37.378508, 55.827811], [37.378635, 55.825483], [37.382794, 55.822863], [37.380995, 55.820935], [37.383895, 55.816452], [37.379845, 55.813829], [37.380354, 55.811836], [37.377128, 55.812356], [37.372736, 55.810605], [37.368798, 55.798921], [37.358233, 55.795056], [37.354706, 55.7981], [37.359783, 55.80139], [37.359783, 55.804292], [37.354974, 55.804408], [37.351757, 55.801409], [37.349242, 55.801429], [37.344579, 55.8051], [37.342524, 55.799461], [37.33883, 55.800582], [37.335964, 55.79939], [37.350052, 55.793644], [37.355071, 55.79311], [37.351872, 55.790356], [37.352729, 55.786694], [37.344979, 55.782162], [37.348819, 55.780965], [37.352559, 55.782223], [37.353904, 55.779617], [37.344895, 55.775912], [37.342463, 55.773137], [37.343737, 55.770298], [37.346542, 55.768167], [37.353019, 55.769004], [37.353016, 55.772028], [37.346752, 55.772012], [37.352622, 55.775106], [37.364167, 55.771194], [37.358596, 55.769454], [37.360263, 55.768047], [37.364172, 55.768603], [37.363023, 55.765964], [37.342736, 55.761203], [37.328473, 55.751064], [37.32738, 55.752235], [37.320277, 55.752283], [37.32124, 55.756247], [37.324235, 55.757583], [37.32262, 55.758482], [37.316713, 55.758372], [37.317081, 55.754273], [37.3109, 55.753497], [37.306085, 55.757272], [37.310639, 55.761148], [37.307784, 55.763726], [37.302909, 55.762914], [37.29803, 55.75854], [37.300609, 55.754202], [37.305602, 55.753697], [37.303633, 55.75284], [37.305559, 55.747831], [37.294015, 55.752756], [37.284787, 55.752617], [37.282234, 55.751264], [37.288306, 55.749015], [37.290499, 55.746252], [37.284827, 55.745003], [37.283338, 55.748022], [37.277425, 55.742696], [37.273185, 55.740488], [37.268428, 55.740255], [37.267008, 55.738161], [37.270661, 55.732772], [37.268218, 55.725921], [37.269839, 55.725002], [37.274809, 55.726268], [37.275965, 55.725005], [37.26104, 55.718536], [37.262587, 55.716593], [37.266464, 55.716201], [37.268856, 55.711401], [37.26432, 55.702992], [37.265631, 55.696055], [37.263173, 55.694085], [37.245448, 55.691431], [37.227166, 55.7018], [37.228916, 55.703782], [37.224139, 55.708541], [37.199429, 55.714054], [37.196163, 55.71749], [37.198621, 55.719365], [37.197408, 55.720051], [37.193866, 55.718053], [37.192518, 55.721469], [37.191267, 55.718746], [37.194524, 55.714853], [37.192386, 55.71075], [37.19537, 55.710824], [37.196238, 55.712505], [37.204301, 55.710753], [37.200314, 55.706759], [37.203556, 55.704171], [37.209225, 55.705522], [37.206244, 55.706636], [37.206661, 55.709289], [37.217231, 55.707239], [37.22127, 55.701097], [37.224173, 55.700374], [37.221638, 55.696642], [37.217682, 55.69648], [37.214917, 55.701414], [37.209763, 55.70399], [37.207276, 55.701955], [37.212295, 55.698651], [37.2088, 55.696444], [37.204229, 55.697212], [37.203743, 55.695751], [37.21262, 55.693952], [37.205715, 55.690083], [37.198267, 55.689075], [37.198284, 55.687494], [37.205339, 55.687902], [37.211154, 55.685446], [37.210884, 55.689108], [37.227237, 55.696234], [37.227603, 55.692844], [37.223282, 55.689902], [37.225884, 55.685549], [37.228916, 55.685753], [37.22676, 55.688612], [37.228459, 55.690527], [37.235332, 55.691049], [37.244629, 55.688301], [37.238201, 55.686032], [37.231886, 55.681096], [37.206969, 55.680276], [37.193892, 55.677812], [37.190241, 55.680503], [37.194619, 55.684408], [37.188287, 55.686609], [37.188482, 55.682963], [37.182457, 55.68341], [37.180896, 55.682078], [37.187482, 55.680713], [37.187151, 55.67849], [37.183601, 55.678778], [37.179278, 55.676464], [37.170987, 55.67517], [37.168038, 55.678597], [37.171326, 55.679848], [37.167963, 55.680512], [37.1594, 55.689215], [37.156683, 55.688346], [37.159745, 55.686632], [37.162024, 55.681012], [37.154496, 55.680739], [37.143356, 55.683964], [37.138734, 55.683504], [37.142031, 55.681806], [37.141054, 55.680752], [37.14482, 55.681313], [37.154855, 55.677702], [37.15852, 55.679122], [37.165301, 55.677362], [37.166095, 55.673212], [37.170214, 55.671205], [37.168274, 55.66819], [37.171332, 55.666893], [37.167239, 55.664127], [37.170956, 55.662139], [37.175541, 55.662865], [37.17527, 55.658322], [37.180591, 55.659551], [37.182756, 55.658474], [37.169265, 55.656476], [37.170585, 55.655056], [37.173836, 55.655205], [37.175233, 55.652474], [37.176104, 55.655214], [37.181198, 55.654303], [37.184176, 55.656813], [37.1882, 55.655004], [37.190785, 55.655707], [37.19399, 55.65935], [37.196982, 55.659103], [37.197503, 55.6556], [37.206494, 55.6556], [37.208127, 55.656515], [37.206345, 55.657936], [37.210039, 55.658545], [37.211367, 55.65718], [37.210254, 55.653878], [37.193915, 55.654932], [37.183319, 55.652772], [37.176429, 55.648234], [37.173847, 55.63998], [37.177076, 55.637692], [37.177711, 55.630559], [37.174629, 55.6246], [37.161199, 55.625681], [37.156071, 55.62398], [37.150255, 55.628417], [37.151506, 55.624684], [37.133111, 55.622386], [37.132272, 55.620928], [37.128512, 55.621736], [37.128348, 55.620207], [37.123823, 55.621045], [37.122182, 55.618932], [37.134158, 55.619308], [37.142195, 55.622389], [37.146527, 55.620824], [37.144035, 55.619464], [37.145259, 55.618548], [37.14843, 55.620227], [37.14672, 55.622155], [37.150178, 55.622876], [37.15311, 55.619857], [37.149876, 55.618224], [37.153705, 55.616062], [37.154682, 55.617591], [37.158592, 55.617331], [37.155674, 55.622113], [37.157224, 55.623019], [37.164054, 55.621905], [37.174678, 55.622616], [37.182923, 55.627372], [37.179901, 55.640298], [37.185222, 55.646842], [37.184555, 55.64932], [37.188275, 55.650771], [37.202254, 55.651413], [37.203999, 55.645862], [37.208052, 55.64496], [37.213738, 55.646015], [37.21433, 55.651328], [37.217018, 55.652821], [37.22413, 55.650835], [37.223587, 55.649217], [37.226145, 55.648516], [37.231949, 55.650183], [37.236132, 55.656632], [37.241093, 55.655652], [37.246834, 55.657465], [37.25515, 55.655364], [37.26035, 55.651176], [37.262863, 55.651348], [37.25862, 55.656025], [37.249809, 55.659136], [37.253819, 55.661792], [37.24786, 55.662285], [37.246624, 55.663653], [37.27215, 55.671597], [37.273568, 55.669331], [37.266065, 55.667275], [37.274697, 55.667039], [37.276465, 55.664146], [37.280274, 55.663066], [37.279803, 55.661506], [37.288222, 55.658091], [37.288573, 55.66136], [37.283318, 55.66496], [37.287369, 55.664149], [37.292106, 55.667496], [37.28932, 55.669098], [37.285655, 55.668044], [37.284313, 55.67008], [37.287912, 55.671238], [37.284471, 55.672914], [37.29655, 55.678405], [37.297197, 55.683255], [37.310483, 55.685987], [37.312116, 55.682308], [37.316911, 55.682917], [37.326434, 55.686829], [37.323666, 55.688255], [37.32851, 55.690961], [37.33231, 55.690848], [37.32801, 55.686933], [37.329157, 55.684859], [37.33244, 55.686551], [37.343153, 55.67906], [37.345982, 55.67906], [37.346151, 55.681183], [37.348592, 55.681472], [37.349975, 55.67837], [37.357293, 55.678636], [37.356848, 55.675971], [37.359254, 55.674522], [37.364445, 55.676716], [37.374371, 55.671166], [37.378304, 55.673377], [37.373167, 55.675345], [37.374912, 55.67918], [37.366297, 55.681154], [37.368726, 55.683167], [37.373889, 55.68214], [37.372026, 55.685002], [37.38023, 55.690287], [37.382984, 55.681375], [37.386629, 55.67835], [37.383202, 55.675913], [37.384568, 55.673873], [37.392884, 55.675718], [37.397768, 55.671935], [37.398245, 55.681109], [37.400895, 55.682542], [37.40352, 55.681012], [37.406616, 55.683203], [37.411445, 55.681112], [37.408298, 55.678114], [37.408499, 55.674732], [37.418385, 55.666889], [37.398599, 55.662181], [37.391826, 55.662087], [37.38595, 55.664039], [37.386847, 55.661552], [37.394022, 55.660083], [37.409226, 55.661779], [37.409077, 55.660362], [37.404124, 55.659921], [37.403937, 55.657851], [37.408878, 55.658734], [37.414334, 55.655467], [37.415657, 55.659833], [37.427368, 55.658387], [37.432039, 55.659629], [37.433609, 55.656564], [37.428273, 55.655957], [37.429302, 55.652399], [37.434235, 55.64981], [37.435106, 55.654193], [37.439073, 55.654069], [37.45614, 55.638348], [37.448919, 55.636547], [37.448065, 55.634457], [37.436567, 55.632785], [37.43554, 55.631159], [37.424674, 55.628255], [37.417396, 55.634496], [37.416568, 55.63189], [37.420633, 55.628508], [37.396046, 55.620977], [37.39427, 55.618831], [37.416456, 55.623736], [37.418606, 55.622762], [37.41783, 55.620552], [37.421561, 55.619915], [37.422395, 55.62621], [37.425425, 55.625557], [37.426212, 55.621688], [37.427678, 55.625401], [37.433094, 55.628193], [37.438317, 55.62494], [37.431573, 55.622957], [37.430538, 55.620672], [37.435336, 55.619886], [37.439441, 55.623067], [37.445889, 55.620185], [37.447387, 55.622061], [37.441824, 55.627294], [37.44634, 55.626365], [37.459578, 55.627631], [37.454654, 55.634233], [37.459543, 55.636079], [37.461863, 55.639062], [37.46224, 55.635537], [37.474595, 55.625362], [37.473097, 55.623902], [37.479116, 55.621483], [37.488942, 55.6115], [37.482089, 55.602579], [37.482414, 55.599168], [37.48601, 55.601419], [37.488996, 55.601335], [37.487663, 55.605437], [37.490641, 55.609434], [37.505615, 55.599353], [37.505684, 55.601422], [37.495677, 55.611064], [37.50832, 55.605073], [37.50928, 55.607336], [37.502979, 55.609626], [37.499311, 55.613649], [37.506319, 55.617724], [37.512698, 55.616789], [37.507426, 55.619292], [37.514684, 55.625408], [37.517044, 55.626083], [37.52743, 55.623717], [37.52937, 55.625145], [37.528336, 55.628784], [37.536494, 55.630046], [37.54013, 55.626667], [37.531449, 55.623421], [37.534047, 55.620029], [37.540167, 55.619526], [37.536712, 55.61426], [37.531955, 55.614711], [37.525958, 55.613175], [37.523095, 55.610269], [37.5182, 55.611155], [37.517786, 55.60983], [37.522161, 55.606521], [37.519131, 55.600734], [37.522529, 55.598587], [37.531227, 55.597638], [37.532903, 55.595332], [37.535924, 55.595387]]]]}}, {"type": "Feature", "properties": {"address_id": "siti", "label": "Сити", "name": "Башня на Набережной, многофункциональный комплекс", "min": 20, "mode": "driving", "method": "isochrone driving reverse:true", "status": "approx: гипотеза A (start_time = выезд), +8–14% (Гейт 2)", "start_time": "2026-10-14T05:10:00Z", "request_hash": "ca35a3ca644500003c32f4fae344aa1a0bc9660c", "was_invalid": false}, "geometry": {"type": "MultiPolygon", "coordinates": [[[[37.277195, 55.679112], [37.27537, 55.69102], [37.296562, 55.695913], [37.308046, 55.701738], [37.312481, 55.707848], [37.316169, 55.70686], [37.317155, 55.70108], [37.310854, 55.700601], [37.315155, 55.697306], [37.315557, 55.693969], [37.319691, 55.693272], [37.321571, 55.697112], [37.325888, 55.692679], [37.329818, 55.69274], [37.328102, 55.695417], [37.331201, 55.696664], [37.327067, 55.697863], [37.326322, 55.699956], [37.328861, 55.703841], [37.325903, 55.704641], [37.322473, 55.70109], [37.320271, 55.713062], [37.330698, 55.722671], [37.346951, 55.724811], [37.347985, 55.727204], [37.353841, 55.72981], [37.374541, 55.729123], [37.378014, 55.726507], [37.376878, 55.725151], [37.371971, 55.725157], [37.368726, 55.728052], [37.366576, 55.724458], [37.362554, 55.723875], [37.363247, 55.721178], [37.35416, 55.72189], [37.353301, 55.720731], [37.365322, 55.719141], [37.364799, 55.716835], [37.368959, 55.716269], [37.369924, 55.714633], [37.373595, 55.714711], [37.375562, 55.718801], [37.380126, 55.718244], [37.382854, 55.714426], [37.366185, 55.71109], [37.35153, 55.702185], [37.361878, 55.704757], [37.364126, 55.702979], [37.367852, 55.703688], [37.369281, 55.705451], [37.366665, 55.708434], [37.369876, 55.707514], [37.371048, 55.709082], [37.379333, 55.706581], [37.378623, 55.703662], [37.384936, 55.703141], [37.382369, 55.704476], [37.384441, 55.706144], [37.393146, 55.703977], [37.395707, 55.701294], [37.384757, 55.695203], [37.378816, 55.695582], [37.380629, 55.69347], [37.376668, 55.690414], [37.385088, 55.691383], [37.385723, 55.693615], [37.394031, 55.697756], [37.399619, 55.693207], [37.401456, 55.694448], [37.398225, 55.697377], [37.399682, 55.699538], [37.413935, 55.689134], [37.417108, 55.680918], [37.421133, 55.68504], [37.417867, 55.684875], [37.415191, 55.69147], [37.407165, 55.698434], [37.415864, 55.704051], [37.420946, 55.700549], [37.422495, 55.695265], [37.425186, 55.694902], [37.42767, 55.698233], [37.420293, 55.703802], [37.423251, 55.705817], [37.424326, 55.712259], [37.431289, 55.712515], [37.425887, 55.716816], [37.426083, 55.719465], [37.441111, 55.720449], [37.464166, 55.727168], [37.488206, 55.728719], [37.497962, 55.722366], [37.517159, 55.731176], [37.530891, 55.732464], [37.535453, 55.729535], [37.540006, 55.73115], [37.542427, 55.729696], [37.53428, 55.727576], [37.527835, 55.727777], [37.528933, 55.729748], [37.526829, 55.730697], [37.520226, 55.728612], [37.520232, 55.726359], [37.527608, 55.72394], [37.522537, 55.724073], [37.520126, 55.721978], [37.521595, 55.720501], [37.514764, 55.722842], [37.511571, 55.720511], [37.507578, 55.720258], [37.50821, 55.717438], [37.514138, 55.716476], [37.507684, 55.711576], [37.510441, 55.711469], [37.518016, 55.715482], [37.520997, 55.713513], [37.52156, 55.709837], [37.525001, 55.709406], [37.527669, 55.71108], [37.532426, 55.70833], [37.531196, 55.706416], [37.534231, 55.70721], [37.535157, 55.704994], [37.540006, 55.705153], [37.542358, 55.707291], [37.557562, 55.705639], [37.556829, 55.707498], [37.544091, 55.709036], [37.539584, 55.714267], [37.537606, 55.726465], [37.545753, 55.727246], [37.550119, 55.722467], [37.566579, 55.718072], [37.560474, 55.716372], [37.563432, 55.714215], [37.556969, 55.708298], [37.564271, 55.713166], [37.570216, 55.712117], [37.56852, 55.715012], [37.573352, 55.715621], [37.58276, 55.709156], [37.581286, 55.707647], [37.595573, 55.705344], [37.584698, 55.709671], [37.593218, 55.714701], [37.5926, 55.716822], [37.586331, 55.71211], [37.582387, 55.711508], [37.573024, 55.71874], [37.578262, 55.722123], [37.565556, 55.724481], [37.564602, 55.727812], [37.582513, 55.733358], [37.582694, 55.734549], [37.587604, 55.732176], [37.585589, 55.735989], [37.587248, 55.737012], [37.592117, 55.734911], [37.589053, 55.729586], [37.595507, 55.730894], [37.597513, 55.733303], [37.610273, 55.728868], [37.619645, 55.728945], [37.618518, 55.731215], [37.614761, 55.731671], [37.615772, 55.733076], [37.626518, 55.7393], [37.631663, 55.745508], [37.635501, 55.744628], [37.635777, 55.745411], [37.632764, 55.746579], [37.634049, 55.747443], [37.643481, 55.745676], [37.643564, 55.748527], [37.635544, 55.749847], [37.637091, 55.752368], [37.631088, 55.757712], [37.627791, 55.758304], [37.628033, 55.755027], [37.631997, 55.754665], [37.632247, 55.752258], [37.631258, 55.753872], [37.626328, 55.752795], [37.623531, 55.754542], [37.620536, 55.750789], [37.613533, 55.7491], [37.617221, 55.75953], [37.612084, 55.760866], [37.615172, 55.762755], [37.614485, 55.766404], [37.610782, 55.767297], [37.616327, 55.768322], [37.617793, 55.772623], [37.620852, 55.772639], [37.621772, 55.770463], [37.624169, 55.773066], [37.632779, 55.771404], [37.635972, 55.773072], [37.628159, 55.776681], [37.62264, 55.77434], [37.622036, 55.779158], [37.617675, 55.779895], [37.615494, 55.779549], [37.616, 55.776309], [37.610207, 55.77467], [37.605611, 55.780458], [37.600991, 55.77931], [37.599028, 55.77617], [37.596383, 55.776972], [37.593466, 55.782129], [37.58803, 55.786005], [37.591781, 55.788071], [37.593822, 55.784593], [37.597484, 55.784447], [37.594863, 55.787974], [37.597507, 55.790492], [37.592063, 55.790573], [37.594132, 55.79206], [37.602886, 55.791575], [37.606424, 55.793324], [37.591045, 55.793572], [37.586963, 55.794978], [37.587751, 55.799926], [37.583577, 55.802854], [37.584011, 55.80687], [37.581455, 55.8072], [37.578552, 55.801884], [37.563072, 55.80361], [37.560819, 55.800886], [37.558461, 55.800459], [37.561161, 55.802434], [37.557197, 55.804402], [37.551577, 55.804528], [37.54993, 55.803523], [37.553164, 55.800938], [37.551525, 55.800114], [37.548771, 55.80172], [37.545143, 55.799609], [37.54936, 55.796384], [37.545865, 55.795024], [37.527246, 55.803381], [37.527669, 55.805575], [37.518116, 55.807439], [37.514175, 55.806418], [37.508831, 55.807303], [37.504879, 55.813771], [37.49821, 55.819169], [37.499046, 55.815118], [37.496879, 55.813428], [37.500095, 55.813374], [37.504795, 55.807914], [37.484894, 55.812098], [37.482189, 55.811529], [37.48141, 55.81275], [37.476104, 55.811894], [37.499888, 55.807213], [37.50439, 55.804592], [37.507802, 55.805058], [37.507957, 55.802573], [37.513589, 55.803804], [37.51525, 55.799836], [37.512197, 55.796365], [37.517349, 55.796316], [37.519436, 55.794458], [37.516578, 55.792561], [37.519413, 55.790621], [37.529681, 55.790715], [37.537853, 55.788737], [37.53288, 55.78619], [37.532317, 55.783248], [37.519381, 55.7851], [37.524343, 55.781741], [37.517918, 55.781402], [37.514077, 55.788566], [37.509231, 55.792464], [37.507316, 55.787011], [37.510683, 55.779591], [37.504249, 55.778191], [37.501432, 55.787926], [37.496396, 55.788314], [37.494815, 55.785611], [37.499405, 55.784108], [37.499104, 55.780254], [37.49161, 55.778282], [37.49478, 55.776759], [37.497747, 55.777703], [37.498281, 55.776361], [37.490348, 55.77649], [37.490327, 55.774906], [37.496534, 55.774434], [37.490635, 55.773102], [37.486289, 55.776477], [37.478613, 55.776562], [37.483664, 55.786044], [37.489517, 55.790402], [37.482664, 55.789535], [37.481686, 55.787176], [37.477688, 55.786836], [37.47916, 55.784712], [37.475, 55.783245], [37.478513, 55.781201], [37.475282, 55.776849], [37.470817, 55.777564], [37.4699, 55.7807], [37.466721, 55.778211], [37.462429, 55.77898], [37.463608, 55.784761], [37.459161, 55.779588], [37.456973, 55.780063], [37.459563, 55.785605], [37.454697, 55.784221], [37.453021, 55.780736], [37.450155, 55.780768], [37.448025, 55.790143], [37.444911, 55.780716], [37.440772, 55.782129], [37.445081, 55.784134], [37.444871, 55.788129], [37.44012, 55.788889], [37.433861, 55.786005], [37.43761, 55.782802], [37.436066, 55.781101], [37.439473, 55.779575], [37.430553, 55.7749], [37.435313, 55.77478], [37.445946, 55.778311], [37.437619, 55.774233], [37.432347, 55.77292], [37.428518, 55.773965], [37.407792, 55.772562], [37.40402, 55.773528], [37.410224, 55.770899], [37.415116, 55.772083], [37.42399, 55.771035], [37.430004, 55.765573], [37.433496, 55.766637], [37.43026, 55.76891], [37.432444, 55.771789], [37.440269, 55.772306], [37.439918, 55.773836], [37.448148, 55.777742], [37.452584, 55.777157], [37.467342, 55.767132], [37.47262, 55.767245], [37.464841, 55.76205], [37.467546, 55.759938], [37.471749, 55.764049], [37.4712, 55.760818], [37.46798, 55.759064], [37.470056, 55.758223], [37.466977, 55.75757], [37.468204, 55.755978], [37.474626, 55.757085], [37.472988, 55.759517], [37.47477, 55.761513], [37.480157, 55.760549], [37.485415, 55.762827], [37.483155, 55.763716], [37.475351, 55.762623], [37.478335, 55.767342], [37.489385, 55.768031], [37.496396, 55.766129], [37.502182, 55.76926], [37.508012, 55.76534], [37.50585, 55.763849], [37.507414, 55.7615], [37.511375, 55.760106], [37.505471, 55.759003], [37.50103, 55.761701], [37.499336, 55.757638], [37.503634, 55.755642], [37.501188, 55.754247], [37.492334, 55.754645], [37.481031, 55.75305], [37.491, 55.751772], [37.488925, 55.750142], [37.491075, 55.747294], [37.486907, 55.746087], [37.486749, 55.743822], [37.492596, 55.745773], [37.494447, 55.745061], [37.487139, 55.741948], [37.483759, 55.741776], [37.481359, 55.744265], [37.477544, 55.742657], [37.479579, 55.740815], [37.476334, 55.738203], [37.482675, 55.739524], [37.481804, 55.735569], [37.4863, 55.734442], [37.486056, 55.732972], [37.456853, 55.729], [37.456059, 55.727731], [37.427086, 55.728961], [37.427106, 55.730545], [37.431289, 55.731101], [37.429409, 55.733121], [37.438162, 55.733024], [37.437978, 55.734432], [37.433962, 55.734112], [37.429601, 55.736494], [37.42706, 55.734766], [37.426479, 55.737682], [37.419017, 55.741132], [37.423619, 55.742663], [37.42499, 55.747284], [37.431312, 55.7492], [37.429731, 55.750692], [37.421619, 55.746359], [37.413452, 55.74919], [37.418548, 55.744637], [37.416157, 55.742818], [37.41127, 55.744851], [37.409718, 55.744168], [37.412368, 55.741132], [37.40321, 55.745022], [37.398622, 55.74442], [37.395569, 55.745592], [37.396699, 55.742702], [37.390101, 55.737575], [37.391723, 55.736656], [37.396224, 55.737744], [37.399901, 55.735442], [37.383674, 55.735141], [37.380302, 55.733465], [37.380489, 55.735096], [37.375458, 55.736902], [37.37296, 55.747252], [37.369861, 55.749174], [37.370669, 55.753024], [37.377166, 55.757609], [37.376812, 55.759741], [37.371704, 55.757638], [37.371896, 55.764848], [37.380164, 55.764318], [37.404098, 55.752306], [37.409364, 55.752371], [37.400444, 55.756988], [37.402097, 55.760219], [37.396043, 55.758715], [37.388572, 55.764845], [37.384614, 55.763936], [37.386353, 55.76599], [37.38165, 55.768733], [37.376815, 55.768933], [37.370844, 55.771847], [37.372267, 55.774023], [37.388287, 55.776345], [37.384824, 55.777308], [37.374469, 55.776128], [37.372767, 55.777965], [37.373308, 55.788669], [37.38894, 55.786277], [37.384786, 55.78896], [37.379462, 55.788863], [37.374909, 55.790573], [37.385209, 55.800925], [37.382627, 55.80109], [37.379235, 55.797551], [37.376453, 55.799128], [37.376001, 55.794484], [37.370991, 55.789577], [37.366323, 55.792121], [37.36103, 55.791863], [37.369393, 55.787761], [37.367021, 55.785705], [37.369016, 55.782585], [37.367863, 55.77424], [37.360205, 55.777043], [37.361637, 55.786005], [37.353496, 55.786833], [37.346499, 55.782158], [37.348603, 55.781214], [37.352522, 55.78242], [37.356451, 55.780225], [37.3443, 55.774557], [37.34432, 55.771009], [37.347152, 55.770945], [37.34775, 55.77391], [37.35291, 55.775837], [37.364253, 55.771252], [37.359056, 55.769227], [37.364284, 55.768665], [37.363143, 55.76588], [37.344286, 55.761607], [37.328565, 55.750646], [37.322835, 55.751374], [37.313755, 55.748954], [37.317538, 55.748207], [37.32446, 55.749465], [37.329528, 55.748255], [37.346611, 55.758375], [37.365127, 55.761717], [37.36563, 55.746783], [37.370238, 55.736015], [37.373429, 55.734892], [37.372227, 55.731017], [37.352217, 55.730907], [37.342348, 55.725831], [37.332256, 55.725688], [37.325414, 55.723137], [37.331198, 55.728638], [37.327055, 55.728612], [37.321582, 55.725008], [37.307019, 55.73237], [37.306361, 55.730891], [37.318794, 55.723487], [37.308462, 55.716738], [37.311395, 55.709678], [37.304061, 55.707232], [37.300965, 55.701835], [37.295711, 55.700604], [37.293997, 55.698009], [37.288237, 55.698223], [37.275565, 55.694403], [37.270765, 55.695929], [37.268365, 55.699312], [37.272518, 55.706432], [37.270989, 55.70996], [37.265835, 55.702211], [37.26672, 55.693295], [37.252318, 55.691681], [37.238414, 55.684402], [37.240188, 55.683627], [37.250367, 55.689118], [37.256561, 55.687471], [37.258413, 55.689886], [37.268707, 55.691781], [37.271294, 55.683747], [37.266789, 55.681157], [37.277195, 55.679112]]]]}}, {"type": "Feature", "properties": {"address_id": "siti", "label": "Сити", "name": "Башня на Набережной, многофункциональный комплекс", "min": 40, "mode": "driving", "method": "isochrone driving reverse:true", "status": "approx: гипотеза A (start_time = выезд), +8–14% (Гейт 2)", "start_time": "2026-10-14T04:50:00Z", "request_hash": "925e546479cb2b76b37b1f78c5dbfaa600b5d856", "was_invalid": false}, "geometry": {"type": "MultiPolygon", "coordinates": [[[[36.993201, 55.548577], [36.994432, 55.550301], [36.991103, 55.555784], [36.997694, 55.564335], [37.001078, 55.564143], [37.01199, 55.567765], [37.011021, 55.569111], [37.008902, 55.56811], [37.006789, 55.570294], [37.000531, 55.571276], [37.000402, 55.573362], [37.01562, 55.573779], [37.019547, 55.577939], [37.017147, 55.581348], [37.007298, 55.581881], [37.006171, 55.586384], [37.011671, 55.588769], [37.006376, 55.59015], [37.006427, 55.592947], [37.013341, 55.593652], [37.019173, 55.590728], [37.020329, 55.591736], [37.025095, 55.590998], [37.02728, 55.582264], [37.037574, 55.584006], [37.037099, 55.581253], [37.03948, 55.58087], [37.042173, 55.583457], [37.057673, 55.58283], [37.066213, 55.584178], [37.066596, 55.585903], [37.059984, 55.586391], [37.062097, 55.588993], [37.056822, 55.591424], [37.054603, 55.594815], [37.059711, 55.594049], [37.063247, 55.596141], [37.061453, 55.597609], [37.06659, 55.597937], [37.067938, 55.59998], [37.051156, 55.601958], [37.056678, 55.603082], [37.057009, 55.607213], [37.068611, 55.609181], [37.070563, 55.606742], [37.078218, 55.607986], [37.078893, 55.610473], [37.089319, 55.613721], [37.091211, 55.611883], [37.098607, 55.611698], [37.085033, 55.609148], [37.086948, 55.607434], [37.092824, 55.607236], [37.095756, 55.600432], [37.105337, 55.602702], [37.110109, 55.598736], [37.096121, 55.594075], [37.085591, 55.592395], [37.079853, 55.588828], [37.089314, 55.587479], [37.093991, 55.591076], [37.100027, 55.588552], [37.106573, 55.590537], [37.10686, 55.589055], [37.100341, 55.585514], [37.110192, 55.587743], [37.107177, 55.582823], [37.108861, 55.58163], [37.118937, 55.586241], [37.120558, 55.584295], [37.108599, 55.579411], [37.107415, 55.577025], [37.112486, 55.575355], [37.107033, 55.572098], [37.110382, 55.570645], [37.111118, 55.573398], [37.114659, 55.571874], [37.117209, 55.572488], [37.115217, 55.573405], [37.116901, 55.574087], [37.119655, 55.572998], [37.117887, 55.570707], [37.120667, 55.570613], [37.121509, 55.572309], [37.126117, 55.570421], [37.129547, 55.575709], [37.136794, 55.574266], [37.137869, 55.571932], [37.133778, 55.570795], [37.136759, 55.56968], [37.136153, 55.567983], [37.139021, 55.567398], [37.137507, 55.570138], [37.140959, 55.570414], [37.149681, 55.564293], [37.147421, 55.56072], [37.149189, 55.557029], [37.142207, 55.554314], [37.139634, 55.554691], [37.137932, 55.552552], [37.150994, 55.555651], [37.15858, 55.549182], [37.159926, 55.551878], [37.151437, 55.558925], [37.157051, 55.557524], [37.173525, 55.56219], [37.177625, 55.564745], [37.156005, 55.55953], [37.154363, 55.56044], [37.155723, 55.567053], [37.164338, 55.569985], [37.167975, 55.574104], [37.166244, 55.578712], [37.169929, 55.57803], [37.169533, 55.575852], [37.173379, 55.575306], [37.171904, 55.579362], [37.178964, 55.581868], [37.181597, 55.577799], [37.183104, 55.583395], [37.193846, 55.583528], [37.197888, 55.58615], [37.190247, 55.585588], [37.192121, 55.587635], [37.188847, 55.589172], [37.18482, 55.585341], [37.176805, 55.585361], [37.173448, 55.58309], [37.166244, 55.58177], [37.165132, 55.585172], [37.175837, 55.586885], [37.176455, 55.589153], [37.181747, 55.590969], [37.179898, 55.593672], [37.184458, 55.590797], [37.187306, 55.591437], [37.183224, 55.594845], [37.186432, 55.597024], [37.184604, 55.60063], [37.187577, 55.599811], [37.191943, 55.601991], [37.189626, 55.603972], [37.182491, 55.602562], [37.182284, 55.603897], [37.191368, 55.611087], [37.185912, 55.614182], [37.178938, 55.611659], [37.16746, 55.611698], [37.171804, 55.615847], [37.166296, 55.615604], [37.166319, 55.616312], [37.169533, 55.618], [37.169487, 55.619094], [37.162838, 55.6215], [37.165997, 55.621672], [37.166402, 55.623463], [37.173281, 55.623438], [37.172456, 55.622321], [37.17481, 55.622223], [37.177895, 55.624742], [37.181675, 55.623616], [37.185935, 55.62371], [37.187094, 55.625398], [37.193576, 55.624311], [37.195096, 55.626018], [37.2023, 55.625866], [37.210042, 55.629478], [37.216886, 55.628985], [37.215636, 55.632474], [37.219137, 55.634492], [37.222744, 55.635197], [37.223736, 55.633759], [37.226142, 55.634736], [37.228491, 55.633344], [37.231673, 55.640405], [37.258332, 55.649405], [37.263716, 55.648062], [37.263294, 55.644006], [37.268747, 55.642021], [37.274508, 55.648299], [37.293431, 55.64582], [37.298582, 55.64644], [37.297332, 55.647698], [37.274039, 55.650005], [37.288194, 55.654345], [37.295032, 55.654303], [37.298585, 55.656259], [37.298318, 55.653748], [37.301184, 55.652477], [37.303739, 55.654254], [37.302909, 55.658597], [37.307681, 55.657546], [37.318388, 55.660255], [37.32051, 55.661776], [37.313208, 55.661542], [37.310756, 55.664354], [37.314784, 55.670923], [37.320786, 55.668174], [37.316718, 55.667061], [37.317877, 55.664795], [37.327524, 55.663812], [37.32644, 55.662207], [37.322255, 55.661646], [37.324281, 55.65909], [37.337924, 55.657786], [37.330401, 55.66365], [37.338275, 55.665262], [37.343326, 55.664681], [37.344099, 55.667311], [37.331635, 55.669325], [37.329996, 55.67209], [37.335369, 55.673608], [37.338913, 55.671964], [37.345079, 55.672311], [37.331908, 55.678211], [37.324888, 55.678467], [37.326127, 55.681851], [37.333043, 55.685744], [37.334294, 55.684402], [37.331201, 55.680101], [37.345056, 55.674943], [37.354611, 55.678746], [37.354933, 55.680545], [37.358659, 55.674833], [37.362724, 55.674817], [37.365311, 55.677935], [37.372121, 55.671507], [37.377752, 55.672502], [37.377617, 55.674502], [37.373279, 55.675326], [37.375355, 55.679712], [37.366386, 55.681161], [37.368726, 55.683128], [37.374245, 55.681935], [37.372149, 55.685063], [37.380224, 55.690255], [37.380273, 55.688959], [37.379215, 55.688077], [37.381414, 55.68764], [37.382693, 55.680931], [37.386042, 55.678538], [37.384858, 55.6766], [37.381584, 55.676204], [37.384001, 55.673562], [37.387968, 55.674726], [37.389825, 55.673497], [37.39287, 55.675355], [37.398248, 55.670994], [37.400786, 55.672275], [37.398596, 55.681183], [37.400921, 55.68248], [37.40122, 55.681326], [37.405219, 55.681326], [37.406665, 55.683128], [37.41246, 55.680512], [37.409223, 55.679721], [37.406869, 55.675741], [37.418198, 55.666873], [37.3983, 55.662946], [37.392924, 55.662953], [37.388986, 55.665998], [37.385559, 55.666118], [37.377226, 55.664694], [37.375679, 55.661023], [37.369485, 55.660887], [37.365558, 55.658682], [37.365822, 55.656178], [37.370261, 55.655396], [37.372118, 55.657845], [37.380997, 55.659324], [37.382524, 55.66304], [37.386014, 55.662379], [37.389009, 55.659239], [37.405567, 55.660439], [37.395925, 55.657679], [37.38829, 55.658759], [37.382254, 55.656674], [37.382969, 55.654598], [37.379819, 55.652967], [37.376481, 55.656012], [37.374783, 55.653103], [37.370752, 55.653424], [37.372454, 55.651802], [37.358653, 55.64119], [37.364506, 55.640791], [37.364986, 55.643701], [37.36987, 55.646352], [37.371922, 55.642086], [37.374737, 55.642095], [37.373958, 55.649366], [37.379825, 55.650988], [37.384016, 55.650015], [37.379612, 55.648733], [37.383386, 55.646618], [37.379922, 55.641297], [37.38395, 55.639503], [37.386824, 55.646303], [37.389604, 55.646819], [37.3923, 55.645184], [37.394517, 55.6462], [37.39193, 55.647432], [37.395172, 55.652049], [37.405814, 55.648062], [37.394499, 55.650028], [37.396049, 55.647929], [37.403851, 55.645496], [37.399211, 55.644139], [37.399467, 55.641349], [37.407843, 55.640687], [37.415099, 55.634454], [37.407616, 55.631263], [37.411166, 55.630293], [37.414142, 55.632162], [37.418764, 55.630556], [37.417278, 55.627167], [37.379948, 55.616065], [37.384812, 55.615519], [37.415869, 55.623093], [37.416131, 55.621324], [37.411968, 55.620113], [37.414823, 55.617276], [37.420768, 55.617428], [37.422714, 55.619311], [37.426218, 55.61736], [37.433108, 55.619091], [37.436104, 55.618464], [37.439272, 55.623077], [37.441554, 55.622116], [37.43976, 55.620009], [37.441686, 55.619337], [37.44461, 55.620763], [37.447947, 55.616237], [37.44979, 55.619824], [37.460049, 55.61676], [37.460989, 55.618373], [37.454093, 55.62098], [37.447706, 55.621334], [37.441827, 55.627089], [37.458707, 55.627148], [37.459951, 55.627966], [37.454668, 55.63423], [37.46178, 55.635829], [37.474747, 55.625525], [37.473077, 55.623908], [37.477061, 55.623554], [37.492041, 55.6106], [37.489293, 55.608421], [37.49215, 55.60896], [37.496338, 55.606853], [37.506465, 55.598691], [37.504672, 55.602799], [37.493587, 55.611506], [37.508231, 55.620165], [37.506733, 55.620912], [37.503456, 55.619441], [37.495102, 55.614065], [37.48939, 55.615591], [37.482063, 55.6215], [37.481704, 55.62423], [37.475474, 55.627962], [37.480738, 55.630062], [37.486289, 55.62683], [37.485748, 55.62457], [37.492943, 55.624285], [37.484136, 55.630767], [37.489839, 55.634454], [37.48601, 55.636615], [37.480649, 55.635411], [37.474166, 55.637712], [37.479214, 55.639912], [37.486306, 55.6395], [37.492883, 55.64304], [37.509383, 55.636884], [37.510875, 55.638354], [37.506236, 55.640885], [37.51358, 55.646459], [37.510159, 55.641849], [37.517056, 55.645048], [37.525521, 55.642034], [37.525817, 55.644198], [37.517628, 55.647413], [37.523276, 55.651384], [37.521586, 55.65309], [37.526355, 55.656136], [37.5337, 55.655558], [37.537773, 55.655866], [37.53746, 55.65694], [37.53173, 55.65766], [37.53207, 55.659593], [37.52584, 55.660822], [37.526536, 55.66259], [37.519634, 55.665755], [37.514431, 55.66556], [37.520505, 55.669409], [37.524429, 55.666838], [37.524691, 55.664065], [37.531115, 55.663504], [37.525961, 55.669055], [37.526042, 55.671568], [37.52864, 55.670547], [37.531233, 55.671432], [37.52816, 55.673374], [37.529641, 55.67601], [37.533087, 55.676746], [37.539693, 55.67362], [37.543726, 55.67351], [37.540392, 55.671876], [37.541432, 55.668225], [37.538351, 55.667204], [37.541228, 55.664156], [37.54698, 55.671075], [37.55181, 55.669487], [37.549628, 55.666011], [37.555745, 55.667175], [37.563101, 55.665391], [37.564199, 55.667029], [37.569948, 55.66509], [37.575761, 55.666721], [37.569382, 55.664299], [37.576793, 55.663527], [37.570776, 55.66067], [37.570753, 55.657517], [37.573335, 55.656914], [37.575393, 55.65862], [37.579409, 55.658315], [37.577463, 55.660728], [37.579253, 55.661967], [37.588487, 55.660537], [37.581047, 55.664289], [37.586086, 55.668319], [37.595501, 55.666371], [37.598007, 55.664879], [37.597533, 55.66257], [37.602158, 55.664438], [37.606367, 55.663605], [37.607008, 55.665096], [37.59369, 55.668848], [37.595653, 55.671017], [37.599844, 55.669273], [37.601489, 55.670158], [37.6025, 55.67164], [37.598436, 55.673426], [37.599931, 55.67481], [37.611633, 55.66771], [37.610259, 55.665349], [37.613915, 55.666092], [37.614798, 55.668433], [37.621108, 55.668452], [37.610866, 55.670829], [37.612973, 55.672583], [37.62285, 55.673381], [37.615471, 55.674732], [37.617905, 55.679913], [37.609351, 55.673267], [37.603055, 55.676843], [37.615462, 55.683371], [37.614729, 55.686395], [37.621648, 55.688537], [37.62352, 55.677326], [37.625868, 55.677057], [37.626342, 55.674989], [37.627182, 55.680007], [37.634777, 55.679692], [37.635507, 55.682191], [37.662284, 55.683926], [37.661916, 55.682042], [37.651898, 55.679177], [37.645335, 55.679543], [37.64566, 55.677764], [37.651645, 55.67575], [37.655853, 55.677067], [37.661068, 55.676143], [37.659932, 55.673877], [37.655652, 55.674865], [37.654485, 55.673053], [37.655074, 55.670985], [37.660211, 55.670784], [37.65999, 55.667972], [37.654594, 55.666286], [37.660381, 55.665271], [37.665857, 55.670842], [37.66644, 55.675848], [37.678034, 55.674998], [37.680805, 55.676029], [37.678643, 55.680182], [37.681006, 55.683099], [37.676987, 55.682836], [37.673492, 55.68517], [37.681673, 55.688926], [37.669841, 55.68704], [37.682912, 55.692018], [37.685467, 55.694448], [37.683639, 55.696178], [37.691553, 55.702704], [37.702991, 55.700588], [37.696052, 55.704492], [37.703865, 55.706759], [37.702402, 55.713571], [37.698509, 55.718173], [37.704601, 55.718134], [37.706883, 55.715935], [37.721751, 55.710996], [37.72752, 55.706656], [37.729202, 55.707728], [37.727474, 55.709911], [37.733226, 55.708162], [37.740789, 55.70902], [37.732947, 55.710808], [37.73245, 55.713739], [37.712239, 55.72133], [37.720851, 55.723768], [37.724798, 55.728013], [37.724965, 55.731564], [37.717723, 55.734714], [37.720854, 55.734775], [37.721811, 55.736491], [37.726778, 55.736294], [37.722124, 55.739912], [37.72495, 55.747938], [37.733841, 55.743993], [37.731053, 55.740576], [37.734445, 55.742307], [37.738099, 55.741249], [37.740088, 55.743838], [37.7425, 55.741818], [37.744066, 55.743116], [37.740404, 55.745437], [37.721547, 55.750475], [37.734778, 55.75438], [37.728624, 55.754678], [37.725177, 55.756619], [37.720204, 55.754574], [37.720239, 55.75887], [37.723349, 55.76205], [37.720026, 55.763396], [37.720733, 55.766792], [37.714219, 55.773535], [37.71768, 55.779578], [37.723372, 55.782204], [37.713207, 55.786742], [37.715228, 55.789868], [37.709301, 55.793812], [37.713098, 55.795731], [37.710229, 55.79685], [37.706515, 55.795589], [37.705748, 55.798133], [37.700642, 55.800249], [37.70477, 55.802456], [37.701427, 55.803035], [37.699243, 55.801855], [37.699881, 55.804583], [37.696328, 55.801933], [37.689239, 55.801374], [37.691472, 55.805432], [37.688894, 55.807536], [37.684691, 55.806589], [37.686131, 55.81254], [37.682716, 55.812779], [37.680675, 55.808492], [37.673026, 55.807985], [37.674688, 55.806457], [37.678798, 55.80709], [37.681799, 55.805607], [37.684197, 55.800909], [37.675947, 55.793091], [37.662864, 55.794355], [37.661694, 55.796355], [37.664615, 55.797027], [37.660812, 55.802385], [37.654781, 55.801002], [37.651185, 55.797897], [37.655183, 55.795037], [37.637743, 55.793766], [37.637881, 55.795815], [37.642388, 55.794623], [37.646427, 55.795402], [37.646899, 55.799109], [37.652277, 55.802815], [37.650713, 55.806217], [37.648172, 55.804689], [37.645755, 55.805962], [37.646907, 55.808731], [37.654502, 55.809306], [37.652358, 55.806075], [37.655158, 55.805358], [37.659901, 55.808511], [37.659311, 55.810573], [37.667007, 55.819055], [37.665359, 55.820309], [37.661988, 55.81808], [37.657405, 55.819869], [37.652841, 55.818732], [37.648937, 55.820977], [37.650828, 55.822211], [37.649302, 55.823306], [37.644438, 55.822702], [37.649158, 55.828047], [37.646738, 55.828195], [37.638166, 55.820086], [37.632925, 55.822372], [37.631474, 55.820964], [37.633204, 55.821416], [37.635964, 55.819033], [37.633943, 55.818025], [37.629729, 55.818755], [37.63035, 55.816423], [37.627392, 55.815528], [37.619328, 55.817366], [37.618115, 55.822469], [37.61435, 55.822185], [37.615847, 55.819375], [37.60645, 55.819143], [37.607091, 55.817521], [37.615269, 55.81765], [37.61629, 55.8119], [37.613703, 55.810544], [37.604392, 55.813771], [37.607479, 55.814934], [37.606505, 55.816633], [37.595512, 55.823022], [37.590395, 55.822776], [37.578727, 55.829115], [37.579613, 55.830556], [37.576919, 55.831883], [37.577946, 55.831896], [37.579515, 55.832567], [37.578, 55.834107], [37.577879, 55.831973], [37.576876, 55.831931], [37.575045, 55.831582], [37.574289, 55.830003], [37.578276, 55.826116], [37.579331, 55.820942], [37.576965, 55.818875], [37.573085, 55.826971], [37.573786, 55.83649], [37.568928, 55.84691], [37.566378, 55.841039], [37.561005, 55.846271], [37.558174, 55.845987], [37.551203, 55.850077], [37.550663, 55.852081], [37.532104, 55.854246], [37.530828, 55.858196], [37.528451, 55.854891], [37.518174, 55.854211], [37.515808, 55.855169], [37.518507, 55.85866], [37.515978, 55.859325], [37.512338, 55.858531], [37.512836, 55.857302], [37.508754, 55.857892], [37.514356, 55.853856], [37.506445, 55.854017], [37.508248, 55.851251], [37.506273, 55.84966], [37.498658, 55.853242], [37.4971, 55.851884], [37.503729, 55.848024], [37.502332, 55.84539], [37.499857, 55.847617], [37.497793, 55.844661], [37.493668, 55.84336], [37.491086, 55.849299], [37.488048, 55.849496], [37.483989, 55.844435], [37.488738, 55.844357], [37.489913, 55.842918], [37.485788, 55.840894], [37.47903, 55.843486], [37.474983, 55.853162], [37.472094, 55.853788], [37.467546, 55.860325], [37.467492, 55.862355], [37.471504, 55.862729], [37.473911, 55.86481], [37.468262, 55.865023], [37.46504, 55.863394], [37.46207, 55.870152], [37.457152, 55.872029], [37.455734, 55.870642], [37.463332, 55.863549], [37.460449, 55.861442], [37.46518, 55.860129], [37.467276, 55.857292], [37.46518, 55.855195], [37.468158, 55.85452], [37.476943, 55.843547], [37.476181, 55.840939], [37.486067, 55.830627], [37.482983, 55.830388], [37.48135, 55.827992], [37.476041, 55.82981], [37.473224, 55.829267], [37.475388, 55.832361], [37.471872, 55.834243], [37.461788, 55.827375], [37.46017, 55.829106], [37.462438, 55.835147], [37.455228, 55.835686], [37.454861, 55.837352], [37.440703, 55.838414], [37.439872, 55.839835], [37.443713, 55.840151], [37.44285, 55.841274], [37.447651, 55.843347], [37.440781, 55.846129], [37.443934, 55.851871], [37.436604, 55.854846], [37.433968, 55.853665], [37.433465, 55.855195], [37.436966, 55.85705], [37.433781, 55.858412], [37.434238, 55.860038], [37.421403, 55.859486], [37.426063, 55.864191], [37.423918, 55.865049], [37.420368, 55.863278], [37.409847, 55.863052], [37.402842, 55.857738], [37.406941, 55.85576], [37.405593, 55.85251], [37.401996, 55.851884], [37.403851, 55.854217], [37.39857, 55.854411], [37.402905, 55.861574], [37.408292, 55.865539], [37.406409, 55.867584], [37.420863, 55.873252], [37.419215, 55.875423], [37.410169, 55.872971], [37.40751, 55.874336], [37.40935, 55.875158], [37.40509, 55.879022], [37.407142, 55.879731], [37.407154, 55.883498], [37.404805, 55.885262], [37.405897, 55.887419], [37.403517, 55.888035], [37.4059, 55.889992], [37.402948, 55.890143], [37.401554, 55.88875], [37.403859, 55.886758], [37.398878, 55.885062], [37.403698, 55.883488], [37.4016, 55.877151], [37.408479, 55.871075], [37.401991, 55.865333], [37.394859, 55.867704], [37.397687, 55.862477], [37.395238, 55.857702], [37.390969, 55.85665], [37.392901, 55.854443], [37.38079, 55.852904], [37.379569, 55.850919], [37.384904, 55.849996], [37.377899, 55.846688], [37.358366, 55.854979], [37.358116, 55.853068], [37.364213, 55.849257], [37.359515, 55.848301], [37.354134, 55.851668], [37.352191, 55.849993], [37.367809, 55.841584], [37.362764, 55.840409], [37.354928, 55.84254], [37.355778, 55.840145], [37.367001, 55.838075], [37.37229, 55.840367], [37.377528, 55.836216], [37.382593, 55.835189], [37.381503, 55.833213], [37.371221, 55.829235], [37.363865, 55.828205], [37.364276, 55.825973], [37.359056, 55.823461], [37.361002, 55.820974], [37.355195, 55.816924], [37.347925, 55.819262], [37.342242, 55.818506], [37.338841, 55.81986], [37.336996, 55.818984], [37.340704, 55.818778], [37.339732, 55.817544], [37.345691, 55.815622], [37.350788, 55.816009], [37.346048, 55.813396], [37.344211, 55.813978], [37.345197, 55.812362], [37.351472, 55.813306], [37.356517, 55.812353], [37.359501, 55.817466], [37.366323, 55.81421], [37.365015, 55.817227], [37.368726, 55.815942], [37.373604, 55.816911], [37.378396, 55.821639], [37.376303, 55.826316], [37.379123, 55.82938], [37.378108, 55.825227], [37.38259, 55.822847], [37.3815, 55.819614], [37.383734, 55.816439], [37.380256, 55.811878], [37.376398, 55.812463], [37.372431, 55.811102], [37.37223, 55.804809], [37.368743, 55.79895], [37.358377, 55.795066], [37.354861, 55.798171], [37.359242, 55.800421], [37.359237, 55.804621], [37.354074, 55.804618], [37.351478, 55.800876], [37.346844, 55.802178], [37.344958, 55.805345], [37.342527, 55.804644], [37.343484, 55.800928], [37.341141, 55.799516], [37.340394, 55.800783], [37.325115, 55.801397], [37.300885, 55.805642], [37.291321, 55.802007], [37.298157, 55.800621], [37.302061, 55.803658], [37.313459, 55.803009], [37.330442, 55.798562], [37.333081, 55.799658], [37.346922, 55.795751], [37.349523, 55.793343], [37.354953, 55.793168], [37.351622, 55.79078], [37.352665, 55.786688], [37.344708, 55.782365], [37.348282, 55.780904], [37.352657, 55.782171], [37.353827, 55.779594], [37.344777, 55.776225], [37.342463, 55.771915], [37.347244, 55.768005], [37.354686, 55.77001], [37.353531, 55.772319], [37.346856, 55.771798], [37.350297, 55.775055], [37.359556, 55.773118], [37.364155, 55.771168], [37.358544, 55.76978], [37.359694, 55.768024], [37.364146, 55.76859], [37.363, 55.76598], [37.342469, 55.761358], [37.337875, 55.758767], [37.336553, 55.755626], [37.33081, 55.75239], [37.328694, 55.752934], [37.328478, 55.75109], [37.328263, 55.75228], [37.320372, 55.752429], [37.321548, 55.756308], [37.324761, 55.757088], [37.323612, 55.758725], [37.316161, 55.758692], [37.317012, 55.754328], [37.313137, 55.754904], [37.310049, 55.753678], [37.309813, 55.756137], [37.30543, 55.757583], [37.306597, 55.759546], [37.310914, 55.760349], [37.311052, 55.762988], [37.305803, 55.763871], [37.301181, 55.76259], [37.298674, 55.759045], [37.300017, 55.754503], [37.305525, 55.753701], [37.303268, 55.752888], [37.305539, 55.751733], [37.30551, 55.747857], [37.294886, 55.752911], [37.283974, 55.752863], [37.281654, 55.750643], [37.290554, 55.746553], [37.284848, 55.745229], [37.285503, 55.747631], [37.28097, 55.748317], [37.276796, 55.74267], [37.272898, 55.743171], [37.272196, 55.740728], [37.26829, 55.741268], [37.262888, 55.739414], [37.242818, 55.738511], [37.240518, 55.73976], [37.237966, 55.738067], [37.234056, 55.738673], [37.238023, 55.74399], [37.236109, 55.746576], [37.238198, 55.752717], [37.23541, 55.753299], [37.233516, 55.746637], [37.228034, 55.745255], [37.233418, 55.743993], [37.231006, 55.739925], [37.22814, 55.740258], [37.221149, 55.737316], [37.210067, 55.738611], [37.213163, 55.740776], [37.208604, 55.742835], [37.198164, 55.736854], [37.201136, 55.736077], [37.204586, 55.738967], [37.206687, 55.729709], [37.199575, 55.729062], [37.194786, 55.73238], [37.196476, 55.735093], [37.190603, 55.736488], [37.187729, 55.733691], [37.19286, 55.729693], [37.188229, 55.731529], [37.184731, 55.730221], [37.177306, 55.732979], [37.176302, 55.730399], [37.181511, 55.726517], [37.180082, 55.725766], [37.170889, 55.729046], [37.174115, 55.731244], [37.172715, 55.733332], [37.166385, 55.731606], [37.161682, 55.732947], [37.163114, 55.737022], [37.152656, 55.738566], [37.153964, 55.739624], [37.150255, 55.741615], [37.148137, 55.739388], [37.141807, 55.739035], [37.139729, 55.73428], [37.157241, 55.729658], [37.150644, 55.728945], [37.147956, 55.729962], [37.143371, 55.72869], [37.138461, 55.731189], [37.137136, 55.729159], [37.140456, 55.726938], [37.136012, 55.723924], [37.137742, 55.72189], [37.114602, 55.717137], [37.080218, 55.717179], [37.068341, 55.724413], [37.067047, 55.728783], [37.064696, 55.728395], [37.065716, 55.725219], [37.062859, 55.72361], [37.052427, 55.724442], [37.05255, 55.722943], [37.066509, 55.722133], [37.063756, 55.719222], [37.07695, 55.715676], [37.076407, 55.713396], [37.084832, 55.710368], [37.092493, 55.704991], [37.107691, 55.701975], [37.110801, 55.699529], [37.113573, 55.699985], [37.114564, 55.694396], [37.118347, 55.693337], [37.120233, 55.696778], [37.123898, 55.696739], [37.130754, 55.691577], [37.132404, 55.687303], [37.135391, 55.686988], [37.108114, 55.686113], [37.104546, 55.689088], [37.100542, 55.688434], [37.102212, 55.68553], [37.093143, 55.683109], [37.089337, 55.66926], [37.073834, 55.686535], [37.072744, 55.684457], [37.084128, 55.668858], [37.081259, 55.667823], [37.054359, 55.675293], [37.055672, 55.673231], [37.05788, 55.673792], [37.058018, 55.672573], [37.077531, 55.666098], [37.083565, 55.664863], [37.086114, 55.665748], [37.091924, 55.661017], [37.092967, 55.655925], [37.087871, 55.656012], [37.086157, 55.653748], [37.077712, 55.65041], [37.073486, 55.653427], [37.070652, 55.653421], [37.068237, 55.651974], [37.070039, 55.647929], [37.047643, 55.639801], [37.045677, 55.637689], [37.037556, 55.635077], [37.03511, 55.63581], [37.0278, 55.630582], [37.033138, 55.631153], [37.034104, 55.632539], [37.038358, 55.631857], [37.036381, 55.630338], [37.042167, 55.633373], [37.04706, 55.631062], [37.048454, 55.632185], [37.045145, 55.635158], [37.046482, 55.636547], [37.051357, 55.637274], [37.055865, 55.636135], [37.06032, 55.641047], [37.078149, 55.645651], [37.079445, 55.640934], [37.077545, 55.639503], [37.087164, 55.64084], [37.065518, 55.632321], [37.072006, 55.631627], [37.076665, 55.634002], [37.082334, 55.633301], [37.0851, 55.630332], [37.084335, 55.627313], [37.086948, 55.626411], [37.089785, 55.627372], [37.0889, 55.630335], [37.090843, 55.631208], [37.08683, 55.633801], [37.096282, 55.6384], [37.096336, 55.633194], [37.093005, 55.632305], [37.096354, 55.629056], [37.092953, 55.627342], [37.095215, 55.620613], [37.092887, 55.618117], [37.083519, 55.614922], [37.075593, 55.614811], [37.068617, 55.617263], [37.066633, 55.616075], [37.067389, 55.612308], [37.054025, 55.61224], [37.050193, 55.610337], [37.019145, 55.606463], [37.016977, 55.60745], [37.007669, 55.60455], [37.00507, 55.605869], [37.012553, 55.610275], [37.011886, 55.614324], [37.015456, 55.619516], [37.021861, 55.623431], [37.020315, 55.624191], [37.015709, 55.621899], [37.009957, 55.623402], [37.012878, 55.629478], [37.008825, 55.632071], [37.003173, 55.631208], [37.010302, 55.630747], [37.011294, 55.628612], [37.0071, 55.624716], [37.010446, 55.618282], [37.003225, 55.611629], [37.000557, 55.610356], [36.999672, 55.612405], [36.995834, 55.613071], [36.997591, 55.615126], [36.991577, 55.61725], [36.986699, 55.615789], [36.987739, 55.614344], [36.983632, 55.615243], [36.977759, 55.61209], [36.973657, 55.611753], [36.978983, 55.610425], [36.975215, 55.60379], [36.982281, 55.604206], [36.989372, 55.602588], [36.977782, 55.599974], [36.97203, 55.601552], [36.968586, 55.599944], [36.966855, 55.60099], [36.961681, 55.600253], [36.95931, 55.5986], [36.954886, 55.599655], [36.94441, 55.596696], [36.939834, 55.597654], [36.936364, 55.595202], [36.933039, 55.596407], [36.931391, 55.594503], [36.927761, 55.595793], [36.925642, 55.593841], [36.92039, 55.595108], [36.919094, 55.593266], [36.915687, 55.594406], [36.911059, 55.592538], [36.908788, 55.593756], [36.906477, 55.591947], [36.893944, 55.591859], [36.892679, 55.590644], [36.888195, 55.591209], [36.87891, 55.589179], [36.874293, 55.589858], [36.870093, 55.588116], [36.880057, 55.586836], [36.885688, 55.58861], [36.886677, 55.586895], [36.892633, 55.585514], [36.892791, 55.589263], [36.923158, 55.591898], [36.931072, 55.584844], [36.938957, 55.589491], [36.939728, 55.593022], [36.943011, 55.594295], [36.94786, 55.594971], [36.950079, 55.593925], [36.958223, 55.596258], [36.961086, 55.595176], [36.968661, 55.597554], [36.978529, 55.597654], [36.978457, 55.59425], [36.983131, 55.589968], [36.985851, 55.592246], [36.985698, 55.599428], [36.994935, 55.600169], [36.999269, 55.598268], [37.000638, 55.600753], [37.004153, 55.601029], [37.0053, 55.596491], [36.993497, 55.592242], [36.999086, 55.588123], [36.995601, 55.578595], [36.998853, 55.576031], [36.994555, 55.571386], [36.996585, 55.567778], [36.994184, 55.563022], [36.992287, 55.56297], [36.985164, 55.553443], [36.985822, 55.551511], [36.989571, 55.552103], [36.993201, 55.548577]]]]}}, {"type": "Feature", "properties": {"address_id": "kurchatnik", "label": "Курчатник", "name": "Национальный исследовательский центр Курчатовский институт", "min": 20, "mode": "driving", "method": "isochrone driving reverse:true", "status": "approx: гипотеза A (start_time = выезд), +8–14% (Гейт 2)", "start_time": "2026-10-14T05:10:00Z", "request_hash": "f6ac0a96f4f92f2eeabc9437bb551da31632612b", "was_invalid": false}, "geometry": {"type": "MultiPolygon", "coordinates": [[[[37.456577, 55.743242], [37.464542, 55.750462], [37.461392, 55.752465], [37.462771, 55.754461], [37.466736, 55.755092], [37.470487, 55.752106], [37.476294, 55.754975], [37.475515, 55.76152], [37.477961, 55.759954], [37.484894, 55.762244], [37.504657, 55.76195], [37.495763, 55.764363], [37.47554, 55.762694], [37.47788, 55.766731], [37.481451, 55.76806], [37.489425, 55.768089], [37.49633, 55.766352], [37.502021, 55.769379], [37.508245, 55.76534], [37.506649, 55.763376], [37.512356, 55.763671], [37.515952, 55.761843], [37.517507, 55.763344], [37.512683, 55.767753], [37.517467, 55.767723], [37.522788, 55.758854], [37.530857, 55.753636], [37.528824, 55.755651], [37.531262, 55.7569], [37.527122, 55.761002], [37.534231, 55.763635], [37.535065, 55.76031], [37.538905, 55.765349], [37.544097, 55.762432], [37.551502, 55.764247], [37.552804, 55.763137], [37.557639, 55.763545], [37.558378, 55.759378], [37.561931, 55.762403], [37.568042, 55.762733], [37.561626, 55.764719], [37.561319, 55.768584], [37.566088, 55.770537], [37.55851, 55.771566], [37.557128, 55.773215], [37.563049, 55.772891], [37.57917, 55.776432], [37.579308, 55.774916], [37.569672, 55.772613], [37.567249, 55.769703], [37.575703, 55.769683], [37.576899, 55.77076], [37.580918, 55.768393], [37.58529, 55.768254], [37.592928, 55.770162], [37.607157, 55.763004], [37.608773, 55.760663], [37.612771, 55.759951], [37.608862, 55.763389], [37.610983, 55.76513], [37.606352, 55.771802], [37.609299, 55.773716], [37.60434, 55.775954], [37.598329, 55.776174], [37.601054, 55.778922], [37.598424, 55.778767], [37.594719, 55.781515], [37.596728, 55.784311], [37.59139, 55.783464], [37.594653, 55.788307], [37.592681, 55.790728], [37.595248, 55.792018], [37.602107, 55.791662], [37.602408, 55.793298], [37.591051, 55.793469], [37.584833, 55.795664], [37.583703, 55.801254], [37.578592, 55.799299], [37.570106, 55.803555], [37.566094, 55.803348], [37.565737, 55.804938], [37.561899, 55.805642], [37.559666, 55.804043], [37.553767, 55.804091], [37.543502, 55.810779], [37.536517, 55.807965], [37.539633, 55.811445], [37.53119, 55.814239], [37.519289, 55.812501], [37.519332, 55.813871], [37.524018, 55.815192], [37.536623, 55.815851], [37.537753, 55.813616], [37.542824, 55.815179], [37.541472, 55.818506], [37.537649, 55.820554], [37.53535, 55.819585], [37.5347, 55.822453], [37.530727, 55.823073], [37.535148, 55.826303], [37.534174, 55.83188], [37.536505, 55.83453], [37.541145, 55.835328], [37.549731, 55.832361], [37.554267, 55.835835], [37.551171, 55.840306], [37.552767, 55.841636], [37.542341, 55.843524], [37.542476, 55.84489], [37.521954, 55.841494], [37.510355, 55.832477], [37.506997, 55.835296], [37.504157, 55.834659], [37.506969, 55.831331], [37.495125, 55.826006], [37.488577, 55.832719], [37.484782, 55.833704], [37.486277, 55.830446], [37.476417, 55.826781], [37.484756, 55.825838], [37.488197, 55.828218], [37.491897, 55.822269], [37.487608, 55.821142], [37.485004, 55.815738], [37.478346, 55.815554], [37.479068, 55.813794], [37.472128, 55.815725], [37.466046, 55.82504], [37.468891, 55.828289], [37.474891, 55.830623], [37.472212, 55.834065], [37.463174, 55.827352], [37.459141, 55.82865], [37.456884, 55.824811], [37.463134, 55.820948], [37.460713, 55.818946], [37.452397, 55.820787], [37.451598, 55.826464], [37.449206, 55.82524], [37.44538, 55.827107], [37.432022, 55.829103], [37.429667, 55.830837], [37.426241, 55.826745], [37.423516, 55.828715], [37.425603, 55.830304], [37.423861, 55.831492], [37.417597, 55.829035], [37.409746, 55.829777], [37.405147, 55.832296], [37.394534, 55.832357], [37.399205, 55.831582], [37.398234, 55.829816], [37.401197, 55.83012], [37.405624, 55.82713], [37.412681, 55.827565], [37.412141, 55.825944], [37.419695, 55.82223], [37.415608, 55.821416], [37.424125, 55.816413], [37.420213, 55.813021], [37.423964, 55.812576], [37.425945, 55.810447], [37.440289, 55.809801], [37.446906, 55.817847], [37.446263, 55.815748], [37.449301, 55.815208], [37.451632, 55.811057], [37.450365, 55.809923], [37.447295, 55.811035], [37.447297, 55.807581], [37.457324, 55.808017], [37.452693, 55.806395], [37.438311, 55.807035], [37.42848, 55.804744], [37.426218, 55.806289], [37.421656, 55.805371], [37.421196, 55.809351], [37.40697, 55.818523], [37.400818, 55.8212], [37.393758, 55.821087], [37.388253, 55.81055], [37.383777, 55.810334], [37.382369, 55.812136], [37.378499, 55.812191], [37.376404, 55.810566], [37.377442, 55.808486], [37.385056, 55.808159], [37.385496, 55.806292], [37.375858, 55.79365], [37.368729, 55.790773], [37.363827, 55.791213], [37.36653, 55.789652], [37.372262, 55.789914], [37.368254, 55.784686], [37.369669, 55.780891], [37.371497, 55.780923], [37.374004, 55.78822], [37.386336, 55.787696], [37.384878, 55.789093], [37.379066, 55.788902], [37.376395, 55.791206], [37.379184, 55.793411], [37.384559, 55.792464], [37.383202, 55.795033], [37.387945, 55.797793], [37.391243, 55.796821], [37.389225, 55.792936], [37.393263, 55.7912], [37.390561, 55.789519], [37.386862, 55.790069], [37.386709, 55.788391], [37.396566, 55.788136], [37.394445, 55.785369], [37.397406, 55.781932], [37.412799, 55.793795], [37.409861, 55.799396], [37.412319, 55.804159], [37.411598, 55.801338], [37.413949, 55.801002], [37.432016, 55.803536], [37.440427, 55.802973], [37.446961, 55.804802], [37.447145, 55.797444], [37.451546, 55.796407], [37.450595, 55.794212], [37.453869, 55.792506], [37.450508, 55.788427], [37.453921, 55.784063], [37.452719, 55.780807], [37.450146, 55.78092], [37.448065, 55.792716], [37.445739, 55.789283], [37.443471, 55.788388], [37.440873, 55.789416], [37.430711, 55.785129], [37.422191, 55.786985], [37.419891, 55.785818], [37.438998, 55.779659], [37.431392, 55.776988], [37.429725, 55.77478], [37.435408, 55.774738], [37.445834, 55.778356], [37.43669, 55.773697], [37.429728, 55.773017], [37.423918, 55.774612], [37.420118, 55.77305], [37.415294, 55.774699], [37.407889, 55.772943], [37.394758, 55.779795], [37.398245, 55.776128], [37.408985, 55.770864], [37.413466, 55.770786], [37.415774, 55.768985], [37.418942, 55.770886], [37.426408, 55.769341], [37.425746, 55.766695], [37.433117, 55.755098], [37.434822, 55.756599], [37.431065, 55.764913], [37.433554, 55.767258], [37.430676, 55.770026], [37.432947, 55.77185], [37.438866, 55.771598], [37.445058, 55.773577], [37.44448, 55.775656], [37.448137, 55.777709], [37.455065, 55.776387], [37.458149, 55.772959], [37.461961, 55.771892], [37.462746, 55.769053], [37.470133, 55.767248], [37.465816, 55.765366], [37.461975, 55.758777], [37.453495, 55.752581], [37.447984, 55.750944], [37.429371, 55.750611], [37.420365, 55.743948], [37.423041, 55.743848], [37.430817, 55.748757], [37.435417, 55.74766], [37.436713, 55.748582], [37.445765, 55.743129], [37.448404, 55.74443], [37.456577, 55.743242]]]]}}, {"type": "Feature", "properties": {"address_id": "kurchatnik", "label": "Курчатник", "name": "Национальный исследовательский центр Курчатовский институт", "min": 40, "mode": "driving", "method": "isochrone driving reverse:true", "status": "approx: гипотеза A (start_time = выезд), +8–14% (Гейт 2)", "start_time": "2026-10-14T04:50:00Z", "request_hash": "660cffdd7605fb4bfc6880a24d741e01db9f9972", "was_invalid": false}, "geometry": {"type": "MultiPolygon", "coordinates": [[[[37.179459, 55.641492], [37.184472, 55.649538], [37.191661, 55.651812], [37.205436, 55.652243], [37.209651, 55.651124], [37.212419, 55.652795], [37.215797, 55.652409], [37.225392, 55.660112], [37.234852, 55.660838], [37.239081, 55.657018], [37.240323, 55.65911], [37.238299, 55.661033], [37.246822, 55.662651], [37.247173, 55.664594], [37.238854, 55.664886], [37.236494, 55.666458], [37.233314, 55.663514], [37.227312, 55.662599], [37.227008, 55.673335], [37.23301, 55.676266], [37.231627, 55.67388], [37.236551, 55.673818], [37.237957, 55.670741], [37.24099, 55.670518], [37.241817, 55.675942], [37.246509, 55.6766], [37.252617, 55.681446], [37.255906, 55.679038], [37.249424, 55.676007], [37.251166, 55.673873], [37.254822, 55.672499], [37.26862, 55.675549], [37.270466, 55.673614], [37.266712, 55.671011], [37.26497, 55.671581], [37.264958, 55.669347], [37.272438, 55.671581], [37.282487, 55.665187], [37.276255, 55.673368], [37.280763, 55.671782], [37.285054, 55.673215], [37.28907, 55.677686], [37.287765, 55.679154], [37.294549, 55.683093], [37.283755, 55.680247], [37.283005, 55.684408], [37.288237, 55.685909], [37.290991, 55.684885], [37.2944, 55.68833], [37.291735, 55.689156], [37.277923, 55.685416], [37.275468, 55.690874], [37.299169, 55.697034], [37.308373, 55.702211], [37.312452, 55.707793], [37.315959, 55.707044], [37.315068, 55.702548], [37.317086, 55.701252], [37.308554, 55.700601], [37.313619, 55.698745], [37.314373, 55.693936], [37.319567, 55.690893], [37.313476, 55.688972], [37.315853, 55.686726], [37.322781, 55.687173], [37.325908, 55.690424], [37.3377, 55.693713], [37.342621, 55.693016], [37.342023, 55.690725], [37.348034, 55.687883], [37.345194, 55.691853], [37.348213, 55.694118], [37.344766, 55.694785], [37.350325, 55.698349], [37.353347, 55.697977], [37.355011, 55.702713], [37.36078, 55.699687], [37.365891, 55.699639], [37.364399, 55.697555], [37.36653, 55.695799], [37.379209, 55.694866], [37.379284, 55.692232], [37.374469, 55.69008], [37.365842, 55.691532], [37.359806, 55.684908], [37.356704, 55.686369], [37.357161, 55.687915], [37.353338, 55.686314], [37.35454, 55.684859], [37.352001, 55.683316], [37.353715, 55.682227], [37.356072, 55.683974], [37.358639, 55.681978], [37.356848, 55.677916], [37.36078, 55.675705], [37.365291, 55.678136], [37.37108, 55.676068], [37.370772, 55.674522], [37.373607, 55.674437], [37.373595, 55.679368], [37.370764, 55.679371], [37.37102, 55.677799], [37.365647, 55.681167], [37.36874, 55.683352], [37.37359, 55.682305], [37.371707, 55.685011], [37.380256, 55.690359], [37.383202, 55.681864], [37.386246, 55.681692], [37.38572, 55.693421], [37.392941, 55.69682], [37.395316, 55.69612], [37.398765, 55.694111], [37.390018, 55.688602], [37.395583, 55.683118], [37.393775, 55.681041], [37.397745, 55.681005], [37.399743, 55.68317], [37.409537, 55.682454], [37.41275, 55.680506], [37.408927, 55.677854], [37.417062, 55.675763], [37.419373, 55.676477], [37.4232, 55.671403], [37.424174, 55.668673], [37.420066, 55.668349], [37.417177, 55.665599], [37.427282, 55.667703], [37.430329, 55.663854], [37.427762, 55.661322], [37.423918, 55.661918], [37.417626, 55.660404], [37.423323, 55.659444], [37.431536, 55.66138], [37.439964, 55.655811], [37.439142, 55.658617], [37.434937, 55.661075], [37.440289, 55.662849], [37.444906, 55.667801], [37.442031, 55.668339], [37.436834, 55.664801], [37.432625, 55.664694], [37.430311, 55.668186], [37.437938, 55.675929], [37.434267, 55.678438], [37.434738, 55.674732], [37.432073, 55.673763], [37.427368, 55.678778], [37.427052, 55.673867], [37.422067, 55.681135], [37.419172, 55.681809], [37.424824, 55.685809], [37.428503, 55.686603], [37.431593, 55.683929], [37.431884, 55.687669], [37.449531, 55.690018], [37.44874, 55.692122], [37.457244, 55.699661], [37.464577, 55.695362], [37.467693, 55.690278], [37.469889, 55.69114], [37.470806, 55.689432], [37.473284, 55.689471], [37.475029, 55.691302], [37.466115, 55.695219], [37.462826, 55.700031], [37.46984, 55.699742], [37.489856, 55.705418], [37.49317, 55.705298], [37.491857, 55.702039], [37.494013, 55.701625], [37.498661, 55.704699], [37.504827, 55.703925], [37.507601, 55.708411], [37.511571, 55.705133], [37.507144, 55.703831], [37.506511, 55.701732], [37.513523, 55.704119], [37.514374, 55.700439], [37.517622, 55.701557], [37.521655, 55.700753], [37.525978, 55.697219], [37.528821, 55.697309], [37.526507, 55.700685], [37.523138, 55.701226], [37.52513, 55.70386], [37.521342, 55.703666], [37.517674, 55.706105], [37.522549, 55.709088], [37.525104, 55.708162], [37.528456, 55.709292], [37.53046, 55.707268], [37.527781, 55.704485], [37.533426, 55.70594], [37.536922, 55.703413], [37.536336, 55.7011], [37.539986, 55.702182], [37.542849, 55.699535], [37.535223, 55.693544], [37.532004, 55.692598], [37.529408, 55.693615], [37.527878, 55.688939], [37.523753, 55.686217], [37.530279, 55.687944], [37.535068, 55.686334], [37.532774, 55.689584], [37.536603, 55.692297], [37.542059, 55.688142], [37.544057, 55.688609], [37.540829, 55.686356], [37.54462, 55.685478], [37.556901, 55.692507], [37.559321, 55.691373], [37.553563, 55.6861], [37.556446, 55.685481], [37.563, 55.690939], [37.564185, 55.688505], [37.570282, 55.68786], [37.571397, 55.686155], [37.568146, 55.685478], [37.571127, 55.684295], [37.567275, 55.683773], [37.57071, 55.682768], [37.574347, 55.687076], [37.580786, 55.685779], [37.580561, 55.689108], [37.577169, 55.69044], [37.578814, 55.692368], [37.580645, 55.692436], [37.580303, 55.68998], [37.583752, 55.691749], [37.587162, 55.690738], [37.588809, 55.691755], [37.57865, 55.694993], [37.581197, 55.7012], [37.587003, 55.70455], [37.594765, 55.695858], [37.589237, 55.695252], [37.593049, 55.693207], [37.597803, 55.693619], [37.602181, 55.69067], [37.603087, 55.692582], [37.597559, 55.698359], [37.60225, 55.700215], [37.612875, 55.700154], [37.60522, 55.691529], [37.607462, 55.690599], [37.617037, 55.700449], [37.620541, 55.698129], [37.623652, 55.701362], [37.626248, 55.70065], [37.622674, 55.705227], [37.643415, 55.703841], [37.642297, 55.704712], [37.636263, 55.704926], [37.635372, 55.706047], [37.627768, 55.706445], [37.628297, 55.708483], [37.634825, 55.711644], [37.637898, 55.722237], [37.646148, 55.720637], [37.642009, 55.718092], [37.645965, 55.71564], [37.645188, 55.713607], [37.638795, 55.710173], [37.646677, 55.710513], [37.640083, 55.708058], [37.638344, 55.709338], [37.633012, 55.709105], [37.634064, 55.708223], [37.643924, 55.707365], [37.648514, 55.708813], [37.647865, 55.716573], [37.651193, 55.718879], [37.650153, 55.713399], [37.655212, 55.714089], [37.658685, 55.717522], [37.657023, 55.711352], [37.664836, 55.711294], [37.667685, 55.706202], [37.667725, 55.707718], [37.666837, 55.709033], [37.669096, 55.709704], [37.666231, 55.713552], [37.671031, 55.713292], [37.67277, 55.715255], [37.667768, 55.715226], [37.665906, 55.716819], [37.674159, 55.719896], [37.676904, 55.717953], [37.678062, 55.721346], [37.669597, 55.723279], [37.669735, 55.724727], [37.673845, 55.725905], [37.67187, 55.729975], [37.690403, 55.72313], [37.695575, 55.723772], [37.682162, 55.729159], [37.684174, 55.736426], [37.686988, 55.73766], [37.68351, 55.739631], [37.686002, 55.740815], [37.693404, 55.738851], [37.687963, 55.746517], [37.697541, 55.747427], [37.698567, 55.744462], [37.701077, 55.744194], [37.702821, 55.745087], [37.700191, 55.745715], [37.70072, 55.748054], [37.706676, 55.748255], [37.714213, 55.75153], [37.698392, 55.749604], [37.693976, 55.756256], [37.696437, 55.757146], [37.698665, 55.755415], [37.703618, 55.756683], [37.700795, 55.758951], [37.696753, 55.759307], [37.70289, 55.761646], [37.699869, 55.76576], [37.694039, 55.761329], [37.692913, 55.767426], [37.696535, 55.765725], [37.698955, 55.766653], [37.693873, 55.770304], [37.700677, 55.775449], [37.708254, 55.77606], [37.70515, 55.777684], [37.70565, 55.7805], [37.714834, 55.780005], [37.716335, 55.781806], [37.711376, 55.783995], [37.710063, 55.782714], [37.706762, 55.789325], [37.700766, 55.785559], [37.70024, 55.78327], [37.698073, 55.784111], [37.697774, 55.786839], [37.694732, 55.787993], [37.698012, 55.78949], [37.695862, 55.793572], [37.701396, 55.793773], [37.697523, 55.796462], [37.694131, 55.795515], [37.688089, 55.797493], [37.68992, 55.798301], [37.687212, 55.800175], [37.688851, 55.801487], [37.685671, 55.803213], [37.683242, 55.802524], [37.68522, 55.799445], [37.68236, 55.799118], [37.676154, 55.793039], [37.661709, 55.794361], [37.66362, 55.797354], [37.660315, 55.799025], [37.660409, 55.801794], [37.651274, 55.797864], [37.655229, 55.795017], [37.637737, 55.793757], [37.637904, 55.795845], [37.642388, 55.794739], [37.646249, 55.795505], [37.651975, 55.802876], [37.650713, 55.805571], [37.648109, 55.804631], [37.645723, 55.805933], [37.646899, 55.808744], [37.654163, 55.809448], [37.652358, 55.806075], [37.655313, 55.805277], [37.665857, 55.817763], [37.665063, 55.818804], [37.657863, 55.814824], [37.656595, 55.818529], [37.652458, 55.818839], [37.644539, 55.82275], [37.65228, 55.831628], [37.649014, 55.830775], [37.639247, 55.82141], [37.63601, 55.821581], [37.638183, 55.822256], [37.636697, 55.823742], [37.636337, 55.822414], [37.631764, 55.822389], [37.631344, 55.820283], [37.636001, 55.819223], [37.63434, 55.818145], [37.629637, 55.818871], [37.629795, 55.815079], [37.628642, 55.81599], [37.623566, 55.814249], [37.617264, 55.821633], [37.616276, 55.819475], [37.608784, 55.819149], [37.610296, 55.81744], [37.615094, 55.81788], [37.614237, 55.814808], [37.616497, 55.813183], [37.614792, 55.810527], [37.608948, 55.811839], [37.604317, 55.813829], [37.607356, 55.815124], [37.605027, 55.817411], [37.600891, 55.819269], [37.593986, 55.819585], [37.599068, 55.820887], [37.595507, 55.823022], [37.590352, 55.822731], [37.578828, 55.829151], [37.579219, 55.835305], [37.574482, 55.835815], [37.578978, 55.839192], [37.581723, 55.838869], [37.58573, 55.841113], [37.590574, 55.839367], [37.588073, 55.843708], [37.591479, 55.846168], [37.600057, 55.84682], [37.597568, 55.848479], [37.598735, 55.847081], [37.586305, 55.847995], [37.584583, 55.851509], [37.587478, 55.857876], [37.568824, 55.85616], [37.56927, 55.862197], [37.55937, 55.866052], [37.556889, 55.864152], [37.560327, 55.861571], [37.555963, 55.860854], [37.557846, 55.861926], [37.554704, 55.863558], [37.554578, 55.868704], [37.547771, 55.869384], [37.549329, 55.873678], [37.545537, 55.874661], [37.545123, 55.86941], [37.541197, 55.868484], [37.53046, 55.8736], [37.531653, 55.874997], [37.53591, 55.873062], [37.539538, 55.876426], [37.538799, 55.878003], [37.535191, 55.877593], [37.533162, 55.880712], [37.528542, 55.876187], [37.518907, 55.883085], [37.519623, 55.878232], [37.51492, 55.877977], [37.515857, 55.876848], [37.51026, 55.877848], [37.506006, 55.875558], [37.510246, 55.869226], [37.485972, 55.880292], [37.489359, 55.880431], [37.487829, 55.882869], [37.494358, 55.885878], [37.494927, 55.887851], [37.48486, 55.885049], [37.485863, 55.886832], [37.49635, 55.890233], [37.503614, 55.88609], [37.499239, 55.88225], [37.49491, 55.881186], [37.497068, 55.878222], [37.500107, 55.878809], [37.510188, 55.887248], [37.51448, 55.884684], [37.517306, 55.88532], [37.516941, 55.888515], [37.514376, 55.88935], [37.520778, 55.892419], [37.520266, 55.893912], [37.51663, 55.89299], [37.514483, 55.894657], [37.506302, 55.887744], [37.500699, 55.892519], [37.518795, 55.901909], [37.528827, 55.904668], [37.530569, 55.906789], [37.522526, 55.904971], [37.499719, 55.895034], [37.491661, 55.900949], [37.49589, 55.903501], [37.497307, 55.908858], [37.500958, 55.908474], [37.512836, 55.911265], [37.510165, 55.912376], [37.501044, 55.9118], [37.500389, 55.913846], [37.496278, 55.914316], [37.497379, 55.915267], [37.504698, 55.915624], [37.505632, 55.91931], [37.52622, 55.921971], [37.529241, 55.923514], [37.527482, 55.92362], [37.526257, 55.923073], [37.52361, 55.923955], [37.496197, 55.920199], [37.494803, 55.924773], [37.501357, 55.926046], [37.49493, 55.927614], [37.502384, 55.929154], [37.503758, 55.931218], [37.50092, 55.932806], [37.494927, 55.931743], [37.492728, 55.935524], [37.49451, 55.938928], [37.490675, 55.939891], [37.488815, 55.93812], [37.492118, 55.933173], [37.488905, 55.922531], [37.491026, 55.918314], [37.48908, 55.917064], [37.491957, 55.912595], [37.490713, 55.910588], [37.485216, 55.9111], [37.483014, 55.909979], [37.49188, 55.908049], [37.488482, 55.905413], [37.483788, 55.90539], [37.476227, 55.90965], [37.473293, 55.909309], [37.45829, 55.919036], [37.455709, 55.931676], [37.452483, 55.93451], [37.451788, 55.943626], [37.438625, 55.949134], [37.435052, 55.951877], [37.436831, 55.952656], [37.429417, 55.954307], [37.427641, 55.957146], [37.425068, 55.95785], [37.423165, 55.956125], [37.416625, 55.957702], [37.419169, 55.962913], [37.427264, 55.96381], [37.427782, 55.965532], [37.417022, 55.963939], [37.414645, 55.966047], [37.414455, 55.959077], [37.411241, 55.960454], [37.405946, 55.959836], [37.405127, 55.961249], [37.400953, 55.960187], [37.396425, 55.96112], [37.385088, 55.955572], [37.376775, 55.954246], [37.369611, 55.956212], [37.370137, 55.95843], [37.364161, 55.958639], [37.354051, 55.964226], [37.351573, 55.963923], [37.363014, 55.956679], [37.374578, 55.952868], [37.382524, 55.952276], [37.401304, 55.958629], [37.413285, 55.954275], [37.414728, 55.956389], [37.426385, 55.953872], [37.431671, 55.950412], [37.434528, 55.950705], [37.434005, 55.948451], [37.440131, 55.946143], [37.447136, 55.940206], [37.450704, 55.92371], [37.455401, 55.915737], [37.468193, 55.908368], [37.472266, 55.908074], [37.47713, 55.903495], [37.470682, 55.900307], [37.478107, 55.89584], [37.469524, 55.893435], [37.464933, 55.887412], [37.47717, 55.886168], [37.473735, 55.885239], [37.467227, 55.885304], [37.466399, 55.883485], [37.465229, 55.883514], [37.464528, 55.884617], [37.459926, 55.884723], [37.455044, 55.883191], [37.457735, 55.887999], [37.456114, 55.888915], [37.452431, 55.887815], [37.45315, 55.891255], [37.446973, 55.896626], [37.444354, 55.894927], [37.445527, 55.893219], [37.441177, 55.894121], [37.438699, 55.892568], [37.441956, 55.892129], [37.443609, 55.885355], [37.433183, 55.891313], [37.430665, 55.888699], [37.433261, 55.889453], [37.43809, 55.885474], [37.432729, 55.88757], [37.433588, 55.884246], [37.43111, 55.882227], [37.433068, 55.881382], [37.439918, 55.883166], [37.440769, 55.881547], [37.428472, 55.878158], [37.416404, 55.882272], [37.416737, 55.878245], [37.420336, 55.878641], [37.423062, 55.876442], [37.417123, 55.876068], [37.410155, 55.873174], [37.407501, 55.875158], [37.409545, 55.880963], [37.407435, 55.88332], [37.413006, 55.884188], [37.404906, 55.887641], [37.407323, 55.894508], [37.40298, 55.895008], [37.402344, 55.897235], [37.398584, 55.898148], [37.398829, 55.895956], [37.394732, 55.893251], [37.403253, 55.891033], [37.400479, 55.88935], [37.401174, 55.885974], [37.395986, 55.886013], [37.39523, 55.888502], [37.390613, 55.889005], [37.381814, 55.886571], [37.389685, 55.884981], [37.388256, 55.881173], [37.391996, 55.882102], [37.393996, 55.884997], [37.402557, 55.88245], [37.400467, 55.877174], [37.405601, 55.874571], [37.405164, 55.872358], [37.40791, 55.872626], [37.40803, 55.870694], [37.401301, 55.866581], [37.404446, 55.870668], [37.402143, 55.87201], [37.391383, 55.869546], [37.392197, 55.866826], [37.38917, 55.864671], [37.397624, 55.86481], [37.395244, 55.857763], [37.390949, 55.856882], [37.39178, 55.853852], [37.385571, 55.85442], [37.384858, 55.852552], [37.380566, 55.853029], [37.379373, 55.850806], [37.38487, 55.849996], [37.377924, 55.846739], [37.358285, 55.857095], [37.363063, 55.861706], [37.367096, 55.858828], [37.369844, 55.859883], [37.372175, 55.85817], [37.372931, 55.859835], [37.377039, 55.859528], [37.376016, 55.865058], [37.373325, 55.866339], [37.370821, 55.865416], [37.367576, 55.86763], [37.361789, 55.863448], [37.355974, 55.865746], [37.348902, 55.865387], [37.346468, 55.866771], [37.348445, 55.870417], [37.346005, 55.87272], [37.342012, 55.871433], [37.341115, 55.868242], [37.327673, 55.877248], [37.32546, 55.876245], [37.327875, 55.874194], [37.325316, 55.871259], [37.331511, 55.871939], [37.344674, 55.861551], [37.334268, 55.860212], [37.327228, 55.863165], [37.32481, 55.862164], [37.322735, 55.864403], [37.307514, 55.861764], [37.30649, 55.859012], [37.308934, 55.857525], [37.317285, 55.857589], [37.319288, 55.860429], [37.340129, 55.85595], [37.340555, 55.849989], [37.347172, 55.842285], [37.32694, 55.837752], [37.329588, 55.834921], [37.339557, 55.838043], [37.346948, 55.834243], [37.348707, 55.828098], [37.352131, 55.826761], [37.351099, 55.825457], [37.355218, 55.821572], [37.351481, 55.818875], [37.345531, 55.819575], [37.344915, 55.822014], [37.342271, 55.81985], [37.337645, 55.824404], [37.334593, 55.821145], [37.338824, 55.819605], [37.319314, 55.821297], [37.319754, 55.819055], [37.315571, 55.817857], [37.316138, 55.816362], [37.323017, 55.817847], [37.32176, 55.814352], [37.320015, 55.814446], [37.322732, 55.812324], [37.333285, 55.815228], [37.33436, 55.809242], [37.329663, 55.807801], [37.324118, 55.810653], [37.325489, 55.808011], [37.319886, 55.805429], [37.32189, 55.802127], [37.318535, 55.804305], [37.315896, 55.803426], [37.300885, 55.805642], [37.298496, 55.803985], [37.288263, 55.803177], [37.285, 55.800459], [37.289637, 55.800401], [37.289956, 55.796423], [37.292853, 55.795712], [37.295162, 55.801884], [37.295903, 55.797667], [37.298585, 55.796168], [37.302219, 55.797713], [37.299255, 55.799668], [37.300595, 55.803006], [37.307077, 55.803636], [37.313358, 55.802744], [37.313559, 55.79969], [37.319188, 55.799884], [37.321292, 55.797525], [37.323632, 55.800285], [37.330781, 55.798485], [37.333081, 55.799651], [37.346919, 55.795751], [37.349483, 55.793324], [37.354953, 55.793165], [37.351685, 55.790796], [37.35268, 55.786688], [37.344763, 55.782162], [37.348877, 55.78092], [37.352674, 55.782174], [37.35385, 55.779601], [37.344875, 55.776174], [37.342426, 55.772241], [37.346074, 55.768128], [37.353039, 55.768716], [37.353375, 55.772232], [37.346801, 55.771976], [37.352628, 55.775077], [37.364155, 55.771184], [37.358509, 55.769227], [37.364187, 55.767956], [37.363011, 55.76597], [37.342587, 55.76129], [37.328478, 55.75108], [37.327745, 55.75228], [37.320317, 55.752439], [37.321516, 55.756324], [37.324698, 55.757376], [37.322781, 55.758747], [37.316425, 55.758544], [37.317035, 55.754312], [37.314304, 55.754823], [37.310015, 55.753015], [37.309768, 55.755859], [37.305358, 55.757602], [37.306557, 55.759569], [37.310779, 55.760608], [37.310794, 55.762962], [37.306991, 55.763897], [37.30167, 55.762539], [37.298864, 55.75691], [37.300247, 55.754636], [37.305548, 55.753701], [37.303354, 55.75285], [37.305576, 55.751724], [37.305527, 55.747847], [37.294385, 55.752898], [37.284787, 55.752746], [37.281697, 55.751093], [37.28943, 55.747931], [37.29062, 55.746576], [37.288334, 55.745259], [37.284563, 55.745194], [37.285207, 55.747197], [37.282545, 55.748135], [37.272104, 55.74044], [37.256935, 55.738329], [37.258341, 55.736656], [37.264444, 55.737918], [37.270679, 55.736319], [37.271826, 55.738336], [37.276721, 55.738469], [37.285974, 55.732765], [37.287466, 55.734928], [37.285066, 55.737676], [37.278684, 55.740087], [37.282556, 55.742877], [37.292876, 55.743385], [37.294569, 55.73687], [37.301063, 55.732943], [37.296622, 55.728942], [37.292563, 55.728615], [37.295219, 55.727116], [37.292566, 55.726041], [37.293322, 55.722846], [37.296306, 55.722], [37.295093, 55.72021], [37.302314, 55.718251], [37.305211, 55.713406], [37.307074, 55.712732], [37.309026, 55.714264], [37.310291, 55.712042], [37.307244, 55.710646], [37.310124, 55.708994], [37.304881, 55.70742], [37.296363, 55.701239], [37.295136, 55.702111], [37.274996, 55.698343], [37.270679, 55.69935], [37.273591, 55.712036], [37.27146, 55.716738], [37.267982, 55.71873], [37.272127, 55.720899], [37.274163, 55.717943], [37.277, 55.718594], [37.275203, 55.721974], [37.27888, 55.724821], [37.270707, 55.722784], [37.261411, 55.718092], [37.266602, 55.716295], [37.269057, 55.711391], [37.263535, 55.702859], [37.265579, 55.694153], [37.252592, 55.693039], [37.247943, 55.690676], [37.229319, 55.699798], [37.226617, 55.705726], [37.22183, 55.709173], [37.20339, 55.712311], [37.205462, 55.70936], [37.218427, 55.707268], [37.224366, 55.700183], [37.221687, 55.696619], [37.216984, 55.695884], [37.216268, 55.699895], [37.213681, 55.700044], [37.214905, 55.701414], [37.211548, 55.701913], [37.213885, 55.697364], [37.209768, 55.696224], [37.209527, 55.694357], [37.212353, 55.694983], [37.212816, 55.693534], [37.208639, 55.691691], [37.209007, 55.69019], [37.204014, 55.689724], [37.204037, 55.688142], [37.208233, 55.687449], [37.226939, 55.69648], [37.227778, 55.692883], [37.223569, 55.691687], [37.223581, 55.68879], [37.23332, 55.690741], [37.244686, 55.688294], [37.237359, 55.685857], [37.231828, 55.680999], [37.22674, 55.68212], [37.190414, 55.676992], [37.187119, 55.677971], [37.186214, 55.675815], [37.183704, 55.677533], [37.170139, 55.673381], [37.174405, 55.671461], [37.173658, 55.669921], [37.179096, 55.673001], [37.209493, 55.676934], [37.216843, 55.676353], [37.220795, 55.678156], [37.224234, 55.677284], [37.219841, 55.671098], [37.221615, 55.663588], [37.214647, 55.661383], [37.208923, 55.661905], [37.201403, 55.660186], [37.210366, 55.658672], [37.210947, 55.656359], [37.21306, 55.656239], [37.216647, 55.659959], [37.220336, 55.660592], [37.217099, 55.655727], [37.209668, 55.653534], [37.194053, 55.654835], [37.185622, 55.652133], [37.17738, 55.646076], [37.17623, 55.641651], [37.179459, 55.641492]]]]}}]}