{"type": "FeatureCollection", "features": [{"type": "Feature", "properties": {"address_id": "lp-55", "label": "ЛП-55", "name": "Ленинский проспект, 55/1 ст1", "min": 20, "mode": "public_transport", "method": "isochrone pt reverse:false", "status": "approx: зона «от адреса» (для ОТ reverse игнорируется)", "start_time": "2026-10-14T05:30:00Z", "request_hash": "84c88638f5a510e734e2425606cf331680cefd45", "was_invalid": false}, "geometry": {"type": "MultiPolygon", "coordinates": [[[[37.525323, 55.667499], [37.522195, 55.671403], [37.52839, 55.674736], [37.535033, 55.675323], [37.536545, 55.679229], [37.554302, 55.681209], [37.560353, 55.683705], [37.559703, 55.686418], [37.56572, 55.685264], [37.565823, 55.686969], [37.568819, 55.687776], [37.571501, 55.685442], [37.577471, 55.686363], [37.575643, 55.69021], [37.579067, 55.691567], [37.5812, 55.697964], [37.584094, 55.698048], [37.586894, 55.702616], [37.591689, 55.702435], [37.592603, 55.704667], [37.595736, 55.704864], [37.592822, 55.707103], [37.595147, 55.709098], [37.602403, 55.709869], [37.602814, 55.710931], [37.597999, 55.711586], [37.601046, 55.714209], [37.597533, 55.716165], [37.609457, 55.717907], [37.610199, 55.722353], [37.619722, 55.727171], [37.620401, 55.729133], [37.616744, 55.732273], [37.619946, 55.740106], [37.617402, 55.741595], [37.614746, 55.741466], [37.61282, 55.737278], [37.610187, 55.736708], [37.610354, 55.732888], [37.605332, 55.731636], [37.607016, 55.729781], [37.604495, 55.726028], [37.591761, 55.724973], [37.592876, 55.720705], [37.579452, 55.71475], [37.575574, 55.715517], [37.572814, 55.709986], [37.557703, 55.706779], [37.552551, 55.707093], [37.551511, 55.704161], [37.543094, 55.701835], [37.540682, 55.694344], [37.53537, 55.693466], [37.529468, 55.687604], [37.529983, 55.681216], [37.524849, 55.680658], [37.522839, 55.675951], [37.519683, 55.675109], [37.518855, 55.669075], [37.525323, 55.667499]]], [[[37.532124, 55.696703], [37.532147, 55.700021], [37.523607, 55.700805], [37.523799, 55.698573], [37.528683, 55.696447], [37.532124, 55.696703]]], [[[37.562302, 55.719944], [37.562808, 55.720028], [37.562854, 55.720168], [37.562704, 55.720401], [37.562549, 55.720673], [37.562454, 55.720906], [37.562377, 55.721107], [37.562262, 55.721288], [37.562078, 55.72145], [37.561819, 55.721579], [37.561494, 55.721673], [37.561143, 55.721728], [37.560773, 55.721761], [37.560396, 55.721761], [37.559996, 55.721748], [37.559583, 55.721748], [37.559166, 55.721767], [37.558766, 55.721777], [37.558421, 55.721722], [37.558185, 55.721573], [37.558122, 55.721398], [37.558266, 55.721249], [37.558522, 55.721107], [37.558806, 55.720925], [37.559065, 55.720712], [37.55933, 55.720517], [37.559663, 55.720372], [37.560054, 55.720262], [37.560425, 55.720181], [37.560709, 55.720122], [37.560968, 55.720074], [37.561258, 55.720015], [37.56158, 55.71996], [37.561899, 55.719928], [37.562302, 55.719944]]], [[[37.530075, 55.7012], [37.530305, 55.701278], [37.530558, 55.701453], [37.530681, 55.70168], [37.530698, 55.701894], [37.530667, 55.702091], [37.530555, 55.702315], [37.530342, 55.702519], [37.530026, 55.702648], [37.529681, 55.70272], [37.529322, 55.702794], [37.528971, 55.702869], [37.528571, 55.702959], [37.52816, 55.703057], [37.527804, 55.70317], [37.527556, 55.703267], [37.52741, 55.703309], [37.527312, 55.703277], [37.527243, 55.70317], [37.527183, 55.703002], [37.527122, 55.702785], [37.527085, 55.702551], [37.527079, 55.702321], [37.527094, 55.702107], [37.527134, 55.7019], [37.52722, 55.701699], [37.527407, 55.701518], [37.527694, 55.701369], [37.528028, 55.701272], [37.528318, 55.701217], [37.528554, 55.701197], [37.528867, 55.701181], [37.529304, 55.701165], [37.529695, 55.701161], [37.530075, 55.7012]]], [[[37.563475, 55.67717], [37.564912, 55.678765], [37.563115, 55.679277], [37.561296, 55.677245], [37.563475, 55.67717]]], [[[37.616284, 55.743265], [37.616304, 55.743388], [37.616353, 55.743579], [37.616402, 55.743789], [37.616434, 55.744006], [37.616391, 55.744223], [37.616299, 55.744424], [37.616175, 55.744589], [37.616031, 55.744705], [37.615827, 55.744799], [37.615543, 55.74487], [37.615203, 55.744916], [37.614838, 55.744899], [37.614536, 55.744793], [37.61435, 55.744621], [37.614286, 55.744427], [37.614272, 55.744217], [37.614278, 55.744], [37.614278, 55.74378], [37.614286, 55.743563], [37.614347, 55.743336], [37.614505, 55.743103], [37.614778, 55.742919], [37.615146, 55.742851], [37.615545, 55.742883], [37.615928, 55.743009], [37.616284, 55.743265]]], [[[37.607057, 55.689565], [37.60729, 55.689649], [37.607439, 55.689814], [37.607442, 55.690025], [37.607341, 55.690258], [37.607126, 55.690479], [37.606809, 55.690637], [37.606433, 55.690702], [37.606025, 55.690702], [37.605594, 55.690702], [37.605131, 55.690735], [37.604731, 55.69077], [37.604438, 55.690699], [37.604311, 55.690475], [37.604291, 55.690271], [37.60438, 55.690129], [37.604567, 55.689983], [37.604835, 55.689818], [37.605116, 55.689659], [37.605369, 55.689561], [37.605588, 55.689526], [37.605924, 55.689526], [37.606444, 55.689536], [37.606752, 55.689542], [37.607057, 55.689565]]], [[[37.570147, 55.684373], [37.570147, 55.684431], [37.57006, 55.684528], [37.569828, 55.684655], [37.569509, 55.68481], [37.56921, 55.684972], [37.568971, 55.685099], [37.568724, 55.685167], [37.568416, 55.685206], [37.568028, 55.685238], [37.567649, 55.685254], [37.567361, 55.685203], [37.567295, 55.685063], [37.567424, 55.684891], [37.567669, 55.684726], [37.567962, 55.684574], [37.568247, 55.684438], [37.568528, 55.68434], [37.568816, 55.684292], [37.569178, 55.684279], [37.569555, 55.684289], [37.569888, 55.684311], [37.570147, 55.684373]]], [[[37.625342, 55.727764], [37.625345, 55.727845], [37.625345, 55.728023], [37.625333, 55.728236], [37.625302, 55.728414], [37.625198, 55.728534], [37.624994, 55.728628], [37.624764, 55.728709], [37.624577, 55.728783], [37.624445, 55.72889], [37.62431, 55.729036], [37.624138, 55.729172], [37.623911, 55.729237], [37.623629, 55.729195], [37.623407, 55.729059], [37.623376, 55.728877], [37.623468, 55.728686], [37.623597, 55.728521], [37.623807, 55.728369], [37.624112, 55.728227], [37.624451, 55.728065], [37.624747, 55.727883], [37.624968, 55.727741], [37.625152, 55.727699], [37.625342, 55.727764]]]]}}, {"type": "Feature", "properties": {"address_id": "lp-55", "label": "ЛП-55", "name": "Ленинский проспект, 55/1 ст1", "min": 40, "mode": "public_transport", "method": "isochrone pt reverse:false", "status": "approx: зона «от адреса» (для ОТ reverse игнорируется)", "start_time": "2026-10-14T05:30:00Z", "request_hash": "84c88638f5a510e734e2425606cf331680cefd45", "was_invalid": false}, "geometry": {"type": "MultiPolygon", "coordinates": [[[[37.520902, 55.625943], [37.52858, 55.628199], [37.532242, 55.631643], [37.531716, 55.63531], [37.537336, 55.637368], [37.540196, 55.641612], [37.537186, 55.647413], [37.543137, 55.650229], [37.546046, 55.648545], [37.541639, 55.646543], [37.542312, 55.643867], [37.55465, 55.649132], [37.561141, 55.647754], [37.567537, 55.64873], [37.56806, 55.651024], [37.578038, 55.649359], [37.586046, 55.650972], [37.583703, 55.653275], [37.585618, 55.656074], [37.58201, 55.659979], [37.585624, 55.661698], [37.584873, 55.665852], [37.591022, 55.663177], [37.592994, 55.664493], [37.602265, 55.663757], [37.600457, 55.661672], [37.602135, 55.65945], [37.60829, 55.660174], [37.611438, 55.663631], [37.609532, 55.665566], [37.602253, 55.665333], [37.599847, 55.669571], [37.59515, 55.671315], [37.596053, 55.673439], [37.59162, 55.672541], [37.591781, 55.675332], [37.611377, 55.669153], [37.617612, 55.672739], [37.616396, 55.675906], [37.612472, 55.676353], [37.608977, 55.674525], [37.607876, 55.67602], [37.614787, 55.680195], [37.620536, 55.678853], [37.621939, 55.679897], [37.624526, 55.677909], [37.621338, 55.675987], [37.624517, 55.672071], [37.622738, 55.672291], [37.623416, 55.669065], [37.619372, 55.664282], [37.632848, 55.660994], [37.638174, 55.670797], [37.630856, 55.673355], [37.632514, 55.674668], [37.640175, 55.677378], [37.642, 55.675903], [37.644728, 55.677413], [37.651205, 55.67622], [37.660136, 55.677323], [37.650041, 55.681135], [37.652754, 55.683177], [37.658044, 55.682016], [37.660087, 55.683945], [37.664144, 55.681524], [37.663379, 55.685838], [37.637027, 55.684211], [37.630847, 55.686295], [37.628507, 55.69091], [37.62834, 55.693706], [37.627285, 55.694338], [37.628432, 55.704352], [37.63741, 55.703643], [37.637694, 55.701955], [37.629059, 55.699976], [37.631796, 55.695573], [37.62884, 55.691966], [37.631482, 55.687325], [37.637424, 55.684616], [37.642558, 55.686748], [37.641299, 55.689613], [37.63628, 55.689808], [37.638856, 55.692844], [37.642774, 55.692361], [37.648158, 55.69497], [37.655066, 55.693013], [37.658679, 55.694795], [37.659892, 55.69079], [37.65431, 55.69054], [37.650064, 55.688301], [37.656149, 55.68669], [37.661818, 55.690871], [37.663057, 55.689377], [37.66684, 55.690725], [37.666555, 55.692676], [37.667849, 55.692054], [37.670275, 55.695187], [37.666254, 55.698071], [37.661881, 55.698599], [37.662922, 55.700037], [37.665319, 55.700727], [37.666524, 55.699214], [37.673316, 55.702318], [37.675659, 55.707738], [37.6852, 55.706484], [37.687304, 55.712897], [37.673851, 55.721544], [37.675214, 55.719381], [37.672359, 55.716754], [37.66074, 55.716175], [37.653459, 55.712476], [37.652812, 55.70961], [37.642509, 55.705068], [37.635392, 55.704647], [37.629579, 55.706899], [37.636151, 55.710954], [37.635418, 55.714857], [37.63845, 55.716596], [37.638853, 55.720155], [37.642877, 55.721356], [37.642334, 55.724659], [37.64622, 55.72393], [37.639669, 55.714883], [37.641201, 55.712891], [37.644731, 55.71383], [37.648069, 55.712045], [37.64434, 55.715478], [37.656911, 55.721777], [37.654939, 55.72857], [37.661789, 55.727349], [37.663738, 55.726077], [37.662039, 55.724001], [37.665351, 55.722651], [37.667507, 55.724578], [37.665259, 55.726362], [37.670223, 55.726446], [37.67676, 55.729062], [37.677053, 55.732947], [37.673342, 55.736867], [37.679457, 55.73799], [37.67632, 55.739508], [37.676421, 55.742003], [37.686304, 55.741967], [37.690829, 55.744453], [37.690619, 55.746653], [37.694051, 55.746356], [37.695589, 55.74787], [37.685887, 55.748452], [37.686094, 55.751824], [37.667636, 55.748446], [37.666469, 55.747012], [37.663373, 55.748336], [37.670778, 55.755199], [37.671126, 55.758602], [37.667438, 55.760857], [37.669062, 55.763535], [37.663192, 55.765346], [37.661562, 55.764327], [37.6551, 55.765479], [37.652843, 55.76139], [37.648879, 55.760821], [37.652682, 55.76806], [37.658285, 55.771912], [37.662347, 55.772254], [37.663603, 55.777638], [37.667814, 55.778906], [37.661148, 55.778773], [37.652803, 55.780956], [37.647523, 55.775094], [37.637614, 55.77563], [37.636501, 55.77897], [37.642647, 55.779572], [37.638574, 55.782184], [37.640658, 55.783869], [37.636406, 55.7895], [37.641244, 55.79185], [37.636585, 55.796006], [37.630732, 55.791859], [37.634794, 55.788398], [37.632204, 55.785297], [37.627101, 55.783736], [37.62778, 55.77768], [37.621973, 55.774537], [37.619027, 55.775844], [37.614557, 55.77261], [37.616347, 55.768729], [37.612464, 55.769716], [37.609836, 55.768496], [37.605588, 55.771171], [37.601135, 55.769748], [37.602377, 55.771895], [37.594325, 55.773228], [37.595314, 55.775821], [37.604484, 55.774566], [37.607994, 55.778314], [37.609057, 55.781279], [37.60401, 55.781932], [37.602075, 55.784085], [37.595118, 55.786109], [37.594095, 55.780665], [37.587998, 55.783261], [37.590243, 55.785821], [37.587892, 55.787305], [37.586693, 55.782818], [37.581455, 55.780826], [37.577164, 55.784208], [37.569693, 55.784577], [37.568773, 55.786749], [37.56499, 55.786031], [37.576968, 55.778282], [37.570911, 55.77175], [37.590211, 55.77013], [37.590039, 55.765346], [37.594495, 55.766895], [37.599925, 55.76543], [37.597809, 55.764039], [37.603555, 55.76141], [37.602388, 55.759433], [37.590275, 55.75932], [37.588973, 55.764023], [37.582697, 55.761998], [37.579205, 55.767064], [37.573315, 55.766433], [37.570638, 55.764444], [37.565406, 55.768865], [37.56198, 55.767109], [37.560626, 55.768849], [37.55655, 55.768946], [37.555345, 55.76578], [37.551286, 55.766048], [37.549335, 55.764441], [37.56081, 55.760016], [37.565386, 55.760834], [37.571613, 55.75263], [37.559649, 55.75074], [37.552071, 55.74786], [37.550447, 55.744867], [37.545626, 55.747067], [37.546063, 55.751274], [37.53911, 55.754176], [37.539049, 55.756331], [37.535321, 55.756839], [37.532268, 55.76161], [37.528232, 55.7591], [37.527197, 55.760724], [37.523601, 55.76065], [37.516823, 55.763884], [37.515066, 55.766786], [37.50556, 55.767516], [37.506635, 55.763367], [37.512517, 55.762018], [37.51866, 55.762755], [37.515388, 55.758874], [37.517487, 55.754364], [37.51383, 55.753047], [37.518343, 55.753099], [37.524173, 55.748695], [37.523541, 55.747038], [37.529595, 55.744799], [37.540133, 55.745246], [37.528545, 55.743932], [37.524363, 55.744346], [37.517944, 55.741547], [37.517375, 55.738967], [37.509941, 55.738957], [37.510188, 55.73674], [37.503548, 55.736426], [37.508584, 55.738365], [37.505623, 55.741404], [37.502458, 55.741204], [37.503321, 55.738164], [37.498782, 55.738381], [37.496511, 55.734225], [37.494059, 55.734157], [37.49497, 55.739278], [37.492716, 55.741482], [37.501294, 55.74087], [37.503651, 55.745314], [37.495229, 55.747255], [37.491952, 55.741903], [37.481416, 55.743346], [37.475543, 55.737469], [37.47788, 55.734251], [37.486567, 55.732008], [37.48697, 55.730341], [37.490169, 55.730415], [37.490638, 55.727174], [37.486887, 55.723069], [37.488309, 55.721764], [37.494384, 55.721515], [37.504019, 55.712266], [37.497252, 55.710471], [37.495444, 55.707054], [37.489459, 55.707942], [37.485737, 55.705937], [37.486309, 55.700637], [37.481445, 55.698505], [37.476141, 55.701447], [37.473376, 55.700539], [37.472217, 55.701826], [37.471096, 55.700844], [37.460521, 55.701796], [37.461409, 55.703594], [37.455726, 55.707977], [37.454329, 55.705353], [37.458908, 55.700374], [37.457988, 55.692854], [37.465669, 55.691292], [37.466434, 55.689273], [37.469521, 55.690621], [37.473399, 55.688602], [37.477041, 55.689118], [37.474046, 55.686933], [37.474517, 55.684379], [37.479076, 55.683504], [37.478973, 55.681086], [37.484176, 55.681942], [37.48793, 55.680532], [37.489071, 55.674716], [37.49386, 55.670975], [37.492955, 55.669149], [37.496381, 55.669503], [37.500147, 55.667538], [37.496154, 55.667587], [37.491414, 55.663822], [37.488292, 55.66759], [37.480373, 55.667142], [37.475282, 55.664555], [37.481123, 55.658925], [37.476434, 55.655646], [37.478889, 55.653268], [37.473106, 55.651328], [37.472163, 55.649048], [37.469918, 55.650131], [37.46161, 55.647595], [37.460279, 55.644869], [37.465422, 55.643542], [37.4613, 55.640525], [37.475566, 55.639921], [37.478751, 55.63666], [37.490598, 55.636839], [37.499811, 55.639133], [37.506724, 55.638075], [37.509056, 55.636397], [37.506465, 55.630572], [37.509035, 55.626995], [37.512068, 55.625625], [37.520902, 55.625943]], [[37.507762, 55.686275], [37.511395, 55.687649], [37.505465, 55.690171], [37.505034, 55.69216], [37.512609, 55.692141], [37.507472, 55.693855], [37.506675, 55.697138], [37.504123, 55.696778], [37.506431, 55.698041], [37.5032, 55.698395], [37.499748, 55.69739], [37.49591, 55.692818], [37.498678, 55.687293], [37.507762, 55.686275]], [[37.520462, 55.722959], [37.520223, 55.725834], [37.524369, 55.729742], [37.517033, 55.730033], [37.518237, 55.733698], [37.51473, 55.7343], [37.509294, 55.727139], [37.511663, 55.726954], [37.511315, 55.724497], [37.517863, 55.7245], [37.520462, 55.722959]], [[37.557222, 55.710277], [37.549826, 55.711942], [37.543436, 55.716729], [37.543125, 55.721356], [37.545891, 55.721897], [37.547075, 55.72519], [37.544698, 55.727204], [37.537508, 55.718697], [37.537747, 55.71485], [37.540032, 55.716978], [37.546885, 55.712246], [37.557222, 55.710277]], [[37.562891, 55.650511], [37.564714, 55.651549], [37.563575, 55.657154], [37.560816, 55.659366], [37.55722, 55.6579], [37.557608, 55.65525], [37.554405, 55.6537], [37.558352, 55.650628], [37.562891, 55.650511]], [[37.550275, 55.728363], [37.558907, 55.732111], [37.570342, 55.733445], [37.575801, 55.736358], [37.566453, 55.737543], [37.550275, 55.728363]], [[37.483503, 55.692588], [37.4882, 55.69612], [37.494343, 55.696937], [37.484906, 55.698301], [37.481218, 55.697474], [37.48022, 55.694772], [37.483503, 55.692588]], [[37.670971, 55.739275], [37.674892, 55.74267], [37.669505, 55.746064], [37.667961, 55.742032], [37.670971, 55.739275]], [[37.527217, 55.730752], [37.538972, 55.736245], [37.528382, 55.734313], [37.52457, 55.73103], [37.527217, 55.730752]]], [[[37.517665, 55.60897], [37.52185, 55.610444], [37.515107, 55.613691], [37.516285, 55.617574], [37.513307, 55.618912], [37.512913, 55.622717], [37.511234, 55.624239], [37.501699, 55.623483], [37.502128, 55.629257], [37.499009, 55.630514], [37.499414, 55.632561], [37.492935, 55.635524], [37.481456, 55.634979], [37.472939, 55.636676], [37.465051, 55.635271], [37.468774, 55.631844], [37.46848, 55.629121], [37.473097, 55.627813], [37.475842, 55.624282], [37.471746, 55.62209], [37.468897, 55.613074], [37.463556, 55.612152], [37.465324, 55.610045], [37.469915, 55.61123], [37.472094, 55.610236], [37.473295, 55.612857], [37.476759, 55.613324], [37.483719, 55.611516], [37.490997, 55.6126], [37.498724, 55.611428], [37.499727, 55.615071], [37.504422, 55.616302], [37.506089, 55.615626], [37.504528, 55.613432], [37.514368, 55.613685], [37.515949, 55.611724], [37.512335, 55.61122], [37.512928, 55.608924], [37.517665, 55.60897]]], [[[37.619892, 55.645379], [37.621145, 55.649343], [37.627625, 55.652801], [37.623054, 55.657942], [37.616727, 55.657751], [37.611325, 55.653904], [37.600603, 55.658704], [37.589065, 55.655831], [37.587688, 55.651309], [37.597487, 55.646141], [37.6113, 55.652701], [37.618667, 55.648698], [37.619892, 55.645379]]], [[[37.468112, 55.570037], [37.47358, 55.574708], [37.4707, 55.577038], [37.467308, 55.575885], [37.466646, 55.578641], [37.47193, 55.58502], [37.477078, 55.586882], [37.478516, 55.589958], [37.476397, 55.592041], [37.480209, 55.596829], [37.48743, 55.59924], [37.484472, 55.601351], [37.48486, 55.60545], [37.482534, 55.603803], [37.476768, 55.604329], [37.475624, 55.601789], [37.471729, 55.601987], [37.474897, 55.600698], [37.470878, 55.598762], [37.474598, 55.597479], [37.475716, 55.592817], [37.468659, 55.590257], [37.470458, 55.584773], [37.463939, 55.582592], [37.455642, 55.576587], [37.455849, 55.574549], [37.461435, 55.574354], [37.468112, 55.570037]]], [[[37.511651, 55.772422], [37.514693, 55.775753], [37.51847, 55.775543], [37.522273, 55.778049], [37.51732, 55.778233], [37.515842, 55.780994], [37.506609, 55.779523], [37.505517, 55.782624], [37.499354, 55.7778], [37.492906, 55.779753], [37.49058, 55.778893], [37.487976, 55.780697], [37.484791, 55.779035], [37.485941, 55.776785], [37.481465, 55.777771], [37.472925, 55.775944], [37.48254, 55.773971], [37.489425, 55.7752], [37.492909, 55.773092], [37.505557, 55.773276], [37.506707, 55.772245], [37.508656, 55.773629], [37.511651, 55.772422]]], [[[37.700214, 55.712855], [37.701605, 55.72067], [37.695063, 55.721848], [37.69554, 55.724086], [37.69065, 55.726854], [37.684364, 55.728107], [37.68257, 55.727158], [37.680253, 55.730425], [37.677835, 55.726511], [37.68148, 55.724251], [37.685275, 55.724555], [37.679968, 55.723263], [37.687669, 55.720657], [37.685996, 55.715504], [37.691932, 55.71555], [37.6904, 55.713989], [37.693715, 55.71279], [37.700214, 55.712855]]], [[[37.515026, 55.782116], [37.514256, 55.788385], [37.508639, 55.790602], [37.513845, 55.790628], [37.515932, 55.793156], [37.497807, 55.791025], [37.495778, 55.788207], [37.498773, 55.786093], [37.507822, 55.787509], [37.511315, 55.782773], [37.515026, 55.782116]]], [[[37.529138, 55.600542], [37.530517, 55.602747], [37.537764, 55.603287], [37.540449, 55.605225], [37.537379, 55.609025], [37.531972, 55.610623], [37.527444, 55.609538], [37.527493, 55.61185], [37.524817, 55.611045], [37.525015, 55.607353], [37.529138, 55.600542]]], [[[37.513698, 55.742039], [37.519453, 55.744204], [37.520816, 55.747834], [37.511289, 55.750452], [37.511321, 55.752413], [37.504126, 55.753105], [37.505307, 55.750326], [37.509613, 55.749595], [37.50765, 55.744501], [37.513698, 55.742039]]], [[[37.454122, 55.709626], [37.459414, 55.716343], [37.449913, 55.719501], [37.444883, 55.714682], [37.446668, 55.712169], [37.452733, 55.711663], [37.450138, 55.710254], [37.454122, 55.709626]]], [[[37.455039, 55.632506], [37.45779, 55.634135], [37.456148, 55.638458], [37.450468, 55.637965], [37.443888, 55.635002], [37.442362, 55.635959], [37.439185, 55.632954], [37.441137, 55.631964], [37.448125, 55.633324], [37.455039, 55.632506]]], [[[37.719902, 55.721223], [37.721555, 55.723373], [37.727727, 55.724409], [37.725447, 55.727294], [37.719385, 55.725779], [37.709962, 55.727288], [37.711123, 55.723121], [37.715645, 55.721155], [37.719902, 55.721223]]], [[[37.719839, 55.749083], [37.723159, 55.753274], [37.716349, 55.755771], [37.710445, 55.751057], [37.705308, 55.752199], [37.707199, 55.749472], [37.719839, 55.749083]]], [[[37.556633, 55.754891], [37.562086, 55.757081], [37.556009, 55.757088], [37.556199, 55.758938], [37.552701, 55.760818], [37.542122, 55.757541], [37.547354, 55.756502], [37.548489, 55.754759], [37.556633, 55.754891]]], [[[37.669278, 55.645398], [37.671313, 55.646943], [37.66567, 55.650819], [37.657259, 55.650767], [37.658394, 55.64741], [37.669278, 55.645398]]], [[[37.503582, 55.79567], [37.502458, 55.801186], [37.496108, 55.801723], [37.497623, 55.800282], [37.494464, 55.795699], [37.503582, 55.79567]]], [[[37.549723, 55.771058], [37.552931, 55.773752], [37.550927, 55.775307], [37.544666, 55.776562], [37.540409, 55.775084], [37.541205, 55.772128], [37.545457, 55.772626], [37.549723, 55.771058]]], [[[37.647525, 55.651195], [37.652918, 55.654611], [37.652323, 55.658257], [37.643492, 55.654546], [37.643303, 55.652477], [37.647525, 55.651195]]], [[[37.627682, 55.62792], [37.631278, 55.633103], [37.625175, 55.634733], [37.62168, 55.631224], [37.625287, 55.630663], [37.627682, 55.62792]]], [[[37.448513, 55.725772], [37.450491, 55.727165], [37.448298, 55.731312], [37.444644, 55.732704], [37.442353, 55.727197], [37.448513, 55.725772]]], [[[37.679721, 55.769751], [37.683426, 55.772908], [37.682653, 55.774408], [37.678054, 55.77489], [37.67553, 55.7725], [37.679721, 55.769751]]], [[[37.562313, 55.787263], [37.563078, 55.789655], [37.558326, 55.792402], [37.553767, 55.791953], [37.55471, 55.788478], [37.562313, 55.787263]]], [[[37.641621, 55.806004], [37.643076, 55.808227], [37.639853, 55.809901], [37.634437, 55.808541], [37.636559, 55.805558], [37.641621, 55.806004]]], [[[37.556627, 55.599292], [37.558898, 55.601257], [37.551226, 55.604069], [37.549861, 55.601351], [37.556627, 55.599292]]], [[[37.753084, 55.755587], [37.757465, 55.758217], [37.751696, 55.759605], [37.748433, 55.757576], [37.753084, 55.755587]]], [[[37.588932, 55.792176], [37.591243, 55.794849], [37.585831, 55.795786], [37.58435, 55.792532], [37.588932, 55.792176]]], [[[37.450767, 55.566159], [37.454927, 55.569611], [37.450422, 55.571507], [37.44653, 55.566208], [37.450767, 55.566159]]], [[[37.465744, 55.557709], [37.466402, 55.559784], [37.46961, 55.55994], [37.466066, 55.562671], [37.46255, 55.560804], [37.465744, 55.557709]]], [[[37.664819, 55.676473], [37.666627, 55.679841], [37.663451, 55.680905], [37.661163, 55.677472], [37.664819, 55.676473]]], [[[37.609546, 55.639522], [37.606036, 55.642556], [37.602121, 55.641602], [37.603383, 55.639367], [37.609546, 55.639522]]], [[[37.459957, 55.746501], [37.463392, 55.74852], [37.460141, 55.75076], [37.455947, 55.747245], [37.459957, 55.746501]]], [[[37.703945, 55.780057], [37.707565, 55.781111], [37.706745, 55.783662], [37.700665, 55.780196], [37.703945, 55.780057]]], [[[37.473497, 55.728463], [37.476018, 55.730415], [37.472169, 55.731509], [37.467158, 55.728864], [37.473497, 55.728463]]], [[[37.495614, 55.603796], [37.492662, 55.607242], [37.488054, 55.607898], [37.491495, 55.60379], [37.495614, 55.603796]]], [[[37.47149, 55.663549], [37.473698, 55.664655], [37.472465, 55.666384], [37.465223, 55.666069], [37.47149, 55.663549]]], [[[37.730952, 55.707074], [37.735302, 55.708968], [37.733591, 55.710079], [37.727244, 55.708968], [37.730952, 55.707074]]], [[[37.44139, 55.558421], [37.445087, 55.5598], [37.443474, 55.56256], [37.439815, 55.560362], [37.44139, 55.558421]]], [[[37.718304, 55.75822], [37.716993, 55.758984], [37.719787, 55.759482], [37.717781, 55.760821], [37.714127, 55.760588], [37.715869, 55.757709], [37.718304, 55.75822]]], [[[37.472513, 55.603894], [37.477642, 55.605255], [37.468196, 55.60618], [37.46635, 55.605232], [37.472513, 55.603894]]], [[[37.731346, 55.730962], [37.731384, 55.731085], [37.731389, 55.731279], [37.731335, 55.731474], [37.731234, 55.731678], [37.73111, 55.731882], [37.73097, 55.732079], [37.730809, 55.732241], [37.730564, 55.732377], [37.730205, 55.732497], [37.729794, 55.732607], [37.729397, 55.732694], [37.729029, 55.732736], [37.728633, 55.732772], [37.728236, 55.732785], [37.727825, 55.732794], [37.727451, 55.732785], [37.727074, 55.732746], [37.726721, 55.732681], [37.72637, 55.732587], [37.726045, 55.732471], [37.725741, 55.732341], [37.72545, 55.732209], [37.725171, 55.73206], [37.724956, 55.731891], [37.724881, 55.73171], [37.724982, 55.731538], [37.725192, 55.731377], [37.725459, 55.731215], [37.725723, 55.731066], [37.726028, 55.730946], [37.726344, 55.730868], [37.726704, 55.730813], [37.72708, 55.730765], [37.727488, 55.730726], [37.727865, 55.73071], [37.728242, 55.730716], [37.728618, 55.730729], [37.729012, 55.730749], [37.729397, 55.730765], [37.729777, 55.730781], [37.730173, 55.730791], [37.73055, 55.73081], [37.730929, 55.730849], [37.731346, 55.730962]]]]}}, {"type": "Feature", "properties": {"address_id": "siti", "label": "Сити", "name": "Башня на Набережной, многофункциональный комплекс", "min": 20, "mode": "public_transport", "method": "isochrone pt reverse:false", "status": "approx: зона «от адреса» (для ОТ reverse игнорируется)", "start_time": "2026-10-14T05:30:00Z", "request_hash": "f397d7f6c8f180eeed49546ccfb91033fb583641", "was_invalid": false}, "geometry": {"type": "MultiPolygon", "coordinates": [[[[37.53823, 55.744809], [37.562325, 55.755998], [37.560893, 55.760219], [37.550568, 55.760772], [37.544971, 55.757942], [37.54619, 55.756082], [37.540038, 55.754102], [37.538931, 55.756282], [37.534594, 55.755716], [37.529701, 55.758757], [37.527404, 55.7578], [37.524923, 55.758802], [37.526177, 55.760294], [37.518964, 55.760737], [37.518131, 55.754166], [37.523089, 55.75262], [37.523871, 55.746825], [37.528885, 55.74476], [37.53823, 55.744809]]], [[[37.534594, 55.7362], [37.535965, 55.737821], [37.539601, 55.737504], [37.541136, 55.742569], [37.534303, 55.744029], [37.526338, 55.738009], [37.530075, 55.736048], [37.534594, 55.7362]]], [[[37.518685, 55.734183], [37.52196, 55.737663], [37.514799, 55.739582], [37.511214, 55.738922], [37.512229, 55.735416], [37.518685, 55.734183]]], [[[37.510478, 55.775009], [37.513186, 55.777845], [37.505563, 55.779957], [37.501501, 55.775294], [37.510478, 55.775009]]], [[[37.515196, 55.763328], [37.514606, 55.76599], [37.505523, 55.767313], [37.508823, 55.763959], [37.515196, 55.763328]]], [[[37.565628, 55.742039], [37.568695, 55.74398], [37.565363, 55.745323], [37.562546, 55.74267], [37.565628, 55.742039]]], [[[37.504623, 55.787298], [37.504666, 55.787392], [37.504755, 55.787554], [37.504861, 55.787758], [37.504985, 55.787984], [37.505091, 55.788207], [37.505181, 55.788407], [37.505273, 55.788591], [37.505419, 55.78873], [37.505655, 55.788824], [37.505974, 55.788869], [37.506345, 55.788889], [37.506744, 55.788918], [37.507127, 55.788966], [37.507466, 55.789034], [37.507753, 55.789118], [37.507937, 55.78919], [37.507986, 55.789264], [37.507929, 55.789393], [37.507886, 55.78981], [37.507874, 55.78991], [37.507845, 55.789949], [37.507742, 55.789991], [37.5075, 55.79004], [37.507155, 55.790075], [37.506828, 55.790069], [37.506572, 55.789994], [37.506313, 55.789878], [37.505971, 55.789762], [37.505574, 55.789687], [37.505172, 55.789665], [37.504795, 55.789671], [37.504402, 55.789691], [37.504011, 55.789707], [37.50362, 55.789726], [37.503237, 55.789745], [37.502846, 55.789758], [37.502455, 55.789768], [37.502079, 55.789768], [37.501711, 55.789755], [37.501334, 55.78971], [37.500975, 55.789616], [37.500676, 55.789455], [37.500466, 55.789254], [37.500328, 55.789034], [37.500274, 55.788827], [37.500345, 55.788617], [37.500581, 55.788443], [37.500943, 55.788349], [37.50134, 55.788346], [37.501711, 55.788385], [37.502096, 55.78842], [37.502478, 55.78843], [37.502872, 55.78841], [37.503209, 55.78833], [37.50349, 55.788165], [37.503697, 55.787961], [37.503873, 55.787748], [37.504002, 55.787554], [37.504128, 55.787386], [37.504255, 55.787279], [37.504419, 55.787244], [37.504623, 55.787298]]], [[[37.56334, 55.71999], [37.563337, 55.720093], [37.563259, 55.720281], [37.563133, 55.720478], [37.563021, 55.720614], [37.562975, 55.720705], [37.562957, 55.720861], [37.56294, 55.721155], [37.56288, 55.721366], [37.562736, 55.721537], [37.562477, 55.721732], [37.562196, 55.721897], [37.561994, 55.721987], [37.561871, 55.72201], [37.561649, 55.72201], [37.560948, 55.721994], [37.560778, 55.721987], [37.560704, 55.721981], [37.560508, 55.721955], [37.560014, 55.721903], [37.559608, 55.721887], [37.559304, 55.721913], [37.558999, 55.721974], [37.558706, 55.722033], [37.55843, 55.722065], [37.558059, 55.722062], [37.557611, 55.722039], [37.557355, 55.72202], [37.557271, 55.722], [37.557251, 55.721958], [37.557286, 55.721868], [37.557363, 55.721709], [37.557487, 55.721518], [37.557705, 55.721333], [37.558036, 55.721171], [37.558395, 55.721019], [37.5587, 55.720848], [37.558953, 55.720653], [37.559226, 55.720449], [37.559565, 55.720284], [37.559939, 55.720158], [37.560293, 55.720058], [37.56058, 55.719977], [37.560839, 55.719902], [37.561129, 55.719834], [37.561494, 55.719779], [37.561897, 55.719743], [37.562296, 55.719756], [37.562653, 55.719798], [37.562989, 55.71987], [37.56334, 55.71999]]], [[[37.489707, 55.775659], [37.489701, 55.775711], [37.489615, 55.775811], [37.489436, 55.775954], [37.489255, 55.776132], [37.48918, 55.776342], [37.489215, 55.776584], [37.489295, 55.776807], [37.489344, 55.776979], [37.489333, 55.77716], [37.489287, 55.777399], [37.489249, 55.777635], [37.489229, 55.777845], [37.489218, 55.778062], [37.489215, 55.778291], [37.489249, 55.778537], [37.489293, 55.778763], [37.489298, 55.778951], [37.489238, 55.779119], [37.489117, 55.779333], [37.488928, 55.779552], [37.488643, 55.779737], [37.488284, 55.779811], [37.48791, 55.77975], [37.487597, 55.779594], [37.487358, 55.77941], [37.487157, 55.779229], [37.486979, 55.779058], [37.486826, 55.778893], [37.486723, 55.778715], [37.486674, 55.778518], [37.486714, 55.778288], [37.486861, 55.778049], [37.487048, 55.777842], [37.487185, 55.777709], [37.487252, 55.777609], [37.487275, 55.777444], [37.487298, 55.777189], [37.487321, 55.776975], [37.487341, 55.776775], [37.487361, 55.776555], [37.487352, 55.776351], [37.487277, 55.77619], [37.487096, 55.776034], [37.486864, 55.775866], [37.486723, 55.775708], [37.486889, 55.775598], [37.487194, 55.77553], [37.487542, 55.775491], [37.487901, 55.775472], [37.488309, 55.775485], [37.488729, 55.775517], [37.489114, 55.775566], [37.489425, 55.775608], [37.489707, 55.775659]]], [[[37.522158, 55.730936], [37.524259, 55.732943], [37.522405, 55.7334], [37.519292, 55.732332], [37.522158, 55.730936]]], [[[37.499348, 55.722418], [37.4995, 55.724141], [37.496301, 55.724999], [37.497238, 55.722463], [37.499348, 55.722418]]], [[[37.554141, 55.745262], [37.554356, 55.745327], [37.554673, 55.745443], [37.554992, 55.745589], [37.555245, 55.745757], [37.555337, 55.745938], [37.555245, 55.746123], [37.554995, 55.746301], [37.554621, 55.746443], [37.554247, 55.746547], [37.553989, 55.746595], [37.553876, 55.746611], [37.553802, 55.746589], [37.553615, 55.746517], [37.553204, 55.746398], [37.552732, 55.746291], [37.552313, 55.746229], [37.551959, 55.746197], [37.55164, 55.746139], [37.551399, 55.746042], [37.551284, 55.745893], [37.551347, 55.745715], [37.551585, 55.74556], [37.55195, 55.745462], [37.552336, 55.74542], [37.552678, 55.745394], [37.553003, 55.745352], [37.553327, 55.745301], [37.553621, 55.745252], [37.553859, 55.745236], [37.554141, 55.745262]]], [[[37.500253, 55.797596], [37.500512, 55.797683], [37.50078, 55.797877], [37.500912, 55.79811], [37.500961, 55.798259], [37.500972, 55.798314], [37.500952, 55.798349], [37.500869, 55.798456], [37.500682, 55.798698], [37.50044, 55.79897], [37.500173, 55.799196], [37.499865, 55.799367], [37.499541, 55.799503], [37.49923, 55.799613], [37.498943, 55.799694], [37.498684, 55.799729], [37.498494, 55.79969], [37.498385, 55.799584], [37.498356, 55.799412], [37.498365, 55.799212], [37.498417, 55.799021], [37.498543, 55.798869], [37.498773, 55.798727], [37.499026, 55.798543], [37.499201, 55.798317], [37.499253, 55.798116], [37.499198, 55.797997], [37.499032, 55.797903], [37.49881, 55.797803], [37.498629, 55.797716], [37.498566, 55.797654], [37.498592, 55.797603], [37.49871, 55.79757], [37.498989, 55.797561], [37.499374, 55.797554], [37.499788, 55.797557], [37.500253, 55.797596]]], [[[37.580901, 55.776183], [37.581145, 55.77628], [37.581369, 55.776393], [37.58153, 55.776536], [37.581671, 55.776736], [37.581731, 55.776959], [37.581631, 55.777124], [37.581395, 55.777218], [37.581067, 55.777247], [37.580714, 55.777237], [37.580311, 55.777199], [37.579823, 55.777121], [37.579368, 55.777037], [37.579184, 55.776998], [37.579144, 55.776988], [37.579136, 55.776969], [37.579121, 55.776882], [37.579055, 55.776497], [37.579015, 55.776345], [37.579061, 55.776274], [37.579222, 55.776219], [37.579504, 55.77617], [37.579872, 55.776125], [37.580314, 55.776122], [37.580901, 55.776183]]], [[[37.475058, 55.783959], [37.475029, 55.784079], [37.474822, 55.784218], [37.474485, 55.784299], [37.474115, 55.784328], [37.473747, 55.784324], [37.473356, 55.784311], [37.472965, 55.784305], [37.472571, 55.784302], [37.472183, 55.784289], [37.47178, 55.784224], [37.471459, 55.784108], [37.471838, 55.784024], [37.472238, 55.783962], [37.472591, 55.783924], [37.472985, 55.783885], [37.473393, 55.783836], [37.473773, 55.783784], [37.474129, 55.783739], [37.474526, 55.783762], [37.475058, 55.783959]]], [[[37.502369, 55.723878], [37.502409, 55.723985], [37.50249, 55.724154], [37.50266, 55.724319], [37.502912, 55.724439], [37.503148, 55.724507], [37.503257, 55.724545], [37.503283, 55.724565], [37.503272, 55.724581], [37.503211, 55.724594], [37.502984, 55.724613], [37.50249, 55.724646], [37.502145, 55.724655], [37.501944, 55.724607], [37.50172, 55.724487], [37.501403, 55.724322], [37.501007, 55.72417], [37.500601, 55.724037], [37.500331, 55.723911], [37.500564, 55.723784], [37.500932, 55.72371], [37.501323, 55.723691], [37.501688, 55.723704], [37.50203, 55.723755], [37.502369, 55.723878]]], [[[37.469921, 55.729104], [37.469944, 55.729127], [37.470044, 55.72923], [37.470312, 55.729408], [37.470662, 55.729528], [37.471045, 55.729567], [37.471433, 55.729577], [37.471824, 55.729583], [37.472157, 55.729602], [37.472396, 55.729664], [37.472482, 55.729768], [37.472393, 55.729884], [37.472151, 55.729972], [37.471815, 55.729994], [37.471464, 55.729978], [37.471085, 55.729946], [37.470685, 55.729907], [37.470297, 55.729871], [37.469992, 55.729839], [37.469806, 55.729784], [37.469714, 55.729677], [37.469731, 55.729473], [37.469826, 55.729227], [37.469886, 55.729123], [37.4699, 55.729104], [37.469909, 55.729101], [37.469921, 55.729104]]], [[[37.564596, 55.763972], [37.564642, 55.764091], [37.564671, 55.764276], [37.564648, 55.76447], [37.564558, 55.764654], [37.564406, 55.76479], [37.564211, 55.764845], [37.564018, 55.764787], [37.563874, 55.764654], [37.563774, 55.76447], [37.563731, 55.764272], [37.563768, 55.764078], [37.563932, 55.76393], [37.564216, 55.763878], [37.564596, 55.763972]]], [[[37.505652, 55.734264], [37.505646, 55.734313], [37.505586, 55.734406], [37.505396, 55.734549], [37.505048, 55.734704], [37.504675, 55.734818], [37.504384, 55.734788], [37.50422, 55.734552], [37.504172, 55.734342], [37.504266, 55.734232], [37.504482, 55.734183], [37.504844, 55.734177], [37.505229, 55.734196], [37.505505, 55.734222], [37.505652, 55.734264]]], [[[37.568114, 55.756832], [37.568106, 55.756913], [37.567928, 55.757001], [37.567606, 55.757052], [37.567215, 55.757062], [37.566838, 55.757049], [37.566548, 55.757026], [37.566398, 55.756988], [37.566352, 55.75692], [37.566427, 55.756832], [37.566625, 55.756738], [37.566907, 55.756671], [37.567238, 55.756635], [37.56762, 55.75668], [37.568114, 55.756832]]], [[[37.582829, 55.748478], [37.582812, 55.748556], [37.582729, 55.748679], [37.582556, 55.748763], [37.582361, 55.748695], [37.582289, 55.748559], [37.58239, 55.748456], [37.582591, 55.748423], [37.582829, 55.748478]]]]}}, {"type": "Feature", "properties": {"address_id": "siti", "label": "Сити", "name": "Башня на Набережной, многофункциональный комплекс", "min": 40, "mode": "public_transport", "method": "isochrone pt reverse:false", "status": "approx: зона «от адреса» (для ОТ reverse игнорируется)", "start_time": "2026-10-14T05:30:00Z", "request_hash": "f397d7f6c8f180eeed49546ccfb91033fb583641", "was_invalid": false}, "geometry": {"type": "MultiPolygon", "coordinates": [[[[37.570293, 55.664892], [37.559574, 55.66818], [37.560019, 55.673167], [37.569945, 55.674888], [37.570877, 55.673303], [37.575272, 55.673001], [37.574668, 55.675442], [37.57046, 55.675961], [37.569773, 55.681378], [37.583876, 55.683725], [37.584661, 55.688359], [37.590778, 55.688978], [37.596446, 55.683125], [37.588789, 55.684914], [37.583393, 55.679909], [37.592928, 55.680888], [37.591278, 55.678888], [37.593261, 55.677754], [37.59862, 55.679546], [37.599149, 55.681469], [37.608094, 55.683676], [37.605507, 55.686324], [37.607195, 55.688861], [37.612041, 55.683498], [37.617874, 55.684139], [37.623425, 55.676389], [37.621329, 55.675365], [37.625977, 55.670959], [37.629841, 55.67531], [37.629496, 55.679371], [37.633184, 55.67719], [37.642489, 55.679229], [37.634279, 55.683378], [37.628679, 55.682295], [37.626909, 55.683763], [37.629346, 55.690261], [37.628099, 55.693499], [37.622528, 55.69739], [37.626797, 55.700177], [37.622979, 55.707887], [37.626621, 55.713616], [37.623729, 55.714844], [37.626472, 55.715747], [37.622913, 55.716489], [37.617138, 55.711971], [37.609719, 55.714183], [37.6152, 55.716806], [37.612047, 55.719614], [37.612208, 55.720867], [37.615005, 55.720734], [37.611886, 55.723895], [37.61328, 55.724788], [37.615948, 55.724481], [37.617187, 55.726135], [37.621596, 55.723464], [37.627386, 55.723185], [37.632276, 55.725692], [37.632974, 55.728641], [37.641322, 55.728285], [37.6429, 55.72981], [37.642196, 55.734254], [37.633224, 55.735206], [37.629726, 55.731959], [37.624324, 55.734057], [37.619662, 55.733597], [37.622223, 55.736892], [37.620053, 55.741825], [37.621918, 55.74588], [37.615956, 55.745747], [37.613608, 55.747213], [37.628688, 55.752639], [37.631675, 55.755781], [37.632218, 55.7525], [37.636818, 55.752931], [37.633894, 55.756716], [37.634725, 55.762115], [37.623603, 55.764421], [37.613536, 55.763622], [37.613694, 55.768432], [37.608813, 55.768461], [37.607473, 55.772646], [37.601698, 55.774431], [37.605683, 55.775258], [37.609299, 55.780868], [37.603719, 55.782398], [37.607071, 55.784961], [37.605136, 55.788181], [37.608595, 55.789367], [37.610184, 55.788449], [37.611061, 55.790075], [37.619349, 55.792499], [37.628691, 55.791804], [37.625078, 55.793152], [37.627665, 55.795082], [37.623913, 55.800934], [37.626762, 55.802786], [37.614577, 55.809329], [37.610236, 55.80836], [37.605093, 55.803519], [37.605605, 55.801209], [37.595256, 55.804838], [37.588768, 55.803032], [37.580283, 55.809309], [37.587334, 55.812666], [37.576684, 55.812569], [37.571929, 55.808615], [37.57441, 55.806017], [37.58145, 55.804227], [37.580826, 55.801568], [37.573803, 55.803765], [37.566004, 55.800485], [37.566441, 55.79895], [37.572579, 55.797884], [37.57006, 55.795867], [37.560727, 55.797086], [37.542068, 55.79642], [37.544617, 55.791798], [37.551574, 55.790579], [37.55521, 55.787913], [37.55688, 55.783448], [37.550453, 55.784357], [37.548429, 55.782149], [37.552888, 55.782262], [37.556254, 55.779442], [37.540846, 55.7807], [37.537917, 55.782158], [37.546161, 55.786681], [37.542145, 55.789112], [37.543102, 55.790602], [37.533185, 55.791569], [37.529974, 55.79523], [37.52317, 55.797897], [37.525041, 55.799222], [37.532047, 55.796161], [37.540596, 55.797344], [37.536117, 55.805213], [37.53077, 55.804831], [37.529632, 55.802763], [37.525001, 55.80328], [37.523972, 55.800249], [37.518524, 55.807833], [37.509081, 55.807959], [37.505566, 55.810453], [37.503568, 55.80855], [37.500808, 55.809322], [37.50326, 55.812547], [37.509044, 55.814572], [37.526332, 55.813244], [37.52398, 55.809274], [37.537715, 55.813493], [37.533918, 55.81579], [37.534571, 55.819143], [37.529833, 55.819634], [37.532139, 55.825599], [37.529227, 55.826083], [37.521543, 55.817563], [37.517033, 55.816336], [37.510171, 55.817906], [37.50788, 55.817024], [37.503203, 55.818306], [37.504212, 55.821568], [37.510754, 55.825415], [37.503148, 55.826723], [37.509133, 55.829836], [37.508101, 55.831411], [37.500955, 55.827992], [37.500225, 55.830217], [37.490609, 55.835263], [37.485702, 55.832748], [37.483397, 55.828654], [37.483687, 55.827378], [37.489543, 55.826238], [37.490698, 55.824065], [37.482966, 55.823151], [37.479858, 55.824468], [37.475351, 55.822392], [37.464927, 55.826732], [37.459675, 55.826907], [37.457031, 55.822434], [37.460903, 55.819462], [37.456056, 55.817728], [37.458902, 55.814465], [37.462582, 55.814491], [37.458422, 55.812737], [37.456919, 55.814243], [37.451382, 55.812753], [37.452762, 55.8097], [37.456163, 55.808667], [37.449637, 55.806098], [37.450071, 55.800346], [37.451989, 55.800921], [37.451241, 55.803678], [37.459831, 55.803348], [37.463016, 55.804696], [37.462915, 55.806809], [37.47327, 55.809435], [37.476664, 55.806722], [37.46967, 55.805575], [37.466437, 55.800262], [37.472338, 55.797418], [37.478188, 55.797137], [37.479237, 55.794293], [37.470674, 55.792399], [37.467434, 55.793097], [37.466388, 55.79524], [37.460618, 55.792881], [37.453918, 55.793922], [37.446513, 55.791643], [37.445627, 55.78189], [37.443259, 55.781405], [37.441862, 55.784098], [37.438866, 55.783183], [37.436587, 55.784961], [37.432712, 55.783206], [37.434327, 55.779934], [37.439982, 55.780235], [37.445492, 55.777519], [37.454858, 55.776526], [37.461961, 55.772597], [37.460457, 55.770996], [37.467972, 55.766595], [37.468121, 55.764677], [37.463493, 55.76084], [37.462771, 55.755499], [37.467526, 55.755176], [37.470015, 55.752785], [37.475612, 55.753448], [37.476515, 55.75953], [37.47448, 55.760844], [37.47567, 55.7615], [37.478297, 55.759757], [37.487545, 55.762251], [37.497965, 55.761397], [37.49988, 55.755584], [37.481146, 55.753846], [37.480433, 55.748368], [37.474638, 55.746847], [37.472304, 55.742249], [37.464079, 55.741437], [37.454967, 55.738155], [37.446846, 55.740812], [37.44352, 55.740492], [37.436707, 55.743996], [37.428224, 55.743935], [37.426336, 55.747258], [37.419825, 55.748533], [37.418123, 55.750488], [37.413555, 55.750459], [37.419851, 55.758253], [37.410074, 55.763726], [37.403077, 55.763457], [37.399858, 55.759469], [37.395192, 55.758864], [37.391984, 55.761539], [37.38934, 55.760747], [37.383553, 55.765511], [37.380641, 55.765657], [37.378692, 55.764703], [37.381742, 55.763803], [37.378853, 55.763312], [37.389699, 55.759686], [37.394888, 55.755496], [37.400042, 55.755147], [37.401899, 55.750268], [37.412589, 55.74941], [37.404716, 55.74676], [37.405072, 55.743608], [37.402109, 55.746132], [37.394476, 55.745294], [37.393051, 55.741462], [37.390702, 55.740906], [37.39151, 55.737394], [37.398946, 55.736404], [37.4002, 55.734963], [37.397702, 55.734267], [37.3998, 55.732607], [37.404302, 55.732587], [37.405935, 55.730088], [37.408384, 55.731273], [37.406694, 55.734267], [37.415208, 55.732943], [37.407427, 55.728758], [37.407812, 55.726838], [37.396437, 55.727919], [37.391421, 55.726116], [37.389722, 55.723114], [37.385766, 55.723296], [37.389797, 55.7202], [37.402419, 55.718995], [37.399438, 55.716181], [37.401726, 55.714999], [37.4044, 55.716191], [37.40887, 55.714772], [37.411304, 55.716994], [37.415455, 55.715919], [37.418528, 55.717208], [37.431775, 55.717447], [37.438024, 55.715608], [37.443336, 55.716742], [37.446691, 55.712178], [37.450218, 55.711485], [37.444636, 55.711174], [37.444115, 55.709901], [37.448111, 55.707576], [37.451834, 55.707705], [37.448853, 55.703805], [37.455651, 55.699525], [37.45708, 55.692682], [37.465402, 55.688771], [37.471024, 55.688641], [37.473623, 55.685669], [37.471752, 55.682924], [37.490546, 55.68141], [37.491891, 55.678616], [37.496617, 55.678684], [37.498281, 55.676421], [37.502369, 55.675387], [37.508969, 55.676639], [37.510113, 55.678736], [37.503985, 55.681637], [37.498589, 55.681157], [37.493676, 55.68283], [37.497419, 55.687698], [37.513238, 55.689801], [37.518982, 55.686748], [37.519416, 55.683268], [37.521494, 55.685086], [37.524233, 55.684914], [37.525076, 55.687384], [37.538839, 55.68927], [37.539937, 55.695368], [37.546848, 55.697526], [37.549314, 55.69671], [37.548524, 55.691538], [37.541401, 55.689736], [37.541332, 55.685747], [37.538147, 55.683961], [37.540817, 55.683375], [37.543496, 55.685397], [37.548852, 55.685643], [37.550332, 55.690265], [37.556395, 55.690239], [37.552494, 55.689798], [37.552298, 55.685481], [37.549622, 55.685277], [37.556699, 55.680512], [37.554661, 55.678995], [37.555595, 55.674664], [37.548029, 55.670758], [37.549746, 55.66687], [37.570293, 55.664892]], [[37.548001, 55.707563], [37.548357, 55.710996], [37.557372, 55.710329], [37.549953, 55.71201], [37.543079, 55.716829], [37.541973, 55.721978], [37.545483, 55.721978], [37.547003, 55.725203], [37.544698, 55.727204], [37.536879, 55.71794], [37.528545, 55.718691], [37.525745, 55.717467], [37.528568, 55.714568], [37.53802, 55.716298], [37.539676, 55.7127], [37.548001, 55.707563]], [[37.467437, 55.709402], [37.468667, 55.712972], [37.472212, 55.713555], [37.474738, 55.720138], [37.461903, 55.718056], [37.459483, 55.721003], [37.455717, 55.721453], [37.452406, 55.7194], [37.459799, 55.716424], [37.456812, 55.712301], [37.461765, 55.712395], [37.467063, 55.710928], [37.467437, 55.709402]], [[37.584698, 55.717227], [37.593374, 55.71883], [37.59611, 55.723357], [37.607019, 55.723927], [37.601917, 55.726359], [37.600905, 55.730664], [37.596317, 55.731739], [37.592319, 55.724636], [37.582395, 55.717373], [37.584698, 55.717227]], [[37.552525, 55.698307], [37.555748, 55.699512], [37.553802, 55.704187], [37.549228, 55.706717], [37.538276, 55.707981], [37.539262, 55.712473], [37.536123, 55.71305], [37.534404, 55.707015], [37.530744, 55.706954], [37.530802, 55.704994], [37.534349, 55.705114], [37.53503, 55.706627], [37.541464, 55.706588], [37.544637, 55.70189], [37.546995, 55.702648], [37.550519, 55.701388], [37.549234, 55.69995], [37.552525, 55.698307]], [[37.607686, 55.696444], [37.60856, 55.699736], [37.60649, 55.700769], [37.612602, 55.701929], [37.606881, 55.703326], [37.607146, 55.707355], [37.600848, 55.704463], [37.606025, 55.702972], [37.604705, 55.700452], [37.598022, 55.699273], [37.598499, 55.69796], [37.607686, 55.696444]], [[37.607686, 55.732743], [37.61307, 55.736232], [37.611716, 55.738417], [37.607738, 55.739313], [37.607905, 55.742207], [37.601624, 55.740074], [37.604619, 55.737922], [37.599747, 55.734931], [37.603682, 55.735115], [37.607686, 55.732743]], [[37.52279, 55.687591], [37.52515, 55.688275], [37.525012, 55.691603], [37.528887, 55.692241], [37.528738, 55.694717], [37.525113, 55.693434], [37.519375, 55.696933], [37.515334, 55.694127], [37.52279, 55.687591]], [[37.583597, 55.689834], [37.584701, 55.692903], [37.591307, 55.693453], [37.592925, 55.696159], [37.596406, 55.695368], [37.593138, 55.6981], [37.584994, 55.697484], [37.584149, 55.694866], [37.579874, 55.693431], [37.583597, 55.689834]], [[37.5606, 55.772992], [37.564567, 55.77381], [37.560502, 55.774874], [37.5616, 55.775837], [37.566712, 55.775556], [37.567539, 55.77973], [37.560727, 55.77997], [37.558772, 55.77846], [37.559979, 55.776985], [37.556924, 55.77316], [37.5606, 55.772992]], [[37.558384, 55.681738], [37.565467, 55.682989], [37.563814, 55.688699], [37.560017, 55.688738], [37.558579, 55.685595], [37.553526, 55.684373], [37.558384, 55.681738]], [[37.493852, 55.710018], [37.496424, 55.712952], [37.492909, 55.717545], [37.487873, 55.714222], [37.493251, 55.713085], [37.493852, 55.710018]]], [[[37.441646, 55.664188], [37.446915, 55.667094], [37.451138, 55.666059], [37.458592, 55.66734], [37.459914, 55.672998], [37.45524, 55.676483], [37.460748, 55.678081], [37.461788, 55.675932], [37.466376, 55.675887], [37.467181, 55.677841], [37.471114, 55.678454], [37.471047, 55.681861], [37.467586, 55.682671], [37.463933, 55.681971], [37.46539, 55.680383], [37.462082, 55.679034], [37.462182, 55.68635], [37.459828, 55.68843], [37.457016, 55.688145], [37.457198, 55.689746], [37.450097, 55.689662], [37.449198, 55.68565], [37.438423, 55.685047], [37.440528, 55.683109], [37.438886, 55.681449], [37.444753, 55.682545], [37.44185, 55.677695], [37.446148, 55.675987], [37.441172, 55.674091], [37.438812, 55.669477], [37.439568, 55.66438], [37.441646, 55.664188]]], [[[37.650498, 55.767293], [37.651711, 55.769328], [37.65857, 55.770447], [37.663112, 55.775659], [37.668861, 55.777612], [37.670396, 55.781725], [37.661924, 55.780891], [37.660752, 55.778712], [37.650837, 55.78167], [37.645496, 55.780752], [37.644941, 55.784253], [37.640218, 55.786749], [37.63557, 55.78682], [37.640155, 55.785356], [37.640095, 55.780865], [37.634348, 55.783468], [37.628909, 55.78018], [37.632296, 55.776271], [37.636642, 55.779258], [37.641825, 55.777315], [37.643096, 55.770573], [37.648454, 55.770029], [37.64541, 55.767976], [37.650498, 55.767293]]], [[[37.64171, 55.692718], [37.648158, 55.695556], [37.655037, 55.693259], [37.656468, 55.693962], [37.655721, 55.696694], [37.659472, 55.698839], [37.658345, 55.702004], [37.665679, 55.702415], [37.669309, 55.705363], [37.665466, 55.709082], [37.657391, 55.709373], [37.654974, 55.70374], [37.647057, 55.705311], [37.642207, 55.703348], [37.636487, 55.694762], [37.637556, 55.692689], [37.64171, 55.692718]]], [[[37.419546, 55.656499], [37.429162, 55.661279], [37.439326, 55.661088], [37.440395, 55.663001], [37.437958, 55.664396], [37.434281, 55.663436], [37.430613, 55.664318], [37.434388, 55.669461], [37.432301, 55.672236], [37.426983, 55.670553], [37.420932, 55.672778], [37.413184, 55.664947], [37.41618, 55.662752], [37.412523, 55.660362], [37.407915, 55.659963], [37.412403, 55.656093], [37.41511, 55.657407], [37.419546, 55.656499]]], [[[37.521853, 55.833194], [37.533162, 55.83732], [37.53585, 55.835392], [37.545011, 55.834908], [37.534154, 55.83824], [37.533429, 55.843679], [37.526042, 55.842201], [37.523069, 55.84691], [37.518182, 55.846872], [37.514736, 55.844063], [37.510415, 55.844828], [37.508515, 55.840974], [37.511841, 55.839002], [37.511094, 55.837601], [37.51945, 55.832906], [37.521853, 55.833194]]], [[[37.454288, 55.741294], [37.458681, 55.741935], [37.460331, 55.746547], [37.463933, 55.747194], [37.46372, 55.750213], [37.459512, 55.750446], [37.459526, 55.754658], [37.448005, 55.749792], [37.449473, 55.747841], [37.447277, 55.74531], [37.454288, 55.741294]]], [[[37.577373, 55.814356], [37.577983, 55.817066], [37.581513, 55.816407], [37.585109, 55.820309], [37.57562, 55.824724], [37.576146, 55.826677], [37.573386, 55.827895], [37.570497, 55.825873], [37.572283, 55.823503], [37.568571, 55.820273], [37.568482, 55.817063], [37.577373, 55.814356]]], [[[37.664351, 55.752393], [37.669206, 55.759508], [37.664563, 55.762914], [37.661694, 55.762898], [37.660777, 55.761196], [37.658642, 55.762713], [37.653042, 55.758424], [37.656943, 55.753439], [37.664351, 55.752393]]], [[[37.387347, 55.653249], [37.391907, 55.657832], [37.383725, 55.660683], [37.37787, 55.658536], [37.376355, 55.655879], [37.380282, 55.653038], [37.387347, 55.653249]]], [[[37.556412, 55.843524], [37.558645, 55.845422], [37.554845, 55.848088], [37.558706, 55.850148], [37.552597, 55.852194], [37.547662, 55.85209], [37.545549, 55.845926], [37.556412, 55.843524]]], [[[37.559677, 55.802185], [37.560755, 55.807109], [37.556987, 55.80688], [37.553442, 55.809561], [37.547112, 55.808896], [37.547003, 55.805119], [37.553784, 55.804877], [37.554342, 55.802476], [37.559677, 55.802185]]], [[[37.376835, 55.712256], [37.379799, 55.717425], [37.375539, 55.716683], [37.368984, 55.71793], [37.368283, 55.713004], [37.376835, 55.712256]]], [[[37.575071, 55.845355], [37.579274, 55.847524], [37.573651, 55.851413], [37.570811, 55.851426], [37.566027, 55.84876], [37.568942, 55.846555], [37.575071, 55.845355]]], [[[37.642912, 55.762636], [37.641299, 55.767245], [37.632086, 55.766601], [37.635176, 55.762665], [37.642912, 55.762636]]], [[[37.684093, 55.745255], [37.686755, 55.747242], [37.68376, 55.749896], [37.676864, 55.749504], [37.673009, 55.74721], [37.677321, 55.745252], [37.684093, 55.745255]]], [[[37.680483, 55.709652], [37.681722, 55.711547], [37.678781, 55.714883], [37.675622, 55.71554], [37.671229, 55.712033], [37.674236, 55.71016], [37.680483, 55.709652]]], [[[37.654163, 55.738142], [37.65493, 55.740139], [37.658207, 55.74055], [37.654953, 55.744844], [37.65044, 55.744349], [37.649173, 55.742249], [37.654163, 55.738142]]], [[[37.392088, 55.646728], [37.395905, 55.649343], [37.393953, 55.652785], [37.38652, 55.649369], [37.388382, 55.646543], [37.392088, 55.646728]]], [[[37.644202, 55.789073], [37.644401, 55.791433], [37.639586, 55.794804], [37.631942, 55.79387], [37.644202, 55.789073]]], [[[37.434689, 55.746514], [37.436426, 55.748575], [37.437711, 55.747012], [37.439444, 55.748113], [37.437886, 55.75118], [37.428253, 55.750611], [37.427566, 55.748611], [37.434689, 55.746514]]], [[[37.539144, 55.654553], [37.542467, 55.655104], [37.54489, 55.659194], [37.535197, 55.659272], [37.53806, 55.658412], [37.538937, 55.657131], [37.536451, 55.656291], [37.539144, 55.654553]]], [[[37.579509, 55.833119], [37.579153, 55.839208], [37.573912, 55.837055], [37.572104, 55.83321], [37.579509, 55.833119]]], [[[37.408108, 55.801513], [37.406205, 55.804612], [37.39742, 55.804822], [37.400798, 55.802159], [37.408108, 55.801513]]], [[[37.355402, 55.654449], [37.359004, 55.656531], [37.352645, 55.658536], [37.350018, 55.655587], [37.355402, 55.654449]]], [[[37.696523, 55.715495], [37.701286, 55.719446], [37.692757, 55.719559], [37.692108, 55.717402], [37.696523, 55.715495]]], [[[37.626639, 55.739411], [37.630447, 55.740074], [37.630111, 55.743087], [37.622582, 55.740919], [37.626639, 55.739411]]], [[[37.622002, 55.767863], [37.621973, 55.767934], [37.621858, 55.768053], [37.621651, 55.768192], [37.621421, 55.768383], [37.621208, 55.768613], [37.620958, 55.768855], [37.620702, 55.769043], [37.62051, 55.769159], [37.620444, 55.769253], [37.620495, 55.769366], [37.620679, 55.769476], [37.620953, 55.769544], [37.621283, 55.769583], [37.621576, 55.769645], [37.621838, 55.769764], [37.622048, 55.769932], [37.622232, 55.770117], [37.622419, 55.770314], [37.622496, 55.770508], [37.622166, 55.770689], [37.621795, 55.770854], [37.621562, 55.771009], [37.621456, 55.771174], [37.621407, 55.771368], [37.621369, 55.771585], [37.621335, 55.771808], [37.621292, 55.772028], [37.62126, 55.772245], [37.621266, 55.772484], [37.621352, 55.77273], [37.621467, 55.772946], [37.621553, 55.773108], [37.621594, 55.773302], [37.621625, 55.773632], [37.621427, 55.773768], [37.620955, 55.773839], [37.620559, 55.773871], [37.620277, 55.773829], [37.620004, 55.773726], [37.619716, 55.773577], [37.619458, 55.773409], [37.619242, 55.773237], [37.619073, 55.773056], [37.618914, 55.772882], [37.618707, 55.772701], [37.6185, 55.772549], [37.618296, 55.772426], [37.618072, 55.772296], [37.617744, 55.772106], [37.61742, 55.771899], [37.617227, 55.771663], [37.617204, 55.771371], [37.617184, 55.771207], [37.617115, 55.771132], [37.616965, 55.771074], [37.61675, 55.770993], [37.616534, 55.770886], [37.616414, 55.770721], [37.616462, 55.770518], [37.616684, 55.770311], [37.617003, 55.770139], [37.617296, 55.769991], [37.61748, 55.769832], [37.617569, 55.769645], [37.617627, 55.769447], [37.61773, 55.76924], [37.617934, 55.769049], [37.618233, 55.768885], [37.618549, 55.768739], [37.618848, 55.768584], [37.619136, 55.768432], [37.619458, 55.768283], [37.619797, 55.768131], [37.620102, 55.767976], [37.620369, 55.76784], [37.620639, 55.767746], [37.620964, 55.767707], [37.621306, 55.767701], [37.62166, 55.767746], [37.622002, 55.767863]]], [[[37.525504, 55.66747], [37.525593, 55.66759], [37.525699, 55.667775], [37.525777, 55.667972], [37.525814, 55.668183], [37.52582, 55.668394], [37.525794, 55.668624], [37.525745, 55.668851], [37.525685, 55.669062], [37.525605, 55.669256], [37.52549, 55.669425], [37.525291, 55.669571], [37.524978, 55.66971], [37.524584, 55.669879], [37.524239, 55.670054], [37.524024, 55.670177], [37.523822, 55.670242], [37.523506, 55.670271], [37.523147, 55.67033], [37.522894, 55.670476], [37.522779, 55.670644], [37.522753, 55.670774], [37.522793, 55.670878], [37.522917, 55.671014], [37.523092, 55.671215], [37.52323, 55.671435], [37.523268, 55.671656], [37.523242, 55.67186], [37.523167, 55.672077], [37.52302, 55.672301], [37.522779, 55.672463], [37.522431, 55.672418], [37.522075, 55.672346], [37.521733, 55.672285], [37.521425, 55.672191], [37.521132, 55.672058], [37.520824, 55.671912], [37.520448, 55.671772], [37.520031, 55.67163], [37.51968, 55.67149], [37.519436, 55.671348], [37.519249, 55.671192], [37.519056, 55.670994], [37.518904, 55.670774], [37.518829, 55.67056], [37.518809, 55.670349], [37.518798, 55.670132], [37.518763, 55.669915], [37.518734, 55.669707], [37.518798, 55.669526], [37.519019, 55.66938], [37.51937, 55.669305], [37.519749, 55.669295], [37.520134, 55.669292], [37.520537, 55.669227], [37.520994, 55.669081], [37.521399, 55.668932], [37.5216, 55.668864], [37.521684, 55.668835], [37.521776, 55.668777], [37.521931, 55.668676], [37.522152, 55.668556], [37.52242, 55.668449], [37.52271, 55.668362], [37.522969, 55.668261], [37.52317, 55.668115], [37.523316, 55.667963], [37.523475, 55.66782], [37.523661, 55.667707], [37.52384, 55.667619], [37.524003, 55.667557], [37.524245, 55.667493], [37.524636, 55.667415], [37.525079, 55.667386], [37.525504, 55.66747]]], [[[37.680391, 55.770524], [37.682354, 55.773127], [37.678016, 55.774117], [37.677358, 55.770945], [37.680391, 55.770524]]], [[[37.520867, 55.828638], [37.523, 55.830242], [37.519746, 55.832315], [37.516929, 55.830665], [37.520867, 55.828638]]], [[[37.617716, 55.787166], [37.619593, 55.788452], [37.616017, 55.790049], [37.612935, 55.787971], [37.617716, 55.787166]]], [[[37.444, 55.825337], [37.445024, 55.826332], [37.439154, 55.828812], [37.436299, 55.827591], [37.444, 55.825337]]], [[[37.46934, 55.663507], [37.471338, 55.664688], [37.469041, 55.666358], [37.465295, 55.665622], [37.46934, 55.663507]]], [[[37.730337, 55.731558], [37.73322, 55.73304], [37.727166, 55.734429], [37.727365, 55.73226], [37.730337, 55.731558]]], [[[37.344861, 55.698647], [37.344654, 55.701375], [37.340868, 55.701333], [37.340359, 55.699114], [37.344861, 55.698647]]]]}}, {"type": "Feature", "properties": {"address_id": "kurchatnik", "label": "Курчатник", "name": "Национальный исследовательский центр Курчатовский институт", "min": 20, "mode": "public_transport", "method": "isochrone pt reverse:false", "status": "approx: зона «от адреса» (для ОТ reverse игнорируется)", "start_time": "2026-10-14T05:30:00Z", "request_hash": "d35e399af1f35585ff49b3fda2188780d14d753b", "was_invalid": false}, "geometry": {"type": "MultiPolygon", "coordinates": [[[[37.478398, 55.78725], [37.483201, 55.788013], [37.484915, 55.790793], [37.493688, 55.790056], [37.497413, 55.79183], [37.498486, 55.796559], [37.493323, 55.800417], [37.481566, 55.799842], [37.479082, 55.796901], [37.477507, 55.803267], [37.481137, 55.80403], [37.482554, 55.802889], [37.488511, 55.804647], [37.487694, 55.80928], [37.483658, 55.810954], [37.48033, 55.809807], [37.475747, 55.811435], [37.472367, 55.810356], [37.468262, 55.812934], [37.462504, 55.813839], [37.459529, 55.813196], [37.459604, 55.811742], [37.456134, 55.813231], [37.449315, 55.812769], [37.447933, 55.808059], [37.451552, 55.80602], [37.45754, 55.808133], [37.458238, 55.805313], [37.457301, 55.804127], [37.452702, 55.804114], [37.446745, 55.795954], [37.45171, 55.791378], [37.452592, 55.787525], [37.455341, 55.787163], [37.459578, 55.789244], [37.458471, 55.792606], [37.468199, 55.788656], [37.478398, 55.78725]], [[37.480117, 55.792383], [37.48035, 55.79493], [37.475632, 55.793815], [37.476831, 55.792115], [37.480117, 55.792383]]], [[[37.429874, 55.803477], [37.43005, 55.803565], [37.430369, 55.803697], [37.430748, 55.803846], [37.431082, 55.804001], [37.431366, 55.804159], [37.431662, 55.804308], [37.432004, 55.804408], [37.432361, 55.804463], [37.43272, 55.804489], [37.433088, 55.804515], [37.433485, 55.804537], [37.433861, 55.804563], [37.434189, 55.804612], [37.434422, 55.804683], [37.434514, 55.804789], [37.434425, 55.804893], [37.434192, 55.804967], [37.433861, 55.805012], [37.433485, 55.805035], [37.433088, 55.805058], [37.43272, 55.80508], [37.432352, 55.8051], [37.431938, 55.805083], [37.431481, 55.805009], [37.431096, 55.804909], [37.430869, 55.804835], [37.430708, 55.804796], [37.430429, 55.804767], [37.430015, 55.804725], [37.42963, 55.804673], [37.429311, 55.804602], [37.428957, 55.804511], [37.428561, 55.804398], [37.428199, 55.804272], [37.427983, 55.804104], [37.428095, 55.803872], [37.428291, 55.803665], [37.428428, 55.803542], [37.428489, 55.803497], [37.428541, 55.803484], [37.42871, 55.803474], [37.429377, 55.803445], [37.429662, 55.803442], [37.429874, 55.803477]]], [[[37.518444, 55.776959], [37.518611, 55.77705], [37.518944, 55.777169], [37.519404, 55.777266], [37.519939, 55.777315], [37.52045, 55.777338], [37.520902, 55.777344], [37.521273, 55.777341], [37.521557, 55.777383], [37.521727, 55.77749], [37.521779, 55.777632], [37.521712, 55.777761], [37.521531, 55.777881], [37.52125, 55.777962], [37.520908, 55.778007], [37.520534, 55.778017], [37.520157, 55.778013], [37.519766, 55.777994], [37.519361, 55.777962], [37.518956, 55.777916], [37.51857, 55.777878], [37.518194, 55.777842], [37.517814, 55.777842], [37.517435, 55.777848], [37.517104, 55.777829], [37.516857, 55.777751], [37.516731, 55.777599], [37.516728, 55.777402], [37.516797, 55.777202], [37.516886, 55.777037], [37.517004, 55.776914], [37.517188, 55.77682], [37.517461, 55.776749], [37.517789, 55.776707], [37.518116, 55.776756], [37.518444, 55.776959]]], [[[37.464531, 55.788569], [37.464861, 55.788624], [37.465166, 55.78873], [37.465324, 55.788902], [37.465402, 55.789093], [37.465428, 55.789232], [37.465384, 55.789296], [37.465264, 55.789335], [37.465019, 55.789396], [37.464626, 55.789474], [37.464183, 55.789545], [37.463772, 55.789564], [37.463404, 55.789555], [37.462996, 55.789516], [37.46253, 55.789445], [37.462125, 55.789364], [37.461903, 55.789312], [37.461823, 55.789286], [37.4618, 55.789254], [37.461829, 55.78918], [37.461935, 55.789028], [37.462148, 55.788834], [37.462429, 55.788656], [37.462737, 55.788549], [37.463056, 55.788504], [37.463418, 55.788488], [37.463783, 55.788501], [37.464125, 55.788524], [37.464531, 55.788569]]]]}}, {"type": "Feature", "properties": {"address_id": "kurchatnik", "label": "Курчатник", "name": "Национальный исследовательский центр Курчатовский институт", "min": 40, "mode": "public_transport", "method": "isochrone pt reverse:false", "status": "approx: зона «от адреса» (для ОТ reverse игнорируется)", "start_time": "2026-10-14T05:30:00Z", "request_hash": "d35e399af1f35585ff49b3fda2188780d14d753b", "was_invalid": true}, "geometry": {"type": "MultiPolygon", "coordinates": [[[[37.667938, 55.731024], [37.66233, 55.731234], [37.666929, 55.733312], [37.669171, 55.732312], [37.667938, 55.731024]]], [[[37.655359, 55.737469], [37.650455, 55.738498], [37.649759, 55.74143], [37.652803, 55.743016], [37.657155, 55.740971], [37.654959, 55.74011], [37.655359, 55.737469]]], [[[37.643995, 55.789817], [37.64098, 55.790392], [37.638654, 55.794584], [37.642779, 55.792722], [37.643995, 55.789817]]], [[[37.634805, 55.750358], [37.629441, 55.751591], [37.62976, 55.753762], [37.625175, 55.756295], [37.619346, 55.75483], [37.611366, 55.757227], [37.6114, 55.758935], [37.615037, 55.758097], [37.615821, 55.762189], [37.622907, 55.766676], [37.634535, 55.762286], [37.635814, 55.756082], [37.639264, 55.755176], [37.639669, 55.753244], [37.634805, 55.750358]]], [[[37.639609, 55.764502], [37.635469, 55.765304], [37.636314, 55.766792], [37.639045, 55.766698], [37.639609, 55.764502]]], [[[37.633595, 55.778178], [37.633196, 55.777742], [37.633035, 55.778036], [37.632925, 55.778285], [37.632842, 55.778489], [37.632724, 55.778692], [37.632543, 55.778873], [37.632299, 55.779006], [37.632003, 55.779084], [37.631663, 55.779122], [37.631287, 55.779164], [37.630904, 55.779242], [37.630568, 55.779384], [37.630335, 55.779578], [37.630203, 55.779798], [37.63016, 55.780024], [37.630186, 55.780248], [37.630249, 55.780429], [37.630335, 55.780539], [37.630505, 55.780626], [37.630732, 55.780723], [37.630936, 55.780823], [37.631065, 55.780927], [37.631221, 55.781075], [37.631453, 55.781266], [37.631712, 55.781431], [37.631919, 55.781538], [37.632112, 55.781576], [37.632391, 55.781567], [37.632733, 55.781531], [37.633029, 55.781496], [37.633201, 55.781479], [37.633362, 55.781496], [37.633612, 55.781557], [37.633949, 55.781628], [37.634273, 55.781664], [37.634524, 55.781599], [37.634693, 55.781457], [37.634823, 55.781282], [37.634929, 55.781101], [37.635044, 55.780881], [37.635185, 55.780626], [37.635317, 55.780396], [37.635377, 55.780235], [37.635343, 55.780073], [37.635222, 55.77983], [37.635075, 55.779565], [37.634938, 55.779342], [37.634788, 55.779151], [37.634633, 55.778983], [37.634455, 55.778825], [37.634222, 55.77867], [37.633952, 55.778495], [37.633722, 55.778311], [37.633595, 55.778178]]], [[[37.62987, 55.740093], [37.629677, 55.740042], [37.629372, 55.740016], [37.62899, 55.740003], [37.628662, 55.740016], [37.628444, 55.740068], [37.628202, 55.740168], [37.62786, 55.740294], [37.627429, 55.740427], [37.627001, 55.740559], [37.626659, 55.740692], [37.626423, 55.740802], [37.626199, 55.740857], [37.625831, 55.740851], [37.625379, 55.740818], [37.625063, 55.740893], [37.624871, 55.74111], [37.624796, 55.741349], [37.624928, 55.741517], [37.62519, 55.741611], [37.625529, 55.741653], [37.625903, 55.741679], [37.626308, 55.741705], [37.62671, 55.74176], [37.627067, 55.741828], [37.627372, 55.741906], [37.627607, 55.741993], [37.62778, 55.74211], [37.627875, 55.742278], [37.627935, 55.742475], [37.628033, 55.742715], [37.628225, 55.742961], [37.628504, 55.743152], [37.628878, 55.743223], [37.629312, 55.743197], [37.62976, 55.743139], [37.630102, 55.743081], [37.630327, 55.743006], [37.63049, 55.742893], [37.630623, 55.742738], [37.630732, 55.742492], [37.630787, 55.742223], [37.630784, 55.742042], [37.630723, 55.741877], [37.630626, 55.74165], [37.630528, 55.741404], [37.63045, 55.741184], [37.630376, 55.74098], [37.630275, 55.74075], [37.630151, 55.740517], [37.630022, 55.740307], [37.629921, 55.740165], [37.62987, 55.740093]]], [[[37.616336, 55.794316], [37.614028, 55.795925], [37.616698, 55.798743], [37.613157, 55.801135], [37.615965, 55.803171], [37.620487, 55.80308], [37.623568, 55.800711], [37.616336, 55.794316]]], [[[37.620846, 55.768483], [37.620513, 55.76817], [37.620148, 55.768215], [37.619791, 55.768293], [37.619463, 55.768367], [37.619136, 55.768454], [37.618831, 55.768574], [37.618515, 55.7687], [37.618176, 55.768833], [37.617848, 55.768998], [37.617638, 55.769201], [37.617549, 55.769428], [37.61752, 55.769638], [37.617454, 55.769829], [37.617282, 55.769984], [37.617011, 55.770133], [37.616738, 55.770301], [37.616618, 55.770518], [37.616741, 55.770734], [37.616997, 55.770915], [37.617244, 55.771067], [37.617428, 55.771223], [37.617563, 55.771378], [37.61771, 55.771514], [37.617911, 55.771617], [37.618121, 55.771701], [37.618311, 55.771785], [37.61846, 55.771886], [37.618621, 55.772012], [37.61882, 55.772141], [37.619052, 55.772251], [37.619305, 55.772338], [37.619555, 55.772422], [37.619831, 55.772545], [37.620153, 55.772717], [37.620507, 55.772869], [37.620688, 55.772678], [37.6208, 55.772458], [37.620875, 55.772258], [37.620944, 55.772041], [37.620999, 55.771815], [37.621016, 55.771588], [37.621007, 55.771375], [37.620955, 55.771148], [37.620823, 55.770909], [37.620599, 55.770718], [37.620243, 55.770637], [37.619849, 55.770634], [37.619504, 55.770628], [37.61932, 55.770582], [37.619257, 55.770485], [37.6193, 55.770343], [37.619438, 55.770178], [37.619622, 55.769997], [37.619788, 55.769793], [37.619921, 55.769541], [37.620056, 55.769266], [37.620237, 55.769027], [37.620467, 55.768839], [37.620671, 55.76869], [37.620797, 55.768568], [37.620846, 55.768483]]], [[[37.52889, 55.751714], [37.51916, 55.754221], [37.518913, 55.756858], [37.522785, 55.75965], [37.533058, 55.756696], [37.534136, 55.758288], [37.540113, 55.75953], [37.53652, 55.76368], [37.532262, 55.761403], [37.52582, 55.760598], [37.528867, 55.764447], [37.526243, 55.765375], [37.523995, 55.763949], [37.515167, 55.767005], [37.514167, 55.764683], [37.516627, 55.763389], [37.51283, 55.762577], [37.50767, 55.763933], [37.506322, 55.766216], [37.501015, 55.76446], [37.48559, 55.76946], [37.47763, 55.76858], [37.484869, 55.765686], [37.502409, 55.763554], [37.505824, 55.761232], [37.501363, 55.75987], [37.497482, 55.761672], [37.488321, 55.762241], [37.485906, 55.760549], [37.477961, 55.759954], [37.475681, 55.761526], [37.475926, 55.754904], [37.471637, 55.7534], [37.470314, 55.755192], [37.462685, 55.755486], [37.46575, 55.758265], [37.464879, 55.762733], [37.467814, 55.766426], [37.463783, 55.768577], [37.469803, 55.771177], [37.468719, 55.772532], [37.465338, 55.770696], [37.462987, 55.772109], [37.460457, 55.771013], [37.44914, 55.777703], [37.443399, 55.775718], [37.445903, 55.778288], [37.441407, 55.778925], [37.44097, 55.780474], [37.445837, 55.781971], [37.445823, 55.79768], [37.443535, 55.8016], [37.439634, 55.801742], [37.437777, 55.803507], [37.434227, 55.803503], [37.431752, 55.801671], [37.420405, 55.801568], [37.415694, 55.796423], [37.419718, 55.796607], [37.424183, 55.79396], [37.42305, 55.792364], [37.420081, 55.79334], [37.417813, 55.792047], [37.411184, 55.792525], [37.406659, 55.787253], [37.398527, 55.788727], [37.395537, 55.787783], [37.388457, 55.791323], [37.379689, 55.793159], [37.382061, 55.798928], [37.386376, 55.799186], [37.384651, 55.801571], [37.388494, 55.803532], [37.387569, 55.805533], [37.385916, 55.803258], [37.381837, 55.805617], [37.377778, 55.804867], [37.380604, 55.802834], [37.37835, 55.795114], [37.375487, 55.79515], [37.373325, 55.792936], [37.371221, 55.79461], [37.369465, 55.800227], [37.371198, 55.801516], [37.367311, 55.802893], [37.367104, 55.806017], [37.373434, 55.809158], [37.373937, 55.812527], [37.379117, 55.815506], [37.382599, 55.815309], [37.38374, 55.81662], [37.387948, 55.815105], [37.38706, 55.8138], [37.391093, 55.813222], [37.38969, 55.817663], [37.386761, 55.819026], [37.396006, 55.823018], [37.410295, 55.821652], [37.413182, 55.81944], [37.413506, 55.815089], [37.422429, 55.811448], [37.417698, 55.818409], [37.418945, 55.820984], [37.41549, 55.821581], [37.424048, 55.824113], [37.423898, 55.825473], [37.410068, 55.828805], [37.406653, 55.827184], [37.39508, 55.830775], [37.390676, 55.830359], [37.385956, 55.832654], [37.377873, 55.831592], [37.375383, 55.833865], [37.378169, 55.837769], [37.389771, 55.837814], [37.391947, 55.835751], [37.39625, 55.835725], [37.396322, 55.839877], [37.400996, 55.837649], [37.407726, 55.838508], [37.410117, 55.836409], [37.420431, 55.840322], [37.421874, 55.839509], [37.418203, 55.838327], [37.411494, 55.831247], [37.421642, 55.829354], [37.421581, 55.827798], [37.425103, 55.829345], [37.42493, 55.831999], [37.433094, 55.835354], [37.437892, 55.834569], [37.442566, 55.829232], [37.448028, 55.837142], [37.453073, 55.839234], [37.454202, 55.842253], [37.450304, 55.84509], [37.438513, 55.841178], [37.426689, 55.846978], [37.422806, 55.846097], [37.41484, 55.849063], [37.413374, 55.851374], [37.418155, 55.850748], [37.421345, 55.852571], [37.418511, 55.855288], [37.412512, 55.85474], [37.408131, 55.851148], [37.406337, 55.851964], [37.406544, 55.855317], [37.412308, 55.859735], [37.416278, 55.859467], [37.421167, 55.861703], [37.424266, 55.860793], [37.43172, 55.868149], [37.438053, 55.868855], [37.446513, 55.864013], [37.448079, 55.865033], [37.45179, 55.863113], [37.44676, 55.861077], [37.446648, 55.858396], [37.453662, 55.853714], [37.453731, 55.84986], [37.458776, 55.847446], [37.456022, 55.8461], [37.455395, 55.83987], [37.459566, 55.837091], [37.459509, 55.833136], [37.463047, 55.83146], [37.467701, 55.834511], [37.466503, 55.835996], [37.472769, 55.834814], [37.475431, 55.832131], [37.47331, 55.829238], [37.483204, 55.826755], [37.482609, 55.823251], [37.485159, 55.823361], [37.485257, 55.82504], [37.490764, 55.824026], [37.489385, 55.829309], [37.493306, 55.832189], [37.496289, 55.828024], [37.502225, 55.827259], [37.500926, 55.823716], [37.505594, 55.821953], [37.513629, 55.822214], [37.515791, 55.82555], [37.521112, 55.827394], [37.520083, 55.832777], [37.524751, 55.836642], [37.527579, 55.836374], [37.535111, 55.840093], [37.541107, 55.840187], [37.543568, 55.842466], [37.550407, 55.841478], [37.552336, 55.843421], [37.559988, 55.844176], [37.559861, 55.842081], [37.549059, 55.837859], [37.547233, 55.833068], [37.545874, 55.833981], [37.542366, 55.832887], [37.541294, 55.835173], [37.539912, 55.835131], [37.537635, 55.828692], [37.540432, 55.827394], [37.540544, 55.823748], [37.538345, 55.820318], [37.53401, 55.818768], [37.540323, 55.815922], [37.537471, 55.815118], [37.539607, 55.812747], [37.528962, 55.806528], [37.530851, 55.805303], [37.536692, 55.805894], [37.545695, 55.795615], [37.548377, 55.79587], [37.549162, 55.794419], [37.551223, 55.796478], [37.55918, 55.797881], [37.564303, 55.797098], [37.564199, 55.794991], [37.567637, 55.793825], [37.568939, 55.791252], [37.562635, 55.786639], [37.568896, 55.785369], [37.569086, 55.779617], [37.563121, 55.778573], [37.563524, 55.774434], [37.557427, 55.772901], [37.564196, 55.771679], [37.566459, 55.773312], [37.575919, 55.774305], [37.577776, 55.78091], [37.58485, 55.779937], [37.586135, 55.781715], [37.591795, 55.780231], [37.592198, 55.775915], [37.590315815082555, 55.773523325076894], [37.599971, 55.771184], [37.600773, 55.769816], [37.60518, 55.771459], [37.609986, 55.768535], [37.612076, 55.77013], [37.617308, 55.768095], [37.614367, 55.762047], [37.600255, 55.7601], [37.59511, 55.762788], [37.595584, 55.766921], [37.592896, 55.767251], [37.592962, 55.771297], [37.590145542230054, 55.77330696094198], [37.588984, 55.771831], [37.578687, 55.771439], [37.574965, 55.76838], [37.582965, 55.766562], [37.584163, 55.764761], [37.582459, 55.763561], [37.5826, 55.762031], [37.589122, 55.764767], [37.59045, 55.760659], [37.594167, 55.758899], [37.583672, 55.752992], [37.57842, 55.754613], [37.575611, 55.753248], [37.568827, 55.756696], [37.560203, 55.754658], [37.552692, 55.757602], [37.551447, 55.754726], [37.547423, 55.754513], [37.545759, 55.756357], [37.53892, 55.753303], [37.533168, 55.755153], [37.533248, 55.752332], [37.52889, 55.751714]], [[37.547986, 55.782734], [37.549665, 55.785032], [37.562115, 55.786174], [37.553402, 55.788375], [37.551462, 55.790767], [37.545753, 55.790967], [37.547334, 55.788669], [37.543102, 55.783468], [37.547986, 55.782734]], [[37.545667, 55.76589], [37.547751, 55.771145], [37.541602, 55.76968], [37.541918, 55.767342], [37.545667, 55.76589]], [[37.526093, 55.789144], [37.526142, 55.792331], [37.536715, 55.793159], [37.527436, 55.79684], [37.521592, 55.793795], [37.522948, 55.792422], [37.515966, 55.792021], [37.515153, 55.790764], [37.519372, 55.789846], [37.522704, 55.790828], [37.526093, 55.789144]], [[37.531906, 55.768458], [37.534395, 55.769243], [37.53426, 55.771572], [37.529853, 55.771992], [37.531046, 55.770527], [37.528534, 55.769231], [37.531906, 55.768458]], [[37.512367, 55.811739], [37.521132, 55.812527], [37.512088, 55.814346], [37.50995, 55.81276], [37.512367, 55.811739]], [[37.508834, 55.77067], [37.511462, 55.771947], [37.505928, 55.773933], [37.499791, 55.772461], [37.501044, 55.771029], [37.508834, 55.77067]], [[37.44684, 55.806033], [37.446906, 55.814908], [37.4445, 55.814578], [37.441106, 55.809691], [37.422668, 55.810818], [37.433111, 55.807342], [37.439277, 55.809203], [37.44684, 55.806033]], [[37.424962, 55.850503], [37.429803, 55.855179], [37.426273, 55.857354], [37.42194, 55.852565], [37.424962, 55.850503]]], [[[37.611515, 55.728456], [37.611331, 55.728414], [37.611139, 55.728424], [37.610843, 55.728463], [37.610503, 55.728508], [37.610153, 55.728547], [37.609782, 55.728589], [37.609399, 55.728696], [37.609129, 55.728887], [37.608994, 55.729046], [37.608876, 55.729159], [37.608718, 55.729298], [37.608569, 55.729496], [37.608534, 55.729748], [37.608684, 55.729991], [37.608928, 55.730188], [37.60919, 55.730324], [37.609457, 55.730451], [37.60979, 55.73059], [37.610181, 55.730732], [37.610558, 55.730872], [37.610874, 55.731014], [37.611136, 55.731131], [37.611409, 55.731189], [37.611705, 55.731147], [37.611941, 55.73102], [37.612027, 55.730836], [37.611995, 55.730625], [37.611938, 55.730396], [37.611895, 55.730182], [37.61188, 55.729965], [37.611883, 55.729745], [37.611915, 55.729531], [37.611946, 55.729314], [37.611964, 55.729104], [37.611935, 55.728887], [37.611814, 55.728693], [37.611647, 55.728547], [37.611515, 55.728456]]], [[[37.609399, 55.749763], [37.609032, 55.749426], [37.608753, 55.749585], [37.608477, 55.749766], [37.608189, 55.749892], [37.607873, 55.749957], [37.607522, 55.749993], [37.607134, 55.750031], [37.606755, 55.750116], [37.606419, 55.750261], [37.606148, 55.750452], [37.605887, 55.750646], [37.605579, 55.750815], [37.605251, 55.750963], [37.604944, 55.751135], [37.604691, 55.751326], [37.604412, 55.7515], [37.604018, 55.75161], [37.603627, 55.751672], [37.603374, 55.751704], [37.603285, 55.751733], [37.603268, 55.751753], [37.603279, 55.751775], [37.603337, 55.751785], [37.603555, 55.751801], [37.604084, 55.751821], [37.604441, 55.75183], [37.604763, 55.751853], [37.605165, 55.751898], [37.605591, 55.751947], [37.605979, 55.751986], [37.606361, 55.752018], [37.606772, 55.752051], [37.60714, 55.752076], [37.607499, 55.752096], [37.607887, 55.752138], [37.608313, 55.752228], [37.608664, 55.752351], [37.608888, 55.752452], [37.609072, 55.752491], [37.609293, 55.752452], [37.609537, 55.752342], [37.609721, 55.752173], [37.609836, 55.751986], [37.609934, 55.751821], [37.610058, 55.751691], [37.610202, 55.751526], [37.610316, 55.751326], [37.61038, 55.751115], [37.610394, 55.750902], [37.610397, 55.750688], [37.610371, 55.750484], [37.610285, 55.750319], [37.61011, 55.750154], [37.609851, 55.749993], [37.609583, 55.74985], [37.609399, 55.749763]]], [[[37.603481, 55.776322], [37.596332, 55.778207], [37.59766, 55.78307], [37.606036, 55.780639], [37.603481, 55.776322]]], [[[37.595305, 55.733639], [37.591683, 55.733578], [37.58949, 55.736873], [37.595397, 55.736986], [37.596975, 55.734319], [37.595305, 55.733639]]], [[[37.588498, 55.791837], [37.581415, 55.792415], [37.582545, 55.795825], [37.585601, 55.797231], [37.592054, 55.795699], [37.592983, 55.793101], [37.588498, 55.791837]]], [[[37.585008, 55.79831], [37.579774, 55.799658], [37.581257, 55.802217], [37.579509, 55.803691], [37.56873, 55.804747], [37.567358, 55.811736], [37.570196, 55.810033], [37.572205, 55.812547], [37.57679, 55.813603], [37.587334, 55.812666], [37.580208, 55.809316], [37.587435, 55.806066], [37.583399, 55.802188], [37.585008, 55.79831]]], [[[37.583174, 55.747087], [37.582625, 55.746987], [37.58224, 55.747055], [37.58197, 55.747236], [37.581795, 55.747466], [37.58168, 55.747682], [37.581602, 55.747838], [37.581496, 55.747954], [37.581297, 55.748087], [37.58101, 55.748268], [37.580734, 55.748495], [37.580533, 55.74877], [37.580418, 55.749015], [37.580398, 55.749177], [37.580475, 55.749326], [37.580645, 55.749543], [37.580872, 55.749773], [37.581159, 55.749944], [37.581496, 55.750038], [37.581875, 55.750064], [37.582214, 55.750041], [37.582493, 55.749989], [37.582691, 55.749892], [37.58285, 55.749769], [37.582985, 55.749601], [37.58312, 55.74941], [37.583275, 55.749174], [37.583462, 55.748925], [37.583652, 55.748708], [37.583824, 55.748566], [37.584017, 55.74844], [37.584255, 55.748274], [37.584465, 55.748067], [37.58448, 55.747847], [37.584232, 55.747627], [37.583896, 55.747449], [37.583594, 55.747313], [37.583344, 55.747187], [37.583174, 55.747087]]], [[[37.576419, 55.779999], [37.573398, 55.779821], [37.57155, 55.782162], [37.575238, 55.782456], [37.576419, 55.779999]]], [[[37.562121, 55.735552], [37.567358, 55.741398], [37.560928, 55.741424], [37.559373, 55.742634], [37.56087, 55.744776], [37.568753, 55.746831], [37.572323, 55.743365], [37.562121, 55.735552]]], [[[37.570357, 55.838304], [37.569951, 55.838175], [37.569647, 55.838227], [37.569391, 55.838382], [37.56912, 55.838553], [37.568816, 55.838705], [37.568505, 55.838853], [37.568218, 55.839015], [37.567936, 55.839183], [37.567643, 55.839338], [37.567384, 55.839486], [37.567292, 55.839647], [37.567387, 55.839883], [37.567516, 55.840128], [37.567557, 55.840303], [37.567574, 55.840471], [37.56762, 55.840852], [37.567623, 55.840945], [37.567631, 55.840965], [37.56768, 55.840971], [37.567876, 55.840984], [37.568474, 55.841016], [37.568839, 55.841039], [37.569204, 55.841036], [37.569675, 55.841003], [37.569894, 55.840981], [37.569951, 55.840965], [37.56996, 55.840936], [37.56996, 55.840819], [37.569951, 55.84059], [37.56994, 55.840403], [37.569937, 55.840325], [37.569957, 55.840287], [37.570046, 55.840183], [37.570213, 55.839941], [37.570339, 55.83967], [37.57038, 55.839431], [37.570377, 55.839212], [37.5704, 55.839002], [37.570443, 55.838805], [37.570463, 55.838611], [37.57042, 55.83843], [37.570357, 55.838304]]], [[[37.5634, 55.798902], [37.549248, 55.799968], [37.540817, 55.803946], [37.538457, 55.806059], [37.540006, 55.808104], [37.544888, 55.809313], [37.542283, 55.811907], [37.546612, 55.813277], [37.55356, 55.813038], [37.556941, 55.810263], [37.557228, 55.81286], [37.559295, 55.810476], [37.565602, 55.809484], [37.566829, 55.807419], [37.563532, 55.804999], [37.565291, 55.802072], [37.5634, 55.798902]]], [[[37.533633, 55.745174], [37.528186, 55.745281], [37.530563, 55.746566], [37.528192, 55.749155], [37.530086, 55.751345], [37.537324, 55.748986], [37.541237, 55.749643], [37.533633, 55.745174]]], [[[37.535516, 55.739446], [37.535358, 55.739375], [37.535117, 55.739294], [37.534749, 55.739213], [37.534318, 55.739152], [37.533907, 55.739119], [37.533527, 55.739116], [37.533133, 55.739158], [37.532725, 55.739278], [37.532446, 55.739469], [37.532509, 55.739676], [37.53261, 55.73989], [37.532564, 55.740103], [37.532377, 55.740323], [37.532121, 55.740508], [37.531914, 55.740644], [37.531814, 55.74078], [37.531794, 55.740974], [37.531799, 55.741187], [37.531825, 55.741391], [37.531912, 55.74154], [37.532116, 55.741628], [37.532438, 55.741644], [37.532777, 55.741598], [37.53307, 55.741537], [37.533326, 55.741459], [37.53361, 55.741372], [37.533958, 55.741265], [37.534358, 55.741139], [37.534749, 55.740983], [37.535051, 55.740789], [37.535226, 55.740547], [37.535292, 55.74031], [37.535324, 55.740113], [37.53537, 55.739928], [37.535433, 55.739734], [37.53549, 55.739566], [37.535513, 55.739482], [37.535516, 55.739446]]], [[[37.524527, 55.837575], [37.519341, 55.837717], [37.515883, 55.841675], [37.521526, 55.842398], [37.526358, 55.841007], [37.526731, 55.838434], [37.524527, 55.837575]]], [[[37.489859, 55.837003], [37.483966, 55.838182], [37.484923, 55.840493], [37.482207, 55.841594], [37.48465, 55.842937], [37.490707, 55.841642], [37.492115, 55.839057], [37.489859, 55.837003]]], [[[37.456151, 55.74334], [37.453504, 55.744019], [37.451287, 55.74921], [37.446484, 55.750239], [37.447806, 55.752555], [37.454861, 55.752963], [37.459578, 55.755376], [37.461288, 55.753697], [37.459526, 55.750449], [37.462633, 55.750546], [37.463895, 55.748074], [37.456151, 55.74334]]], [[[37.453912, 55.71224], [37.449177, 55.714364], [37.451282, 55.716848], [37.455007, 55.715009], [37.453912, 55.71224]]], [[[37.448502, 55.725779], [37.442362, 55.727226], [37.444644, 55.732694], [37.448298, 55.731309], [37.45048, 55.727165], [37.448502, 55.725779]]], [[[37.445035, 55.836371], [37.436598, 55.836222], [37.43544, 55.838304], [37.437808, 55.839819], [37.442321, 55.839673], [37.445035, 55.836371]]], [[[37.43832, 55.872426], [37.432853, 55.873078], [37.430541, 55.875945], [37.433212, 55.875761], [37.434206, 55.877225], [37.439159, 55.87659], [37.43832, 55.872426]]], [[[37.423179, 55.878322], [37.420325, 55.879061], [37.421616, 55.881134], [37.424361, 55.879638], [37.423179, 55.878322]]], [[[37.376254, 55.822059], [37.370649, 55.822008], [37.371115, 55.824772], [37.374397, 55.825515], [37.376984, 55.824252], [37.376254, 55.822059]]], [[[37.373618, 55.827356], [37.366728, 55.827575], [37.369579, 55.830772], [37.374659, 55.830104], [37.373618, 55.827356]]], [[[37.357383, 55.817702], [37.356052, 55.822243], [37.358736, 55.824152], [37.356868, 55.825495], [37.362606, 55.825909], [37.364259, 55.818839], [37.357383, 55.817702]]], [[[37.344053, 55.813015], [37.33503, 55.814472], [37.342159, 55.817844], [37.345979, 55.816016], [37.344053, 55.813015]]], [[[37.305801, 55.813138], [37.305464, 55.81306], [37.305174, 55.813096], [37.304904, 55.813215], [37.304648, 55.813377], [37.304409, 55.813538], [37.304199, 55.813703], [37.303955, 55.813871], [37.303642, 55.814039], [37.30328, 55.814191], [37.30296, 55.814339], [37.30269, 55.814514], [37.302409, 55.814698], [37.302049, 55.814856], [37.301563, 55.814985], [37.301095, 55.815079], [37.300914, 55.815115], [37.300879, 55.815121], [37.300876, 55.815124], [37.300902, 55.815141], [37.301029, 55.815228], [37.301308, 55.815451], [37.30156, 55.815722], [37.30169, 55.815971], [37.30173, 55.816197], [37.301773, 55.816394], [37.30188, 55.816552], [37.302081, 55.81662], [37.302342, 55.816559], [37.30261, 55.816413], [37.302886, 55.816245], [37.303185, 55.81609], [37.303489, 55.815942], [37.303777, 55.81578], [37.304064, 55.815615], [37.304355, 55.815457], [37.304648, 55.815296], [37.304915, 55.815102], [37.305165, 55.814885], [37.305392, 55.814695], [37.305562, 55.814553], [37.305665, 55.814427], [37.305729, 55.814265], [37.305775, 55.814055], [37.305821, 55.813839], [37.305858, 55.813629], [37.305875, 55.813425], [37.305847, 55.813248], [37.305801, 55.813138]]]]}}]}