{"type": "FeatureCollection", "features": [{"type": "Feature", "properties": {"lobe_id": "школа-2007-фмш-pt40-1", "school_id": "школа-2007-фмш", "mode": "public_transport", "min": 40, "azimuth": 42.4, "width_deg": 20, "r_max_km": 10.54, "area_km2": 6.44, "elongation": 3.9, "zone_share": 0.2078, "thr_km": 7.09, "k_mad": 3, "suspicious": ""}, "geometry": {"type": "MultiPolygon", "coordinates": [[[[37.570319, 55.560645], [37.565352, 55.562173], [37.561598, 55.560353], [37.564136, 55.558311], [37.566775, 55.560531], [37.571716, 55.557553], [37.57107943155503, 55.556928926900724], [37.533619, 55.533064], [37.54878656051731, 55.55283074971026], [37.554244, 55.553335], [37.550489136287545, 55.555049589653215], [37.570749672534866, 55.581453634558095], [37.572593, 55.581738], [37.57378977032215, 55.585415567130404], [37.57470598888779, 55.58660960641222], [37.578262, 55.588207], [37.57891053314345, 55.587800034355176], [37.58166072835895, 55.58549234656418], [37.58220920075194, 55.58573006398604], [37.588343, 55.581881], [37.587633, 55.577331], [37.585672, 55.577295], [37.587843, 55.574744], [37.589527, 55.573304], [37.594365, 55.574191], [37.595419584137964, 55.57243531425483], [37.57801218935693, 55.5613455807217], [37.570319, 55.560645]]], [[[37.596159, 55.577159], [37.596001, 55.577773], [37.59379, 55.578426], [37.591764, 55.579853], [37.592807, 55.581845], [37.590019, 55.58423], [37.597467, 55.587808], [37.60338, 55.583622], [37.595966, 55.578884], [37.595371, 55.578], [37.596398, 55.577955], [37.596837, 55.577185], [37.596159, 55.577159]]], [[[37.601489, 55.591609], [37.600241, 55.588912], [37.597123077052565, 55.59219399593486], [37.599068000357555, 55.59303695933591], [37.60270496621339, 55.592155006092064], [37.601489, 55.591609]]]]}}, {"type": "Feature", "properties": {"lobe_id": "школа-1532-pt20-1", "school_id": "школа-1532", "mode": "public_transport", "min": 20, "azimuth": 237.5, "width_deg": 10, "r_max_km": 6.01, "area_km2": 0.3, "elongation": 9.9, "zone_share": 0.1473, "thr_km": 3.72, "k_mad": 3, "suspicious": ""}, "geometry": {"type": "MultiPolygon", "coordinates": [[[[37.478297, 55.595462], [37.47594457048821, 55.59896826028849], [37.480731048472485, 55.60520611984414], [37.484352464674664, 55.60495298650961], [37.47998553279306, 55.59656418841534], [37.478297, 55.595462]]], [[[37.459765, 55.577835], [37.45996399665703, 55.57793449832852], [37.459555505634704, 55.577609615134264], [37.4596931790044, 55.57778903456282], [37.459765, 55.577835]]], [[[37.471824, 55.586193], [37.471921, 55.586378], [37.471973, 55.586599], [37.471996, 55.58683], [37.472016, 55.587041], [37.472085, 55.587255], [37.4722, 55.58745], [37.472327, 55.587606], [37.472399, 55.587739], [37.47241, 55.587928], [37.472399, 55.588149], [37.472424, 55.588363], [37.472531, 55.588545], [37.472689, 55.588743], [37.47289, 55.588961], [37.473137, 55.589146], [37.473445, 55.58927], [37.473767, 55.589322], [37.4741, 55.589312], [37.474376, 55.589237], [37.474577, 55.58912], [37.474672, 55.588964], [37.474672, 55.588743], [37.474621, 55.588503], [37.474577, 55.588373], [37.474526, 55.588314], [37.474391, 55.58821], [37.474164, 55.587983], [37.473959, 55.587723], [37.473844, 55.587483], [37.473775, 55.587275], [37.473683, 55.587099], [37.473508, 55.586959], [37.473235, 55.586823], [37.472919, 55.586654], [37.472669, 55.58643], [37.472539, 55.586196], [37.47249, 55.585972], [37.472456, 55.585806], [37.472427, 55.585712], [37.47240495651947, 55.58570577866926], [37.47171771431303, 55.586102558142144], [37.471824, 55.586193]]], [[[37.491912395172534, 55.61977793456618], [37.492402, 55.620416], [37.49205822289336, 55.61975561032249], [37.491912395172534, 55.61977793456618]]]]}}, {"type": "Feature", "properties": {"lobe_id": "школа-1532-pt40-1", "school_id": "школа-1532", "mode": "public_transport", "min": 40, "azimuth": 33.1, "width_deg": 30, "r_max_km": 17.07, "area_km2": 16.41, "elongation": 3.0, "zone_share": 0.1672, "thr_km": 11.94, "k_mad": 3, "suspicious": ""}, "geometry": {"type": "MultiPolygon", "coordinates": [[[[37.576922, 55.651228], [37.567617, 55.652405], [37.566588, 55.648539], [37.563429, 55.649807], [37.566901, 55.653284], [37.566781, 55.656726], [37.556788, 55.658023], [37.555173, 55.655068], [37.550361, 55.653914], [37.555279, 55.653379], [37.558571, 55.650514], [37.562515, 55.650008], [37.561911, 55.648727], [37.557352, 55.647877], [37.555331, 55.649236], [37.554224, 55.647264], [37.549217, 55.647452], [37.549389, 55.642796], [37.545787, 55.643335], [37.542191, 55.640979], [37.548262, 55.640372], [37.54961306199481, 55.63845457855744], [37.492402, 55.620416], [37.56622489452701, 55.70097955237087], [37.56912, 55.701353], [37.56526, 55.697355], [37.568738, 55.694127], [37.566329, 55.69218], [37.575741, 55.695466], [37.580219, 55.692789], [37.582924, 55.693304], [37.587208, 55.689636], [37.589033, 55.683093], [37.581881, 55.680976], [37.573139, 55.680668], [37.57468, 55.67518], [37.566852, 55.672927], [37.566824, 55.666043], [37.570276, 55.664999], [37.566473, 55.665485], [37.560482, 55.663005], [37.565487, 55.661153], [37.565481, 55.659622], [37.57535, 55.660287], [37.579397, 55.658604], [37.580109142342764, 55.65733266721459], [37.57833529556233, 55.656010736481335], [37.581317829544595, 55.65229182399429], [37.576922, 55.651228]], [[37.563886, 55.6846], [37.563532, 55.689169], [37.558939, 55.686551], [37.559565, 55.683728], [37.563886, 55.6846]], [[37.54251, 55.666701], [37.540274, 55.67019], [37.53817, 55.668848], [37.54067, 55.668203], [37.53614, 55.666864], [37.53643, 55.66447], [37.54251, 55.666701]]], [[[37.591816, 55.706345], [37.587472, 55.703818], [37.581335, 55.704382], [37.580093, 55.707725], [37.580809, 55.709658], [37.581962485317504, 55.71005911057296], [37.58591589692982, 55.70610569896065], [37.59197909497366, 55.70775491834891], [37.591816, 55.706345]]], [[[37.575577, 55.671983], [37.575772, 55.673698], [37.57919, 55.674058], [37.580544, 55.67139], [37.575577, 55.671983]]], [[[37.571006, 55.70167], [37.570673, 55.701618], [37.570339, 55.701638], [37.570046, 55.701696], [37.569851, 55.70178], [37.569776, 55.701903], [37.569782, 55.702107], [37.569807, 55.702341], [37.569839, 55.702499], [37.569905, 55.702567], [37.570037, 55.702619], [37.570282, 55.702704], [37.570627, 55.702814], [37.570995, 55.702943], [37.571317, 55.70307], [37.571604, 55.703206], [37.571923, 55.703342], [37.572271, 55.703478], [37.572616, 55.703633], [37.572898, 55.703811], [37.573174, 55.70398], [37.573504, 55.704132], [37.573884, 55.704278], [37.57422, 55.704424], [37.574436, 55.704531], [37.574588, 55.704573], [37.574737, 55.704534], [37.574878, 55.70443], [37.574973, 55.704265], [37.574999, 55.70408], [37.574936, 55.703892], [37.574766, 55.703721], [37.574539, 55.703559], [37.574289, 55.703377], [37.574042, 55.703177], [37.573766, 55.702969], [37.573484, 55.702791], [37.573211, 55.702648], [37.572929, 55.702529], [37.572587, 55.702415], [37.572185, 55.702292], [37.571777, 55.702137], [37.571483, 55.701968], [37.571348, 55.701852], [37.571006, 55.70167]]]]}}, {"type": "Feature", "properties": {"lobe_id": "школа-1532-pt40-2", "school_id": "школа-1532", "mode": "public_transport", "min": 40, "azimuth": 219.9, "width_deg": 25, "r_max_km": 20.03, "area_km2": 11.75, "elongation": 5.1, "zone_share": 0.1197, "thr_km": 11.94, "k_mad": 3, "suspicious": ""}, "geometry": {"type": "MultiPolygon", "coordinates": [[[[37.439318, 55.551719], [37.43959749148194, 55.55159982469885], [37.437155749470286, 55.54841768455533], [37.435414, 55.548896], [37.432103708826325, 55.54843003526001], [37.428901315053245, 55.551117162693885], [37.42778696605561, 55.55040685253618], [37.427144, 55.553882], [37.429751, 55.555176], [37.424407, 55.558008], [37.433149, 55.56099], [37.431122, 55.562547], [37.432755, 55.564498], [37.436618, 55.562967], [37.434882, 55.567222], [37.438021, 55.569537], [37.438607, 55.573987], [37.441301, 55.573951], [37.441945, 55.576382], [37.448556, 55.577529], [37.447191, 55.581354], [37.435014, 55.58102], [37.429136, 55.586066], [37.432312, 55.58811], [37.436612, 55.586732], [37.447119, 55.587535], [37.440709, 55.589387], [37.43781408070312, 55.591999327855866], [37.4404192649779, 55.59335550094993], [37.441186, 55.592892], [37.442586230640096, 55.594483551873346], [37.492402, 55.620416], [37.43988354126041, 55.551972612028045], [37.439318, 55.551719]]], [[[37.397549, 55.535738], [37.393919, 55.534359], [37.392826, 55.529117], [37.39460189869956, 55.529253972713754], [37.389063380237694, 55.52572360123187], [37.364203125233196, 55.51884019283917], [37.363942, 55.520844], [37.368737, 55.520704], [37.369194, 55.525238], [37.378255, 55.527623], [37.380865, 55.532703], [37.389061, 55.533077], [37.388385, 55.536177], [37.381104, 55.541685], [37.394617, 55.546398], [37.402054, 55.543325], [37.408855, 55.544063], [37.4082, 55.538926], [37.404198, 55.53567], [37.40441161933392, 55.53550690085893], [37.40185874670319, 55.533879644618025], [37.397549, 55.535738]]], [[[37.356468, 55.518446], [37.36160883137129, 55.51812187421618], [37.35766750089208, 55.51703058262266], [37.35583222468986, 55.517755936475524], [37.356468, 55.518446]]], [[[37.353898, 55.520802], [37.351981, 55.519621], [37.35255295377007, 55.51905199850334], [37.34815157318788, 55.52079155048978], [37.353898, 55.520802]]], [[[37.415596, 55.561539], [37.413308, 55.563158], [37.415766, 55.563909], [37.422018, 55.560964], [37.415596, 55.561539]]]]}}, {"type": "Feature", "properties": {"lobe_id": "школа-1158-pt40-1", "school_id": "школа-1158", "mode": "public_transport", "min": 40, "azimuth": 157.6, "width_deg": 10, "r_max_km": 18.58, "area_km2": 7.49, "elongation": 7.6, "zone_share": 0.0795, "thr_km": 12.84, "k_mad": 3, "suspicious": ""}, "geometry": {"type": "MultiPolygon", "coordinates": [[[[37.531334, 55.670164], [37.535416, 55.668255], [37.540489, 55.66818], [37.535453, 55.668079], [37.534415, 55.666063], [37.534286, 55.664915], [37.542013, 55.667334], [37.544658, 55.664928], [37.548136, 55.666144], [37.548117954772756, 55.66619027083712], [37.607667, 55.635191], [37.50951025521658, 55.66613970275051], [37.511605, 55.666299], [37.510168, 55.673429], [37.497235, 55.672852], [37.49236902142867, 55.67710785587276], [37.49421649184854, 55.68218373913445], [37.49350827202985, 55.68279956294872], [37.504652, 55.685079], [37.510228, 55.682892], [37.510174, 55.680292], [37.51637575146329, 55.682714215991936], [37.51863462626325, 55.681538320199756], [37.515141, 55.679893], [37.513583, 55.675955], [37.527380860648776, 55.67698531876225], [37.530318754561115, 55.67545594799347], [37.531334, 55.670164]]], [[[37.490215, 55.692507], [37.492975, 55.691626], [37.494519, 55.688064], [37.492228650954665, 55.68391224168284], [37.483353265797845, 55.69162972345353], [37.490215, 55.692507]]]]}}, {"type": "Feature", "properties": {"lobe_id": "школа-109-pt20-1", "school_id": "школа-109", "mode": "public_transport", "min": 20, "azimuth": 56.5, "width_deg": 25, "r_max_km": 5.51, "area_km2": 0.72, "elongation": 3.6, "zone_share": 0.1873, "thr_km": 3.04, "k_mad": 3, "suspicious": ""}, "geometry": {"type": "MultiPolygon", "coordinates": [[[[37.489839, 55.658675], [37.49332128501954, 55.65725818391749], [37.49306309470107, 55.65690182193417], [37.492408263219275, 55.656301779433676], [37.489839, 55.658675]]], [[[37.49081288292286, 55.654839882733654], [37.48312437930403, 55.647794667186176], [37.481396, 55.648208], [37.477855, 55.6474], [37.48001, 55.650255], [37.47918034864917, 55.65274465123848], [37.48366203681852, 55.66695875014219], [37.48484397510218, 55.66697519024262], [37.48653279253993, 55.666343767276196], [37.48779012929832, 55.665963835813734], [37.48894099030468, 55.66432337888367], [37.488685694702255, 55.66368260759559], [37.484222, 55.659142], [37.483506, 55.653784], [37.48481740126723, 55.65397350433031], [37.48477591861495, 55.65386938623239], [37.484887823207494, 55.653983680668375], [37.49081288292286, 55.654839882733654]]], [[[37.50698900727976, 55.67655685939867], [37.508198561564285, 55.67779224502142], [37.50760302192741, 55.676970263440545], [37.50698900727976, 55.67655685939867]]], [[[37.476049, 55.641816], [37.476357, 55.641648], [37.476392690851284, 55.64162621120315], [37.475383, 55.640701], [37.475755022351436, 55.641880904156174], [37.476049, 55.641816]]]]}}, {"type": "Feature", "properties": {"lobe_id": "школа-109-pt20-2", "school_id": "школа-109", "mode": "public_transport", "min": 20, "azimuth": 195.2, "width_deg": 15, "r_max_km": 6.27, "area_km2": 0.77, "elongation": 6.0, "zone_share": 0.2001, "thr_km": 3.04, "k_mad": 3, "suspicious": ""}, "geometry": {"type": "MultiPolygon", "coordinates": [[[[37.47190711966501, 55.63926124322406], [37.4642475698321, 55.63608855380159], [37.46412935164228, 55.63921942908674], [37.47119393329003, 55.640149498905075], [37.47190711966501, 55.63926124322406]]], [[[37.457353, 55.634447], [37.45479233514824, 55.63217206736012], [37.45394935379462, 55.631822893050625], [37.448076, 55.633188], [37.439642, 55.631494], [37.434195, 55.632506], [37.436187, 55.635044], [37.443813, 55.635297], [37.453815064843525, 55.63786152746884], [37.45616543444329, 55.63817095949691], [37.457353, 55.634447]]], [[[37.42232, 55.622074], [37.422501, 55.622256], [37.422803, 55.622418], [37.423194, 55.622577], [37.423565, 55.62271], [37.423812, 55.622788], [37.423999, 55.622834], [37.424266, 55.622892], [37.424648, 55.622964], [37.425105, 55.623009], [37.425557, 55.62297], [37.425925, 55.622886], [37.426137, 55.622817], [37.426212, 55.622785], [37.426227, 55.622769], [37.426218, 55.622736], [37.426169, 55.622613], [37.42608, 55.62236], [37.426034, 55.622123], [37.426034, 55.621896], [37.426002, 55.621655], [37.425879, 55.621415], [37.425669, 55.621214], [37.42545, 55.621035], [37.425281, 55.620892], [37.425192, 55.620821], [37.424996, 55.620763], [37.424703, 55.620727], [37.424324, 55.620698], [37.423958, 55.620694], [37.42368, 55.62074], [37.423409, 55.620853], [37.423099, 55.621009], [37.422803, 55.621181], [37.422548122197554, 55.62134627232502], [37.42230101023658, 55.62202520685788], [37.42232, 55.622074]]], [[[37.47385, 55.640265], [37.473753734904484, 55.640486503180945], [37.475383, 55.640701], [37.47399908747826, 55.640127764664356], [37.47385, 55.640265]]], [[[37.433071, 55.629225], [37.432815, 55.629176], [37.432401, 55.629098], [37.431956, 55.629024], [37.431568, 55.628991], [37.431211, 55.628991], [37.430812, 55.629027], [37.430418, 55.629118], [37.430127, 55.629274], [37.430081, 55.629475], [37.430239, 55.629673], [37.430475, 55.629829], [37.430688, 55.629916], [37.43086, 55.629965], [37.431108, 55.630017], [37.431496, 55.630092], [37.431944, 55.63015], [37.432364, 55.63017], [37.432746, 55.630166], [37.43316, 55.630147], [37.433588, 55.630111], [37.433962, 55.630059], [37.434195, 55.63001], [37.43429, 55.629965], [37.43431, 55.629926], [37.434267, 55.629881], [37.434106, 55.629783], [37.433758, 55.629576], [37.433413, 55.629371], [37.433249, 55.62927], [37.433071, 55.629225]]]]}}, {"type": "Feature", "properties": {"lobe_id": "школа-109-pt40-1", "school_id": "школа-109", "mode": "public_transport", "min": 40, "azimuth": 192.5, "width_deg": 20, "r_max_km": 24.19, "area_km2": 14.13, "elongation": 5.1, "zone_share": 0.1131, "thr_km": 16.76, "k_mad": 3, "suspicious": ""}, "geometry": {"type": "MultiPolygon", "coordinates": [[[[37.389498, 55.635567], [37.394275, 55.635907], [37.392849, 55.635002], [37.397483, 55.632389], [37.399772, 55.631818], [37.403221, 55.633642], [37.409033, 55.63248], [37.411647, 55.634885], [37.406067, 55.636375], [37.409088, 55.637669], [37.40884995242283, 55.6377961044082], [37.439707700113374, 55.6391433827684], [37.443503, 55.63702], [37.449177, 55.637027], [37.452684, 55.63898], [37.45199290825223, 55.63967976653957], [37.458614936290274, 55.63996889052768], [37.45954, 55.636998], [37.461915, 55.637725], [37.46177712328232, 55.640106954593406], [37.475383, 55.640701], [37.40637211200534, 55.6121157542412], [37.406259, 55.614763], [37.401629, 55.619493], [37.404098, 55.622272], [37.410318, 55.624045], [37.405521, 55.628092], [37.400818, 55.626398], [37.396894, 55.627618], [37.393838, 55.626537], [37.382268, 55.63299], [37.383389, 55.634895], [37.38170115186825, 55.636610762177156], [37.38757374591997, 55.63686716517077], [37.389498, 55.635567]]], [[[37.391251, 55.607242], [37.392125, 55.610671], [37.383406, 55.610938], [37.383846, 55.612438], [37.379799, 55.613438], [37.378471, 55.61563], [37.382558, 55.616889], [37.381569, 55.618458], [37.384933, 55.622129], [37.382052, 55.625307], [37.388299, 55.626129], [37.390938, 55.623421], [37.388034, 55.622025], [37.395172, 55.623632], [37.397851, 55.62212], [37.396135, 55.621301], [37.400237, 55.619935], [37.40043, 55.61626], [37.39784, 55.614175], [37.396299, 55.61499], [37.392461, 55.610844], [37.39761, 55.611181], [37.397275824896724, 55.608347948753575], [37.39251504081602, 55.606375967419815], [37.391251, 55.607242]]], [[[37.316109, 55.598174], [37.310667, 55.59832], [37.31324, 55.602134], [37.322732, 55.603501], [37.325023, 55.60253], [37.329706, 55.60455], [37.329643, 55.607908], [37.333483, 55.608785], [37.338792, 55.607008], [37.347528, 55.609791], [37.343688, 55.613133], [37.339738, 55.612292], [37.337712, 55.616289], [37.334805, 55.616893], [37.335567, 55.624093], [37.333319, 55.627164], [37.335484, 55.62953], [37.339911, 55.628868], [37.338295, 55.625791], [37.339859, 55.622714], [37.343639, 55.62196], [37.342363, 55.620532], [37.347163, 55.620276], [37.352214, 55.615393], [37.357492, 55.614477], [37.358636, 55.612863], [37.354281, 55.610415], [37.360401, 55.607096], [37.362985, 55.60934], [37.371071, 55.605859], [37.378479, 55.606849], [37.390550130017395, 55.60556207471817], [37.37214297150912, 55.59793758001929], [37.370971, 55.598856], [37.36784, 55.59667], [37.364213, 55.596586], [37.360792, 55.600065], [37.357276, 55.600867], [37.357075, 55.599269], [37.359777, 55.598629], [37.350116, 55.596933], [37.351122, 55.59439], [37.349233, 55.593438], [37.347635057466704, 55.59408079184851], [37.34556457103296, 55.59976940657252], [37.343994656677836, 55.59965318098585], [37.340368, 55.601036], [37.337674, 55.599188], [37.33227, 55.599574], [37.329648, 55.602153], [37.32857, 55.60023], [37.321568, 55.598746], [37.322735406107405, 55.59807929330105], [37.316743114568304, 55.59763566553412], [37.316109, 55.598174]]], [[[37.286972, 55.605927], [37.290421, 55.609834], [37.295343, 55.607824], [37.293382, 55.605748], [37.286972, 55.605927]]]]}}, {"type": "Feature", "properties": {"lobe_id": "бауманская-инженерна-pt20-1", "school_id": "бауманская-инженерная-школа-1580", "mode": "public_transport", "min": 20, "azimuth": 170.0, "width_deg": 15, "r_max_km": 7.86, "area_km2": 2.16, "elongation": 6.8, "zone_share": 0.2139, "thr_km": 4.24, "k_mad": 3, "suspicious": ""}, "geometry": {"type": "Polygon", "coordinates": [[[37.552744, 55.653411], [37.567344, 55.653168], [37.573384, 55.651241], [37.579492, 55.651715], [37.581501, 55.649233], [37.586078, 55.649911], [37.590163, 55.648724], [37.59020960566334, 55.64873785464765], [37.61307, 55.64153], [37.57405045909605, 55.64323362994773], [37.572159, 55.644983], [37.570914, 55.644234], [37.569008, 55.644188], [37.569135, 55.645262], [37.561945, 55.645849], [37.56180591474378, 55.645977075227194], [37.562005017702475, 55.64825283245873], [37.55222581853106, 55.652939967959995], [37.552744, 55.653411]]]}}, {"type": "Feature", "properties": {"lobe_id": "бауманская-инженерна-pt20-2", "school_id": "бауманская-инженерная-школа-1580", "mode": "public_transport", "min": 20, "azimuth": 252.6, "width_deg": 10, "r_max_km": 6.7, "area_km2": 0.53, "elongation": 10.5, "zone_share": 0.0523, "thr_km": 4.24, "k_mad": 3, "suspicious": ""}, "geometry": {"type": "MultiPolygon", "coordinates": [[[[37.60933527612134, 55.63251357896043], [37.61307, 55.64153], [37.6110254160276, 55.63230747768927], [37.60933527612134, 55.63251357896043]]], [[[37.609736, 55.626836], [37.60980798499363, 55.62681600117168], [37.60795097467583, 55.61843956893979], [37.606352, 55.617889], [37.60379555193773, 55.619139501704545], [37.60648004607948, 55.62562044386967], [37.609736, 55.626836]]], [[[37.603636, 55.609097], [37.60046403866357, 55.61109651717483], [37.601163942965975, 55.61278623563407], [37.605921, 55.615695], [37.60690757010388, 55.61373307506436], [37.60602498281433, 55.609751981072165], [37.603636, 55.609097]]], [[[37.600069, 55.592863], [37.59715696166896, 55.59497848473405], [37.59718533698656, 55.59511911734281], [37.600997, 55.596638], [37.60276182796405, 55.59503284074023], [37.602473103125654, 55.59373048715645], [37.600069, 55.592863]]], [[[37.596628, 55.583665], [37.596875, 55.583817], [37.597165, 55.583951], [37.597501, 55.584006], [37.597786, 55.583941], [37.597898, 55.583782], [37.597795, 55.583587], [37.597568, 55.583414], [37.5975503683382, 55.58340300787611], [37.59661186707989, 55.58365447853037], [37.596628, 55.583665]]]]}}, {"type": "Feature", "properties": {"lobe_id": "бауманская-инженерна-pt40-1", "school_id": "бауманская-инженерная-школа-1580", "mode": "public_transport", "min": 40, "azimuth": 157.6, "width_deg": 10, "r_max_km": 20.2, "area_km2": 9.35, "elongation": 7.6, "zone_share": 0.0678, "thr_km": 15.98, "k_mad": 3, "suspicious": ""}, "geometry": {"type": "MultiPolygon", "coordinates": [[[[37.476409, 55.692144], [37.494102, 55.693265], [37.497362, 55.686266], [37.506629, 55.686677], [37.512206, 55.682328], [37.51634, 55.682684], [37.518208, 55.678448], [37.529577, 55.679073], [37.530285, 55.68178], [37.53395631747942, 55.68271397636803], [37.61307, 55.64153], [37.488427002864704, 55.680829786039006], [37.488327, 55.681167], [37.48698311235784, 55.6812850429671], [37.479418866018776, 55.68367004067658], [37.479254, 55.68388], [37.47829805939814, 55.684023429646636], [37.475585000800145, 55.68487885373674], [37.476409, 55.692144]], [[37.54128, 55.66866], [37.541441, 55.673604], [37.536637, 55.680645], [37.536384, 55.678723], [37.532662, 55.677686], [37.534205, 55.671293], [37.538805, 55.668096], [37.54128, 55.66866]]], [[[37.472212, 55.7011], [37.473712, 55.699879], [37.475362, 55.697329], [37.47026, 55.693687], [37.473755, 55.691512], [37.473732, 55.689121], [37.469806, 55.690492], [37.466037, 55.689357], [37.467509, 55.691768], [37.458152, 55.692672], [37.45895709950531, 55.696427052129366], [37.460810922636156, 55.701520389321004], [37.472212, 55.7011]]], [[[37.458526, 55.716126], [37.457147315333515, 55.71432063113533], [37.45595375721356, 55.716927089813055], [37.458526, 55.716126]]], [[[37.497813, 55.69602], [37.495163, 55.696629], [37.496065, 55.697546], [37.50201411116835, 55.6993420364955], [37.50239587625336, 55.69914330217119], [37.497813, 55.69602]]]]}}, {"type": "Feature", "properties": {"lobe_id": "московская-гимназия--pt20-1", "school_id": "московская-гимназия-на-юго-западе-1543-ю-в-завельского", "mode": "public_transport", "min": 20, "azimuth": 15.2, "width_deg": 15, "r_max_km": 3.37, "area_km2": 0.5, "elongation": 6.6, "zone_share": 0.0905, "thr_km": 2.37, "k_mad": 3, "suspicious": ""}, "geometry": {"type": "MultiPolygon", "coordinates": [[[[37.504634, 55.661244], [37.503792, 55.658474], [37.50387267932278, 55.658389285421855], [37.48618, 55.65606], [37.5023627629746, 55.662763119900745], [37.504634, 55.661244]]], [[[37.511646, 55.661659], [37.507026, 55.661922], [37.50667181708116, 55.664547988552684], [37.50798580079794, 55.665092258428906], [37.511232, 55.665437], [37.514086, 55.667531], [37.51457031735931, 55.666615270631475], [37.51509397231909, 55.665176540453885], [37.51491176071707, 55.66477676016354], [37.511646, 55.661659]]]]}}, {"type": "Feature", "properties": {"lobe_id": "московская-гимназия--pt20-2", "school_id": "московская-гимназия-на-юго-западе-1543-ю-в-завельского", "mode": "public_transport", "min": 20, "azimuth": 219.8, "width_deg": 15, "r_max_km": 2.92, "area_km2": 0.49, "elongation": 5.1, "zone_share": 0.0891, "thr_km": 2.37, "k_mad": 3, "suspicious": ""}, "geometry": {"type": "Polygon", "coordinates": [[[37.469944, 55.641291], [37.470015, 55.639629], [37.46984479952639, 55.639672330513584], [37.469104209341424, 55.64041292069855], [37.46672390843583, 55.641130815862226], [37.464206189924255, 55.641890155968646], [37.466224, 55.642864], [37.4659766159978, 55.64318902488453], [37.47348739057886, 55.647973916005746], [37.474747, 55.647945], [37.47455177258749, 55.64865200212959], [37.48618, 55.65606], [37.47329507673585, 55.64199857370621], [37.469944, 55.641291]]]}}, {"type": "Feature", "properties": {"lobe_id": "московская-гимназия--pt20-3", "school_id": "московская-гимназия-на-юго-западе-1543-ю-в-завельского", "mode": "public_transport", "min": 20, "azimuth": 342.1, "width_deg": 30, "r_max_km": 3.5, "area_km2": 1.16, "elongation": 2.9, "zone_share": 0.2086, "thr_km": 2.37, "k_mad": 3, "suspicious": ""}, "geometry": {"type": "Polygon", "coordinates": [[[37.509239, 55.646313], [37.503229, 55.646122], [37.499865, 55.649145], [37.49723635495137, 55.64901632506755], [37.48618, 55.65606], [37.50695485645784, 55.655152950178255], [37.50788173984416, 55.654179707811444], [37.50779725437417, 55.65321403447066], [37.51023788141227, 55.6507264960964], [37.516167053839176, 55.646605118242455], [37.51586520027128, 55.64629708941899], [37.507409573379974, 55.642535270149985], [37.50548553979706, 55.64376101472646], [37.509239, 55.646313]]]}}, {"type": "Feature", "properties": {"lobe_id": "московская-гимназия--pt40-1", "school_id": "московская-гимназия-на-юго-западе-1543-ю-в-завельского", "mode": "public_transport", "min": 40, "azimuth": 25.0, "width_deg": 30, "r_max_km": 18.35, "area_km2": 19.45, "elongation": 2.7, "zone_share": 0.2215, "thr_km": 11.78, "k_mad": 3, "suspicious": ""}, "geometry": {"type": "MultiPolygon", "coordinates": [[[[37.587713, 55.689594], [37.589637, 55.682496], [37.580251, 55.680451], [37.570106, 55.680691], [37.570397, 55.675964], [37.574668, 55.675442], [37.575272, 55.673001], [37.570877, 55.673303], [37.569945, 55.674888], [37.560502, 55.673471], [37.559784, 55.666951], [37.552793, 55.66568], [37.55263054893772, 55.6648083807337], [37.54441166322334, 55.66372634390201], [37.545736, 55.665638], [37.548837, 55.666458], [37.54736, 55.670813], [37.555653, 55.675332], [37.554745, 55.67917], [37.557303, 55.68153], [37.5638, 55.683067], [37.563161, 55.6903], [37.560393, 55.689565], [37.559973, 55.683498], [37.556366, 55.68318], [37.55162, 55.677874], [37.545158, 55.676], [37.539328, 55.666899], [37.54222444261907, 55.66343839084669], [37.48618, 55.65606], [37.53526521413024, 55.70103831189086], [37.539377, 55.701058], [37.540211, 55.704391], [37.543562, 55.703643], [37.5493, 55.705136], [37.545799, 55.707077], [37.547196, 55.709626], [37.54575497366262, 55.710650405558326], [37.54724474166129, 55.71201552641756], [37.550456, 55.710899], [37.553899, 55.710267], [37.557352, 55.710322], [37.54866906612788, 55.71332067932821], [37.551636575386354, 55.71603990057094], [37.55383, 55.714782], [37.555167, 55.71555], [37.55291943279566, 55.71721542280691], [37.55322748112191, 55.71749769709135], [37.556257, 55.718717], [37.55516627065045, 55.71927427037622], [37.56565869545211, 55.728888806313], [37.566522, 55.72891], [37.570814658466, 55.727385410838615], [37.57507122101745, 55.72223706212334], [37.57813804974737, 55.72269617063808], [37.575304, 55.720657], [37.574746, 55.716677], [37.570871, 55.716359], [37.571986, 55.714112], [37.574824, 55.713626], [37.567476, 55.708486], [37.568839, 55.707044], [37.559686, 55.703348], [37.556863, 55.703776], [37.554736, 55.701233], [37.56881, 55.701693], [37.574737, 55.704534], [37.570049, 55.701077], [37.57, 55.696966], [37.57251400518884, 55.69797936857485], [37.5719541606927, 55.69747640388775], [37.569934, 55.69646], [37.569929235666635, 55.69565720982733], [37.568669553563666, 55.69452551054452], [37.569920845138604, 55.694243405853676], [37.56992, 55.694101], [37.57020955738743, 55.69417831544523], [37.58575995879806, 55.690672464954105], [37.58661181727562, 55.690720229010175], [37.587713, 55.689594]]], [[[37.616825, 55.690686], [37.620823, 55.690294], [37.615186, 55.688729], [37.606657, 55.688959], [37.604878, 55.686262], [37.600977, 55.687008], [37.603409, 55.6902], [37.599163, 55.690252], [37.599322032828695, 55.69143289603687], [37.6148972610015, 55.69230620550245], [37.616825, 55.690686]]], [[[37.578817, 55.70867], [37.587202, 55.712279], [37.588056084063616, 55.71194238311198], [37.58050673698361, 55.70516004441242], [37.578817, 55.70867]]], [[[37.640557, 55.692721], [37.6397075394417, 55.69369732804427], [37.64351302040709, 55.69391070293107], [37.640557, 55.692721]]], [[[37.563472, 55.666247], [37.563317, 55.666452], [37.56332, 55.666675], [37.563478, 55.666893], [37.563797, 55.667048], [37.564222, 55.66712], [37.564656, 55.6671], [37.565018, 55.667032], [37.565274, 55.666967], [37.565461, 55.666909], [37.565665, 55.666808], [37.565884, 55.666653], [37.56597514555375, 55.666565230207496], [37.563490879210065, 55.66623817033868], [37.563472, 55.666247]]], [[[37.578998, 55.671918], [37.578727, 55.671808], [37.578385, 55.671747], [37.578012, 55.67175], [37.577598, 55.671805], [37.57723, 55.67187], [37.576911, 55.671944], [37.576655, 55.672029], [37.576433, 55.672158], [37.576267, 55.672327], [37.576132, 55.672512], [37.576011, 55.672709], [37.575893, 55.672962], [37.575813, 55.673231], [37.575933, 55.673432], [37.57633, 55.673569], [37.576816, 55.673659], [37.577241, 55.673679], [37.577606, 55.673663], [37.577992, 55.673624], [37.578405, 55.673572], [37.578791, 55.67351], [37.579038, 55.673458], [37.579156, 55.673413], [37.579196, 55.673358], [37.579225, 55.673222], [37.579285, 55.672923], [37.579337, 55.6727], [37.579337, 55.672486], [37.579297, 55.672265], [37.579256, 55.672113], [37.579245, 55.672058], [37.578998, 55.671918]]]]}}, {"type": "Feature", "properties": {"lobe_id": "тор-it-school-pt20-1", "school_id": "тор-it-school", "mode": "public_transport", "min": 20, "azimuth": 37.6, "width_deg": 10, "r_max_km": 6.51, "area_km2": 0.42, "elongation": 7.3, "zone_share": 0.0361, "thr_km": 4.76, "k_mad": 3, "suspicious": ""}, "geometry": {"type": "MultiPolygon", "coordinates": [[[[37.501363, 55.667243], [37.5050374453216, 55.66847990921291], [37.49, 55.6589], [37.499571054004726, 55.667670255152736], [37.501363, 55.667243]]], [[[37.512896, 55.675358], [37.508141, 55.672713], [37.50544076724007, 55.67304885637282], [37.51382468407616, 55.6807313007301], [37.512896, 55.675358]]], [[[37.538158, 55.690155], [37.531972, 55.690498], [37.531768, 55.695433], [37.53306909396181, 55.69513220591142], [37.534694411367475, 55.6931952280541], [37.53804356108998, 55.691093303096665], [37.538158, 55.690155]]]]}}, {"type": "Feature", "properties": {"lobe_id": "школа-1514-pt40-1", "school_id": "школа-1514", "mode": "public_transport", "min": 40, "azimuth": 9.9, "width_deg": 15, "r_max_km": 22.29, "area_km2": 12.51, "elongation": 6.2, "zone_share": 0.098, "thr_km": 17.1, "k_mad": 3, "suspicious": ""}, "geometry": {"type": "MultiPolygon", "coordinates": [[[[37.662591, 55.670981], [37.652553, 55.677952], [37.655922, 55.682451], [37.645022, 55.682901], [37.642472, 55.68167], [37.637766, 55.684126], [37.663434, 55.686068], [37.674343, 55.681206], [37.674596, 55.676811], [37.676763, 55.679945], [37.682642, 55.681015], [37.694255, 55.678075], [37.692982, 55.672515], [37.691924, 55.673546], [37.676976, 55.669866], [37.67325, 55.670654], [37.673466, 55.674677], [37.671255, 55.675527], [37.669183, 55.673218], [37.663882, 55.672262], [37.6653268020314, 55.668931047841056], [37.6566164341987, 55.6685507449684], [37.662591, 55.670981]]], [[[37.651323, 55.672846], [37.650628308963014, 55.66828929777436], [37.64651005686984, 55.668109491004834], [37.651323, 55.672846]]], [[[37.623028, 55.690346], [37.629824, 55.68586], [37.631862, 55.680992], [37.628225, 55.679193], [37.63212, 55.675326], [37.62989, 55.672907], [37.632049, 55.67042], [37.63551, 55.670521], [37.63536918428216, 55.66762307000283], [37.53269, 55.66314], [37.5820526951607, 55.67870399799997], [37.583258, 55.677712], [37.581418, 55.6753], [37.585833, 55.673734], [37.587032, 55.676697], [37.594055, 55.678875], [37.592643, 55.680367], [37.58865656519155, 55.68078619022261], [37.601759951987184, 55.68491767220949], [37.59954, 55.683089], [37.602176, 55.680989], [37.610368, 55.681864], [37.608862, 55.677131], [37.612277, 55.679274], [37.618345, 55.679848], [37.616537, 55.682879], [37.619357, 55.68928], [37.6152674187304, 55.68917656011445], [37.61961536273089, 55.69054746159191], [37.623028, 55.690346]], [[37.601503, 55.669791], [37.599821, 55.673261], [37.594193, 55.671354], [37.594084, 55.668806], [37.601503, 55.669791]]], [[[37.585667, 55.6787], [37.58319634051666, 55.67906458799561], [37.587989913927, 55.680575995886294], [37.585667, 55.6787]]], [[[37.723016, 55.689574], [37.720328, 55.689468], [37.71994481746388, 55.68990303373837], [37.723896719488884, 55.68968324018532], [37.723016, 55.689574]]], [[[37.697437, 55.679141], [37.693965, 55.686405], [37.701775, 55.687261], [37.702129, 55.684992], [37.704437, 55.686849], [37.710819, 55.686026], [37.710781, 55.68246], [37.705989, 55.679161], [37.697437, 55.679141]]], [[[37.665426, 55.688936], [37.658455, 55.69055], [37.655824, 55.696068], [37.663129, 55.699516], [37.66517965161602, 55.69873799765088], [37.666754297500304, 55.69286133920679], [37.669283694108515, 55.692720661360006], [37.665426, 55.688936]]], [[[37.648319, 55.698715], [37.647707, 55.695378], [37.64171, 55.692718], [37.637375, 55.69286], [37.63760237106674, 55.696218743535766], [37.64635103955849, 55.698977188115514], [37.648319, 55.698715]]], [[[37.632327, 55.680762], [37.637841, 55.681916], [37.642489, 55.679229], [37.636947, 55.677877], [37.632327, 55.680762]]]]}}, {"type": "Feature", "properties": {"lobe_id": "школа-на-проспекте-в-pt40-1", "school_id": "школа-на-проспекте-вернадского", "mode": "public_transport", "min": 40, "azimuth": 18.7, "width_deg": 30, "r_max_km": 18.54, "area_km2": 34.89, "elongation": 1.5, "zone_share": 0.2157, "thr_km": 14.6, "k_mad": 3, "suspicious": ""}, "geometry": {"type": "MultiPolygon", "coordinates": [[[[37.617181, 55.660281], [37.617183052794005, 55.66028313249071], [37.62212492972209, 55.65868121055514], [37.614432603258365, 55.6590170647817], [37.617181, 55.660281]]], [[[37.60941256365652, 55.65923624444416], [37.5955244009028, 55.65984261472526], [37.598723, 55.660637], [37.599801, 55.664941], [37.60092087725535, 55.6655545579217], [37.61175958189765, 55.66204116433211], [37.60941256365652, 55.65923624444416]]], [[[37.581266, 55.662995], [37.5842777790946, 55.660333652837934], [37.475225, 55.665095], [37.53212263193009, 55.708754088532054], [37.537638, 55.704479], [37.542151, 55.704278], [37.545822, 55.706442], [37.539271, 55.707038], [37.538641, 55.710951], [37.540952, 55.711628], [37.540176, 55.712994], [37.537692904168146, 55.7130283087507], [37.54149873444304, 55.71594862503229], [37.550349, 55.710954], [37.553891, 55.71029], [37.55726, 55.710296], [37.549613, 55.711822], [37.543036, 55.716832], [37.55049, 55.721796], [37.54977678887199, 55.722300599603585], [37.56265955237466, 55.732185891718935], [37.566387, 55.732231], [37.574177, 55.736164], [37.578161, 55.736138], [37.582151, 55.738181], [37.583537, 55.741524], [37.591068, 55.741809], [37.593986, 55.748401], [37.603501, 55.750866], [37.597775, 55.753513], [37.604731, 55.753581], [37.609589, 55.756531], [37.610906, 55.760397], [37.6113875247635, 55.76054248623254], [37.617856981226275, 55.751011046886454], [37.609799, 55.745262], [37.612196, 55.742042], [37.608, 55.742197], [37.603998, 55.740064], [37.605665, 55.7382], [37.603072, 55.735944], [37.605795, 55.731538], [37.599088, 55.730723], [37.596311, 55.731739], [37.592485, 55.728434], [37.593661, 55.723882], [37.59051, 55.72462], [37.579026, 55.714821], [37.581726, 55.711433], [37.573248, 55.710964], [37.582559, 55.708939], [37.588593, 55.710426], [37.590853, 55.705849], [37.587219, 55.704424], [37.576071, 55.704916], [37.571, 55.701651], [37.568793, 55.704132], [37.564688, 55.702545], [37.566122, 55.701038], [37.569313, 55.701226], [37.56996, 55.698395], [37.5723, 55.700837], [37.578063, 55.700714], [37.578052, 55.698634], [37.574027, 55.697348], [37.5812, 55.693408], [37.583844, 55.693551], [37.587713, 55.689594], [37.58787991083744, 55.689006035997664], [37.58287992249651, 55.68569619220362], [37.58131582690945, 55.68042154858108], [37.580487, 55.680305], [37.58111985927014, 55.67976068138889], [37.5796183530884, 55.67469710978159], [37.575169, 55.674661], [37.579205, 55.674123], [37.579377957897336, 55.673886418304726], [37.579013105877586, 55.67265601755744], [37.58067015153602, 55.67211888200609], [37.581165, 55.671442], [37.572326, 55.671925], [37.566378, 55.674052], [37.565378, 55.66748], [37.558088, 55.663679], [37.561477, 55.661493], [37.568005, 55.663553], [37.576796, 55.664049], [37.576813, 55.667324], [37.582732, 55.668624], [37.58163285657945, 55.67180681872548], [37.589135077694245, 55.669374954730436], [37.589171, 55.669338], [37.58921617075666, 55.66934866820866], [37.592185204652665, 55.66838624834376], [37.581266, 55.662995]]], [[[37.607813, 55.727084], [37.606496, 55.731079], [37.612493, 55.732691], [37.614893, 55.72846], [37.612728, 55.727129], [37.607813, 55.727084]]]]}}, {"type": "Feature", "properties": {"lobe_id": "школа-1329-pt40-1", "school_id": "школа-1329", "mode": "public_transport", "min": 40, "azimuth": 25.0, "width_deg": 25, "r_max_km": 18.45, "area_km2": 14.65, "elongation": 4.3, "zone_share": 0.1883, "thr_km": 10.94, "k_mad": 3, "suspicious": ""}, "geometry": {"type": "MultiPolygon", "coordinates": [[[[37.587236, 55.730761], [37.58763, 55.725604], [37.579078, 55.723098], [37.575304, 55.720657], [37.574746, 55.716673], [37.570998, 55.716282], [37.570931, 55.714128], [37.575238, 55.714005], [37.567508, 55.708466], [37.568971, 55.706963], [37.560919, 55.703118], [37.557234, 55.703598], [37.555239, 55.70236], [37.557645, 55.70062], [37.555909, 55.699124], [37.560683, 55.696733], [37.559781, 55.694234], [37.568324, 55.69519], [37.565648, 55.691979], [37.56576107994555, 55.69184620276322], [37.466281, 55.669792], [37.52250616753771, 55.71293508845532], [37.527352, 55.712201], [37.529434, 55.71497], [37.53071957657754, 55.7149758489835], [37.53272030853992, 55.712118507619394], [37.53751944053479, 55.71415593790794], [37.536085, 55.711641], [37.529089, 55.711566], [37.52336, 55.706857], [37.526191, 55.704945], [37.530052, 55.706257], [37.531567, 55.701933], [37.53662, 55.700863], [37.539262, 55.701894], [37.538578, 55.704631], [37.548173, 55.704443], [37.545281, 55.707514], [37.547173, 55.709623], [37.543835, 55.712764], [37.553899, 55.710271], [37.557352, 55.710322], [37.547593, 55.713788], [37.551088, 55.716405], [37.55383, 55.714785], [37.555158, 55.71555], [37.552324, 55.716839], [37.556159, 55.718736], [37.55434336536815, 55.721298390764915], [37.571455774123315, 55.728563316994304], [37.573605, 55.726443], [37.57576495373902, 55.73039274220645], [37.57959245613548, 55.7320176754903], [37.587236, 55.730761]], [[37.518662, 55.686959], [37.517018, 55.687818], [37.513543, 55.686528], [37.509386, 55.690462], [37.505939, 55.688268], [37.509369, 55.687027], [37.50794, 55.684707], [37.512226, 55.683472], [37.518662, 55.686959]], [[37.52089, 55.696716], [37.518634, 55.701408], [37.518303, 55.699237], [37.5121, 55.695352], [37.516946, 55.694367], [37.52089, 55.696716]]], [[[37.598467, 55.738223], [37.599134, 55.734057], [37.593342, 55.732254], [37.5890800656515, 55.73604555866053], [37.596244313239055, 55.73908707846977], [37.598467, 55.738223]]], [[[37.573795, 55.697296], [37.57086, 55.697309], [37.57308759896382, 55.69905815959442], [37.57424285335176, 55.69755878017859], [37.573795, 55.697296]]]]}}, {"type": "Feature", "properties": {"lobe_id": "школа-1329-pt40-2", "school_id": "школа-1329", "mode": "public_transport", "min": 40, "azimuth": 197.5, "width_deg": 20, "r_max_km": 19.66, "area_km2": 11.89, "elongation": 4.0, "zone_share": 0.1529, "thr_km": 10.94, "k_mad": 3, "suspicious": ""}, "geometry": {"type": "MultiPolygon", "coordinates": [[[[37.400858, 55.642501], [37.389363, 55.64009], [37.381423, 55.64192], [37.379046, 55.649642], [37.376082, 55.647222], [37.377214, 55.643565], [37.368999, 55.640304], [37.370177, 55.638854], [37.365943, 55.638857], [37.367035, 55.640269], [37.365222, 55.640324], [37.36527, 55.63766], [37.360895, 55.634317], [37.354933, 55.63519], [37.349178, 55.633532], [37.345519, 55.634512], [37.345016, 55.642462], [37.348445, 55.64643], [37.359659, 55.644772], [37.357196, 55.646793], [37.358518, 55.649421], [37.367288, 55.654663], [37.37292, 55.653674], [37.375616, 55.656077], [37.381345, 55.654926], [37.388221, 55.658844], [37.397526, 55.660384], [37.3980015449819, 55.66080283921296], [37.466281, 55.669792], [37.43309880441381, 55.65251844231287], [37.430817, 55.651971], [37.427437, 55.653353], [37.427609, 55.651877], [37.422441, 55.649314], [37.415832, 55.649405], [37.416145, 55.644246], [37.41202234817469, 55.64154673365238], [37.40973796648516, 55.64035755981393], [37.400858, 55.642501]], [[37.411463, 55.643572], [37.410893, 55.645706], [37.40423, 55.644201], [37.40876, 55.641982], [37.411463, 55.643572]]], [[[37.329507, 55.631361], [37.328251, 55.629783], [37.324954, 55.633185], [37.328079, 55.637248], [37.334995, 55.638572], [37.338631, 55.635021], [37.343766, 55.635064], [37.335846, 55.629173], [37.329507, 55.631361]]], [[[37.32592, 55.602812], [37.3368, 55.606031], [37.336642, 55.603878], [37.328938, 55.600588], [37.32592, 55.602812]]], [[[37.345183, 55.608152], [37.347755, 55.609934], [37.35029951498311, 55.60941586042615], [37.34626006313156, 55.607313054889936], [37.345183, 55.608152]]], [[[37.334825, 55.622454], [37.336981, 55.625596], [37.335007, 55.626667], [37.337289, 55.627725], [37.339362, 55.626232], [37.338077, 55.622022], [37.334825, 55.622454]]], [[[37.32736, 55.637562], [37.327021, 55.637559], [37.326613, 55.63754], [37.326202, 55.63751], [37.325805, 55.637475], [37.325414, 55.637439], [37.325009, 55.637397], [37.324629, 55.637364], [37.32427, 55.637355], [37.323922, 55.637403], [37.323594, 55.637523], [37.323321, 55.637712], [37.323129, 55.637929], [37.323011, 55.638146], [37.322971, 55.638351], [37.323005, 55.638552], [37.323097, 55.638779], [37.323226, 55.63901], [37.323359, 55.639233], [37.323485, 55.639422], [37.323612, 55.639584], [37.32375, 55.639681], [37.323919, 55.63974], [37.324189, 55.639779], [37.324583, 55.639837], [37.325037, 55.639931], [37.325446, 55.640071], [37.32573, 55.640275], [37.325911, 55.640535], [37.326015, 55.640765], [37.326067, 55.640937], [37.326078, 55.641125], [37.326067, 55.641398], [37.326058, 55.641596], [37.326058, 55.641794], [37.326055, 55.642047], [37.326049, 55.642248], [37.326044, 55.642446], [37.326041, 55.642683], [37.326058, 55.642864], [37.32611, 55.642945], [37.326207, 55.642971], [37.32632, 55.642945], [37.326406, 55.642838], [37.32644, 55.642666], [37.326452, 55.642456], [37.326455, 55.642238], [37.326475, 55.642027], [37.326512, 55.6418], [37.326552, 55.641583], [37.326595, 55.641365], [37.326662, 55.641164], [37.326802, 55.640943], [37.327018, 55.640713], [37.327234, 55.640505], [37.327369, 55.640366], [37.327446, 55.640256], [37.32755, 55.64011], [37.327702, 55.639892], [37.327878, 55.639649], [37.328041, 55.639409], [37.328171, 55.639208], [37.32828, 55.639052], [37.328398, 55.638938], [37.328556, 55.638799], [37.32872, 55.638597], [37.328795, 55.638374], [37.328682, 55.638189], [37.328383, 55.638046], [37.32799, 55.63789], [37.327682, 55.637721], [37.327616, 55.637598], [37.32736, 55.637562]]], [[[37.311317, 55.630186], [37.311567, 55.630355], [37.311829, 55.630533], [37.312128, 55.630695], [37.312467, 55.630841], [37.312855, 55.630958], [37.313208, 55.631056], [37.313527, 55.631101], [37.313864, 55.631095], [37.314269, 55.63103], [37.314692, 55.630942], [37.315088, 55.630851], [37.315433, 55.63078], [37.315747, 55.630712], [37.316026, 55.630634], [37.316307, 55.630517], [37.316609, 55.630371], [37.316879, 55.630208], [37.317058, 55.630056], [37.317106, 55.629939], [37.317032, 55.629845], [37.316816, 55.629722], [37.316575801074585, 55.62957833671866], [37.31115691905921, 55.630055499233045], [37.311317, 55.630186]]], [[[37.317865, 55.600841], [37.322942, 55.600834], [37.319507, 55.599379], [37.3184909726664, 55.599385399396965], [37.31784470693476, 55.60077132073097], [37.317865, 55.600841]]]]}}, {"type": "Feature", "properties": {"lobe_id": "школа-1534-академиче-pt20-1", "school_id": "школа-1534-академическая-школа-1534", "mode": "public_transport", "min": 20, "azimuth": 217.4, "width_deg": 10, "r_max_km": 6.92, "area_km2": 0.46, "elongation": 11.6, "zone_share": 0.0542, "thr_km": 3.79, "k_mad": 3, "suspicious": ""}, "geometry": {"type": "MultiPolygon", "coordinates": [[[[37.550036, 55.666928], [37.54988024945219, 55.66733867235868], [37.574112, 55.682776], [37.56333551094931, 55.67290116713639], [37.562963, 55.673627], [37.559419, 55.673329], [37.55856934423921, 55.668533779999365], [37.55712809446829, 55.66721311790472], [37.550036, 55.666928]]], [[[37.537212, 55.655454], [37.538535, 55.659239], [37.543039, 55.659142], [37.541743, 55.655094], [37.537212, 55.655454]]], [[[37.526036, 55.643662], [37.526283, 55.64374], [37.526507, 55.643679], [37.526654, 55.64352], [37.526697, 55.643319], [37.526674, 55.643121], [37.526617, 55.642945], [37.526573, 55.642835], [37.52651596080188, 55.642812439720146], [37.52588620585372, 55.64356295244206], [37.526036, 55.643662]]]]}}, {"type": "Feature", "properties": {"lobe_id": "лицей-1533-лит-pt20-1", "school_id": "лицей-1533-лит", "mode": "public_transport", "min": 20, "azimuth": 155.0, "width_deg": 15, "r_max_km": 5.11, "area_km2": 1.24, "elongation": 5.5, "zone_share": 0.1589, "thr_km": 4.01, "k_mad": 3, "suspicious": ""}, "geometry": {"type": "Polygon", "coordinates": [[[37.517878, 55.705697], [37.52251749936841, 55.70579474120192], [37.5437, 55.6923], [37.51463048609538, 55.70146558252743], [37.514316, 55.704502], [37.507957, 55.704916], [37.507837619419725, 55.705301871363055], [37.508423639072795, 55.70691194712722], [37.50527601835985, 55.71230175586281], [37.505557, 55.712871], [37.510366, 55.712376], [37.511982, 55.710105], [37.51824624875194, 55.70851582794613], [37.518345788760826, 55.70845241396671], [37.517878, 55.705697]]]}}, {"type": "Feature", "properties": {"lobe_id": "лицей-1533-лит-pt20-2", "school_id": "лицей-1533-лит", "mode": "public_transport", "min": 20, "azimuth": 202.4, "width_deg": 10, "r_max_km": 7.56, "area_km2": 0.6, "elongation": 10.0, "zone_share": 0.0774, "thr_km": 4.01, "k_mad": 3, "suspicious": ""}, "geometry": {"type": "MultiPolygon", "coordinates": [[[[37.526295, 55.686635], [37.525924, 55.684363], [37.521672, 55.682425], [37.511988, 55.680535], [37.517182, 55.683796], [37.51724499287095, 55.683958768292435], [37.5437, 55.6923], [37.53228237782854, 55.68635636210189], [37.526295, 55.686635]]], [[[37.527022, 55.683708], [37.527126353936694, 55.68367230595194], [37.52706380963277, 55.68363974744811], [37.527022, 55.683708]]], [[[37.508932, 55.679909], [37.509797, 55.67658], [37.504669, 55.674664], [37.501317, 55.675948], [37.50186112338989, 55.67910825287678], [37.50207659534122, 55.67917619092207], [37.508932, 55.679909]]], [[[37.482296, 55.66388], [37.482468, 55.664085], [37.482618, 55.66423], [37.482721, 55.664354], [37.482836, 55.664516], [37.483014, 55.664714], [37.483262, 55.664882], [37.483506, 55.664983], [37.483707, 55.665015], [37.483908, 55.664986], [37.484167, 55.664892], [37.484478, 55.664736], [37.484756, 55.664561], [37.484932, 55.664415], [37.484984, 55.664312], [37.484929, 55.664221], [37.484791, 55.664081], [37.484598, 55.663877], [37.484368, 55.663627], [37.484098, 55.663381], [37.483822, 55.66319], [37.483584, 55.663047], [37.483394, 55.662917], [37.483253, 55.662787], [37.483164, 55.662693], [37.483132, 55.662661], [37.48266094682879, 55.662627683862155], [37.48217276102199, 55.66367460170332], [37.482296, 55.66388]]]]}}, {"type": "Feature", "properties": {"lobe_id": "школа-1448-шуваловск-pt20-1", "school_id": "школа-1448-шуваловская-школа-1448", "mode": "public_transport", "min": 20, "azimuth": 22.5, "width_deg": 10, "r_max_km": 4.04, "area_km2": 0.72, "elongation": 6.7, "zone_share": 0.1012, "thr_km": 3.64, "k_mad": 3, "suspicious": ""}, "geometry": {"type": "Polygon", "coordinates": [[[37.522986, 55.706886], [37.52296602482524, 55.7059837251249], [37.493322, 55.696637], [37.52386979199703, 55.712539173980765], [37.52614845092332, 55.711974965585526], [37.52668919639075, 55.7108153331884], [37.522986, 55.706886]]]}}, {"type": "Feature", "properties": {"lobe_id": "школа-1448-шуваловск-pt20-2", "school_id": "школа-1448-шуваловская-школа-1448", "mode": "public_transport", "min": 20, "azimuth": 209.0, "width_deg": 25, "r_max_km": 12.49, "area_km2": 2.06, "elongation": 4.9, "zone_share": 0.2912, "thr_km": 3.64, "k_mad": 3, "suspicious": ""}, "geometry": {"type": "Polygon", "coordinates": [[[37.467627, 55.674353], [37.46681557477181, 55.674358807207234], [37.465825775077214, 55.67553840454921], [37.45315113659141, 55.67104533757143], [37.443048170746884, 55.67023781851137], [37.442971, 55.671393], [37.447625, 55.673676], [37.459934, 55.675809], [37.457255, 55.678918], [37.462705, 55.681806], [37.461806, 55.683575], [37.469998, 55.683705], [37.47081637244506, 55.68954100288897], [37.476010809468235, 55.69117880259129], [37.476219, 55.691198], [37.47622609935688, 55.691246683232436], [37.493322, 55.696637], [37.47726126255252, 55.68192004559916], [37.47435, 55.682561], [37.47431475660863, 55.67922007034835], [37.47290061649946, 55.67792424968189], [37.471585, 55.677932], [37.47222678914855, 55.677306800674344], [37.47019612309155, 55.6754460380623], [37.467627, 55.674353]]]}}, {"type": "Feature", "properties": {"lobe_id": "школа-1448-шуваловск-pt40-1", "school_id": "школа-1448-шуваловская-школа-1448", "mode": "public_transport", "min": 40, "azimuth": 27.1, "width_deg": 30, "r_max_km": 20.42, "area_km2": 20.31, "elongation": 2.6, "zone_share": 0.1406, "thr_km": 14.09, "k_mad": 3, "suspicious": ""}, "geometry": {"type": "MultiPolygon", "coordinates": [[[[37.550335, 55.712897], [37.556547, 55.717065], [37.566453, 55.716026], [37.567744, 55.717959], [37.568557, 55.714624], [37.57056705103883, 55.713761815530894], [37.556434381582065, 55.71062867814343], [37.550335, 55.712897]]], [[[37.627915, 55.753109], [37.622876, 55.751575], [37.619297, 55.753099], [37.62028, 55.750397], [37.613389, 55.749766], [37.615223, 55.748524], [37.613249, 55.745964], [37.618753, 55.744637], [37.617279, 55.740592], [37.621982, 55.736892], [37.619964, 55.734303], [37.615488, 55.735335], [37.610972, 55.740783], [37.611541, 55.746003], [37.601397, 55.743051], [37.5986, 55.743873], [37.598278, 55.746712], [37.593747, 55.74267], [37.593359, 55.740741], [37.597585, 55.740767], [37.599724, 55.736799], [37.60242, 55.73643], [37.59968, 55.734934], [37.603072, 55.732898], [37.607157, 55.732118], [37.613688, 55.734322], [37.61658, 55.730415], [37.614884, 55.726485], [37.604777, 55.72406], [37.605835, 55.729732], [37.602443, 55.732202], [37.597593, 55.733066], [37.594397, 55.730528], [37.588645, 55.730515], [37.584543, 55.739504], [37.580283, 55.74211], [37.578135, 55.738747], [37.569922, 55.73686], [37.566436, 55.737543], [37.549211, 55.728492], [37.552888, 55.728395], [37.552959, 55.723218], [37.545882, 55.727174], [37.543462, 55.726546], [37.537606, 55.718066], [37.544712, 55.708907], [37.547478, 55.709049], [37.545422, 55.71097], [37.546997, 55.711644], [37.553908, 55.710251], [37.55477890228707, 55.71026166721961], [37.493322, 55.696637], [37.54991204593164, 55.74849222322624], [37.557268, 55.748504], [37.565349, 55.751436], [37.570702, 55.751449], [37.574482, 55.746482], [37.57464, 55.754532], [37.57134, 55.755519], [37.56883, 55.753885], [37.564145, 55.755014], [37.550599866477285, 55.74912249463435], [37.562364726000524, 55.75990300217343], [37.563854, 55.759741], [37.56297336919292, 55.76046072090447], [37.56652191952341, 55.763712368194874], [37.567683, 55.762616], [37.574223, 55.764796], [37.582965, 55.764337], [37.583752, 55.76554], [37.588357, 55.758227], [37.586848, 55.756263], [37.591841, 55.753539], [37.598594, 55.758236], [37.603351, 55.756764], [37.609244, 55.75747], [37.613614, 55.762131], [37.617193, 55.762852], [37.6253164786906, 55.76163093960932], [37.62913582038071, 55.75770264511875], [37.627915, 55.753109]], [[37.551597, 55.736546], [37.557429, 55.735562], [37.558559, 55.738605], [37.556093, 55.739624], [37.551953, 55.737284], [37.548432, 55.738058], [37.542053, 55.736766], [37.541677, 55.734937], [37.543513, 55.734047], [37.544867, 55.734989], [37.54569, 55.733487], [37.551597, 55.736546]]], [[[37.591436, 55.775271], [37.586428, 55.771753], [37.57640191479443, 55.77276571586086], [37.58581456229308, 55.781390818193906], [37.586052, 55.781525], [37.58990454353669, 55.78038524636505], [37.5913359678655, 55.778679341278675], [37.591436, 55.775271]]], [[[37.557717, 55.718957], [37.554897, 55.723457], [37.559623, 55.725196], [37.560488, 55.727242], [37.567715, 55.727045], [37.571032, 55.724898], [37.570365, 55.720731], [37.567557, 55.71939], [37.570296, 55.71804], [37.557717, 55.718957]]], [[[37.619084, 55.727194], [37.617684, 55.729334], [37.620475, 55.73172], [37.626532, 55.730998], [37.62849264341425, 55.72810361527168], [37.624519853991174, 55.72573652393992], [37.619084, 55.727194]]], [[[37.576758, 55.725899], [37.578863, 55.730502], [37.585069, 55.729279], [37.582025, 55.725076], [37.576758, 55.725899]]], [[[37.633121, 55.730972], [37.634023, 55.733147], [37.6364306685767, 55.732833297253855], [37.63326459579567, 55.73094686869256], [37.633121, 55.730972]]], [[[37.58638, 55.723049], [37.586834, 55.726297], [37.590697, 55.727906], [37.592011, 55.726553], [37.588809, 55.722525], [37.58638, 55.723049]]], [[[37.650052, 55.741155], [37.652714, 55.743187], [37.65319338878626, 55.74282096221143], [37.650262997316304, 55.74107495870898], [37.650052, 55.741155]]]]}}, {"type": "Feature", "properties": {"lobe_id": "школа-1448-шуваловск-pt40-2", "school_id": "школа-1448-шуваловская-школа-1448", "mode": "public_transport", "min": 40, "azimuth": 202.3, "width_deg": 20, "r_max_km": 23.79, "area_km2": 20.16, "elongation": 5.0, "zone_share": 0.1396, "thr_km": 14.09, "k_mad": 3, "suspicious": ""}, "geometry": {"type": "Polygon", "coordinates": [[[37.370663, 55.639376], [37.36974663031625, 55.63758515456969], [37.35042225610874, 55.6374459880206], [37.32091536961589, 55.634988461051336], [37.323609, 55.640976], [37.320734, 55.644318], [37.315936, 55.643273], [37.31154354310657, 55.644948896994215], [37.31334179126209, 55.64597485299934], [37.313533, 55.645966], [37.316983, 55.64763], [37.318515, 55.646443], [37.326182, 55.646998], [37.32705, 55.645424], [37.328461, 55.646352], [37.333216, 55.644934], [37.33317, 55.643169], [37.339925, 55.643322], [37.338804, 55.648529], [37.344306, 55.653421], [37.349279, 55.652075], [37.348563, 55.649165], [37.351375, 55.646754], [37.353953, 55.648769], [37.353855, 55.650702], [37.350935, 55.651552], [37.352622, 55.652665], [37.345347, 55.655626], [37.345786, 55.657138], [37.349153, 55.656784], [37.354813, 55.659275], [37.353778, 55.658442], [37.358159, 55.657877], [37.36028, 55.655678], [37.367524, 55.656752], [37.374438, 55.655107], [37.383702, 55.659966], [37.384821, 55.658448], [37.394045, 55.660634], [37.396207, 55.665479], [37.400461, 55.666575], [37.403293, 55.66972], [37.411244, 55.669522], [37.419333, 55.666491], [37.422656, 55.669571], [37.428624, 55.671338], [37.429918, 55.67531], [37.426899, 55.676554], [37.430858, 55.677838], [37.430849, 55.679887], [37.422461, 55.67907], [37.421889004545484, 55.68080068617114], [37.43722728198075, 55.68420110041267], [37.435293, 55.681008], [37.442209, 55.679144], [37.445576, 55.68165], [37.443443, 55.682704], [37.440901, 55.681673], [37.441338, 55.683893], [37.43880272841919, 55.68455036847936], [37.4397260274644, 55.684755058949705], [37.4421, 55.684671], [37.449327, 55.685672], [37.4499845803156, 55.687029325363255], [37.493322, 55.696637], [37.40346349996726, 55.639390821948375], [37.40204, 55.639717], [37.396356, 55.63742], [37.393005, 55.639707], [37.387511, 55.639931], [37.38403, 55.638993], [37.39302768196634, 55.63274247265279], [37.39083635134914, 55.63134644108497], [37.384875, 55.631585], [37.38291246107945, 55.632660861295385], [37.38002667614592, 55.63765918741998], [37.37387554067794, 55.63761488935957], [37.370663, 55.639376]]]}}, {"type": "Feature", "properties": {"lobe_id": "школа-1448-шуваловск-pt40-3", "school_id": "школа-1448-шуваловская-школа-1448", "mode": "public_transport", "min": 40, "azimuth": 340.1, "width_deg": 15, "r_max_km": 18.6, "area_km2": 12.77, "elongation": 5.2, "zone_share": 0.0884, "thr_km": 14.09, "k_mad": 3, "suspicious": ""}, "geometry": {"type": "MultiPolygon", "coordinates": [[[[37.59329, 55.647374], [37.590579, 55.6469], [37.587242, 55.649116], [37.58521266640847, 55.64880174681451], [37.56140538595162, 55.66119503258359], [37.57685, 55.663965], [37.576557, 55.667126], [37.582732, 55.668624], [37.581562, 55.672012], [37.587147, 55.671724], [37.589533, 55.669244], [37.592965, 55.66996], [37.592393, 55.668216], [37.588087, 55.667084], [37.588573, 55.665485], [37.580271, 55.662998], [37.587228, 55.657154], [37.599235, 55.660439], [37.603294, 55.666458], [37.606738, 55.664931], [37.610572, 55.665755], [37.612659, 55.663598], [37.607657, 55.657174], [37.610193, 55.656476], [37.617132, 55.659729], [37.621527, 55.665664], [37.622925, 55.665103], [37.621677, 55.659113], [37.629746, 55.655227], [37.627619, 55.654566], [37.630723, 55.652169], [37.624968, 55.6508], [37.620501, 55.6469], [37.622163, 55.645544], [37.619323, 55.642017], [37.617443, 55.642897], [37.618236, 55.647887], [37.610958, 55.650271], [37.606421, 55.647621], [37.610009, 55.641515], [37.612544, 55.640123], [37.613323, 55.641012], [37.61606, 55.640931], [37.611348, 55.637695], [37.60608980133069, 55.63793379826408], [37.60105497612423, 55.64055476237185], [37.600994, 55.640677], [37.60055051914661, 55.64081736605282], [37.591531007800164, 55.64551262647186], [37.59329, 55.647374]]], [[[37.57073, 55.675951], [37.574668, 55.675442], [37.57539, 55.673228], [37.572423, 55.672768], [37.569948, 55.674891], [37.564492, 55.673432], [37.564872, 55.667548], [37.570276, 55.664999], [37.564104, 55.665868], [37.558453, 55.664847], [37.55882510550565, 55.662538241564945], [37.493322, 55.696637], [37.570063074772364, 55.679623913317485], [37.57073, 55.675951]]], [[[37.652993, 55.651283], [37.648204, 55.650683], [37.641037, 55.651251], [37.641009, 55.654546], [37.643395, 55.657887], [37.649164, 55.658338], [37.648922, 55.660044], [37.651599, 55.660164], [37.653924, 55.659609], [37.654909358547286, 55.65486022369322], [37.654435019639756, 55.65308996679029], [37.652993, 55.651283]]], [[[37.630861, 55.647147], [37.627282, 55.64729], [37.630775, 55.649392], [37.634601, 55.648253], [37.633164, 55.647436], [37.637093, 55.645401], [37.635875, 55.64413], [37.630861, 55.647147]]], [[[37.637916, 55.658944], [37.632931, 55.662538], [37.638088, 55.66185], [37.641451, 55.659061], [37.637916, 55.658944]]]]}}, {"type": "Feature", "properties": {"lobe_id": "лицей-вторая-школа-в-pt20-1", "school_id": "лицей-вторая-школа-в-ф-овчинникова", "mode": "public_transport", "min": 20, "azimuth": 23.0, "width_deg": 20, "r_max_km": 5.92, "area_km2": 1.67, "elongation": 5.1, "zone_share": 0.2992, "thr_km": 3.28, "k_mad": 3, "suspicious": ""}, "geometry": {"type": "Polygon", "coordinates": [[[37.594066, 55.715589], [37.595251, 55.714202], [37.592086, 55.713121], [37.589984, 55.707129], [37.583508, 55.704411], [37.58308553212543, 55.70389717225549], [37.55673699525189, 55.69805584226217], [37.556909786977, 55.69828928731196], [37.57317839178088, 55.70865353161734], [37.573846, 55.708758], [37.578259, 55.710147], [37.578503634054066, 55.71204608510118], [37.57889851891008, 55.71229765449939], [37.587751, 55.713607], [37.596668, 55.71919], [37.596826, 55.722654], [37.59919365358735, 55.72270369535637], [37.6002846295819, 55.72081406950398], [37.6031946742815, 55.71944683488552], [37.594066, 55.715589]]]}}, {"type": "Feature", "properties": {"lobe_id": "лицей-вторая-школа-в-pt20-2", "school_id": "лицей-вторая-школа-в-ф-овчинникова", "mode": "public_transport", "min": 20, "azimuth": 215.0, "width_deg": 15, "r_max_km": 4.11, "area_km2": 0.8, "elongation": 5.2, "zone_share": 0.1426, "thr_km": 3.28, "k_mad": 3, "suspicious": ""}, "geometry": {"type": "Polygon", "coordinates": [[[37.536591, 55.680512], [37.53352224245372, 55.67875303655701], [37.532679219665305, 55.679757711993744], [37.52677288714256, 55.678473760371034], [37.52695, 55.678986], [37.532242, 55.681838], [37.53255485232943, 55.685556179125136], [37.5551999235914, 55.69734445708151], [37.5557266207502, 55.6973363083545], [37.53742034501601, 55.68056169721911], [37.536591, 55.680512]]]}}, {"type": "Feature", "properties": {"lobe_id": "университетская-гимн-pt40-1", "school_id": "университетская-гимназия-мгу", "mode": "public_transport", "min": 40, "azimuth": 25.0, "width_deg": 25, "r_max_km": 13.55, "area_km2": 9.64, "elongation": 3.1, "zone_share": 0.1091, "thr_km": 9.98, "k_mad": 3, "suspicious": ""}, "geometry": {"type": "MultiPolygon", "coordinates": [[[[37.58736, 55.715647], [37.597484, 55.719429], [37.599103, 55.722013], [37.602601, 55.721291], [37.59990744023681, 55.71842867864262], [37.5873599767613, 55.71564697296039], [37.58736, 55.715647]]], [[[37.619745, 55.752381], [37.611265, 55.748663], [37.613047, 55.747647], [37.609422, 55.744407], [37.611075, 55.742712], [37.601762, 55.740119], [37.604837, 55.737562], [37.599744, 55.734931], [37.603432, 55.734966], [37.60641, 55.731519], [37.596283, 55.731752], [37.592212, 55.727828], [37.593014, 55.724432], [37.587127, 55.722661], [37.578788, 55.71463], [37.579275787722835, 55.71385475139877], [37.519501, 55.700603], [37.537985087380136, 55.71478633909494], [37.538785, 55.712943], [37.540797, 55.712269], [37.539176, 55.713733], [37.541125, 55.71576], [37.550344, 55.710951], [37.557234, 55.710287], [37.549651, 55.711841], [37.544042, 55.716155], [37.551577, 55.721324], [37.54918182836898, 55.723377900633096], [37.56001823149587, 55.73169296520498], [37.572124, 55.731584], [37.574125, 55.735209], [37.582574, 55.737838], [37.584865, 55.740553], [37.5883, 55.740074], [37.593215, 55.74188], [37.594387606561895, 55.74691496366409], [37.61719312463321, 55.75373389690686], [37.619745, 55.752381]]], [[[37.573435, 55.740071], [37.57037035584296, 55.739636429599415], [37.57304372969771, 55.741687781507125], [37.573435, 55.740071]]], [[[37.587231, 55.745278], [37.582531, 55.745501], [37.58072858347221, 55.747584577206965], [37.58494310282878, 55.75081849165062], [37.58710095461909, 55.75018900483159], [37.58819602991986, 55.748625075223565], [37.587231, 55.745278]]], [[[37.607701, 55.731004], [37.608625713798325, 55.73116519017619], [37.60770809527207, 55.72925856307053], [37.607701, 55.731004]]]]}}, {"type": "Feature", "properties": {"lobe_id": "университетская-гимн-pt40-2", "school_id": "университетская-гимназия-мгу", "mode": "public_transport", "min": 40, "azimuth": 209.3, "width_deg": 30, "r_max_km": 19.44, "area_km2": 12.74, "elongation": 3.5, "zone_share": 0.1442, "thr_km": 9.98, "k_mad": 3, "suspicious": ""}, "geometry": {"type": "MultiPolygon", "coordinates": [[[[37.453098, 55.684661], [37.456235, 55.681349], [37.454895, 55.678373], [37.459905, 55.681193], [37.458299, 55.684499], [37.465267, 55.684791], [37.469504, 55.6868], [37.467475985448054, 55.689069331949916], [37.519501, 55.700603], [37.465546241014124, 55.64172171284557], [37.46432796140706, 55.642957841729526], [37.46543, 55.643542], [37.46321691822972, 55.644085163039726], [37.46131811543081, 55.64601178560736], [37.461524, 55.646099], [37.461639, 55.649525], [37.468814, 55.651993], [37.467739, 55.655918], [37.463858, 55.655289], [37.459713, 55.665686], [37.449215, 55.663974], [37.443535, 55.665706], [37.438671, 55.663598], [37.437716, 55.660842], [37.436546, 55.661886], [37.435261, 55.660916], [37.434882, 55.663319], [37.43801, 55.665346], [37.436406, 55.670745], [37.440456, 55.672505], [37.440065, 55.674068], [37.437351, 55.674022], [37.4388, 55.67611], [37.448979, 55.67801], [37.451882, 55.681151], [37.447789, 55.682328], [37.447811795372914, 55.684534195657], [37.44786219624995, 55.684555016079976], [37.453098, 55.684661]], [[37.471298, 55.669098], [37.466112, 55.671393], [37.47107, 55.669646], [37.473212, 55.67281], [37.480496, 55.675378], [37.481445, 55.678927], [37.486131, 55.679864], [37.479881, 55.679741], [37.474908, 55.682525], [37.474132, 55.679235], [37.476521, 55.677485], [37.471941, 55.678078], [37.473387, 55.675533], [37.469938, 55.673368], [37.464134, 55.672787], [37.46048, 55.669467], [37.472016, 55.666056], [37.471298, 55.669098]]], [[[37.409056, 55.655587], [37.406961, 55.657988], [37.401151, 55.658315], [37.401594, 55.660378], [37.405455, 55.660183], [37.407553, 55.662275], [37.412515, 55.662307], [37.417815, 55.664736], [37.422702, 55.663692], [37.428696, 55.661059], [37.426981614330266, 55.65814926285412], [37.422681957299204, 55.6571584830085], [37.411625723591904, 55.6553177498332], [37.409056, 55.655587]]], [[[37.393677, 55.65501], [37.397055, 55.65367], [37.39736634244677, 55.652943730196135], [37.385093758795506, 55.65090048902816], [37.393677, 55.65501]]], [[[37.434494, 55.636965], [37.437972, 55.637209], [37.438518961540495, 55.63677083773174], [37.43127056267402, 55.63312000696942], [37.434494, 55.636965]]], [[[37.373069, 55.65005], [37.37382169093681, 55.649023821999315], [37.365660592115084, 55.64766509481013], [37.373069, 55.65005]]]]}}, {"type": "Feature", "properties": {"lobe_id": "школа-192-pt20-1", "school_id": "школа-192", "mode": "public_transport", "min": 20, "azimuth": 207.5, "width_deg": 10, "r_max_km": 5.72, "area_km2": 1.27, "elongation": 7.2, "zone_share": 0.1238, "thr_km": 4.44, "k_mad": 3, "suspicious": ""}, "geometry": {"type": "MultiPolygon", "coordinates": [[[[37.535381, 55.681028], [37.534246, 55.682418], [37.535755, 55.686071], [37.539196, 55.686813], [37.539860553190245, 55.68904456961285], [37.577842, 55.704777], [37.548390158144464, 55.68601410742784], [37.543462, 55.685073], [37.543433296089866, 55.68285623802593], [37.54240159453284, 55.68219897164592], [37.535381, 55.681028]]], [[[37.532765, 55.680872], [37.533162, 55.680914], [37.533596, 55.68096], [37.534007, 55.680973], [37.534318, 55.680901], [37.534487, 55.680739], [37.53455, 55.680535], [37.534568, 55.680321], [37.534579, 55.680101], [37.534559, 55.679893], [37.534464, 55.679712], [37.534272, 55.679546], [37.534016, 55.679381], [37.533743, 55.679239], [37.533556, 55.679151], [37.53342482460434, 55.6791170805041], [37.53244164450703, 55.68081999838563], [37.532765, 55.680872]]]]}}, {"type": "Feature", "properties": {"lobe_id": "школа-192-pt40-1", "school_id": "школа-192", "mode": "public_transport", "min": 40, "azimuth": 15.0, "width_deg": 15, "r_max_km": 18.69, "area_km2": 9.88, "elongation": 4.2, "zone_share": 0.0661, "thr_km": 16.43, "k_mad": 3, "suspicious": ""}, "geometry": {"type": "MultiPolygon", "coordinates": [[[[37.723266, 55.731882], [37.725341, 55.733885], [37.734603, 55.73305], [37.732582, 55.730286], [37.723266, 55.731882]]], [[[37.711054, 55.723092], [37.708824, 55.727968], [37.71365, 55.72867], [37.721682, 55.726423], [37.727718, 55.72855], [37.725951, 55.726291], [37.72736347298921, 55.72446187536198], [37.71234761537886, 55.72248500020416], [37.711054, 55.723092]]], [[[37.70924, 55.750436], [37.715964, 55.756891], [37.71814919757426, 55.75598364030397], [37.72042424164011, 55.749733008104776], [37.7223896326546, 55.74893928055043], [37.719974, 55.747747], [37.70924, 55.750436]]], [[[37.706722634881906, 55.758161106895336], [37.709992972197675, 55.75951572496506], [37.710295, 55.759407], [37.71637168949826, 55.760867303605664], [37.717309757523665, 55.75828998288795], [37.71624, 55.757654], [37.71482, 55.758683], [37.713946, 55.756842], [37.708068, 55.756289], [37.706722634881906, 55.758161106895336]]], [[[37.688359, 55.749051], [37.706067, 55.749624], [37.703304, 55.747569], [37.697983, 55.748417], [37.69176, 55.746598], [37.690906, 55.743178], [37.687143, 55.741165], [37.676867, 55.741424], [37.679457, 55.73799], [37.672819, 55.736006], [37.67584, 55.729583], [37.669916, 55.72708], [37.663186, 55.726996], [37.656011, 55.729654], [37.656207, 55.732344], [37.648563, 55.733639], [37.65445, 55.72822], [37.656813, 55.722204], [37.653829, 55.720896], [37.651567, 55.72293], [37.645878, 55.721294], [37.645025, 55.718325], [37.647836, 55.717438], [37.64259332947084, 55.71330167424694], [37.64184574915097, 55.713203253430684], [37.639721, 55.71486], [37.64008, 55.718665], [37.637812, 55.718432], [37.635124, 55.714633], [37.63672493945808, 55.712529086044945], [37.577842, 55.704777], [37.689545276017476, 55.751046011887944], [37.688359, 55.749051]]], [[[37.673762, 55.720181], [37.6780487804751, 55.71796947292474], [37.67097687991674, 55.71703843955354], [37.673762, 55.720181]]], [[[37.686373, 55.721544], [37.682728, 55.723276], [37.684088, 55.724736], [37.678801, 55.725876], [37.680371, 55.730464], [37.680785, 55.727835], [37.690647, 55.726491], [37.693286, 55.722642], [37.703414, 55.721382], [37.70343452043876, 55.72131156899406], [37.68703576601349, 55.71915263201665], [37.686373, 55.721544]]], [[[37.661838, 55.724377], [37.664241, 55.725996], [37.667507, 55.724578], [37.664845, 55.72246], [37.661838, 55.724377]]]]}}, {"type": "Feature", "properties": {"lobe_id": "новая-школа-pt40-1", "school_id": "новая-школа", "mode": "public_transport", "min": 40, "azimuth": 207.6, "width_deg": 20, "r_max_km": 17.26, "area_km2": 6.1, "elongation": 5.2, "zone_share": 0.1207, "thr_km": 9.95, "k_mad": 3, "suspicious": ""}, "geometry": {"type": "MultiPolygon", "coordinates": [[[[37.436107, 55.680542], [37.44028, 55.678723], [37.43997, 55.677131], [37.443172, 55.679358], [37.450922, 55.679909], [37.448945, 55.684545], [37.452958, 55.684561], [37.454858, 55.682999], [37.457008, 55.687157], [37.4618, 55.687367], [37.464574, 55.689986], [37.463433, 55.691668], [37.457143, 55.692682], [37.45748996900902, 55.69449188397757], [37.49031, 55.70484], [37.434946213728765, 55.66235787263738], [37.433741, 55.66926], [37.438165, 55.672119], [37.437929, 55.675961], [37.430547, 55.678392], [37.43086, 55.682457], [37.42863950535963, 55.68524645273962], [37.42950608252132, 55.68566859845987], [37.43461197802574, 55.68727848112856], [37.436107, 55.680542]]], [[[37.422806, 55.653275], [37.416967, 55.653093], [37.414446, 55.651504], [37.41586160273483, 55.647713735566654], [37.41526310749959, 55.64725449402048], [37.41141510240656, 55.649369320693175], [37.41030462222347, 55.65095525075317], [37.413641, 55.652704], [37.406573, 55.654514], [37.401597, 55.658442], [37.405687, 55.660277], [37.402833, 55.661091], [37.405593, 55.662648], [37.421923, 55.665638], [37.425465, 55.664558], [37.424013, 55.66365], [37.430127, 55.662972], [37.42980856415225, 55.658415615462545], [37.423951292442545, 55.65392117280376], [37.422806, 55.653275]]], [[[37.380727, 55.648743], [37.386108, 55.654147], [37.390475, 55.653833], [37.394784, 55.656259], [37.399912, 55.654517], [37.40080337377998, 55.65168785713311], [37.38268160759412, 55.648812205209644], [37.38082868145047, 55.64863970985207], [37.380727, 55.648743]]], [[[37.363183, 55.649184], [37.368849, 55.651582], [37.376688, 55.651552], [37.375397578252915, 55.648134109512156], [37.363194852555665, 55.64699811521486], [37.363183, 55.649184]]], [[[37.397406, 55.65693], [37.397041, 55.656878], [37.39671, 55.656895], [37.396428, 55.656956], [37.396241, 55.657044], [37.396175, 55.657157], [37.396227, 55.6573], [37.396328, 55.657472], [37.396466, 55.657663], [37.396687, 55.657845], [37.397032, 55.658004], [37.39748, 55.658143], [37.397961, 55.658267], [37.39836, 55.658367], [37.398627, 55.658403], [37.398898, 55.658364], [37.399286, 55.65825], [37.399682, 55.658101], [37.399938, 55.657962], [37.400013, 55.657845], [37.399935, 55.657764], [37.399737, 55.657718], [37.399438, 55.657676], [37.399041, 55.657624], [37.398607, 55.657534], [37.398219, 55.657394], [37.397961, 55.657222], [37.397831, 55.657096], [37.397406, 55.65693]]]]}}, {"type": "Feature", "properties": {"lobe_id": "новая-школа-pt40-2", "school_id": "новая-школа", "mode": "public_transport", "min": 40, "azimuth": 335.0, "width_deg": 15, "r_max_km": 13.75, "area_km2": 3.59, "elongation": 5.4, "zone_share": 0.0711, "thr_km": 9.95, "k_mad": 3, "suspicious": ""}, "geometry": {"type": "MultiPolygon", "coordinates": [[[[37.559663, 55.675692], [37.55653, 55.680632], [37.545799, 55.679858], [37.543482, 55.686074], [37.54111, 55.685047], [37.541815, 55.683319], [37.538388, 55.682768], [37.535631, 55.679073], [37.533062447766554, 55.6776036869512], [37.49031, 55.70484], [37.55951281407301, 55.683020436535756], [37.55839, 55.681093], [37.564547, 55.680658], [37.56517215214064, 55.67772149768457], [37.56445267384606, 55.67574474731642], [37.559663, 55.675692]]], [[[37.570354, 55.654832], [37.569974, 55.657498], [37.573841, 55.657952], [37.578069, 55.655896], [37.579052, 55.65405], [37.576937, 55.653275], [37.570354, 55.654832]]]]}}, {"type": "Feature", "properties": {"lobe_id": "ломоносовская-школа-pt20-1", "school_id": "ломоносовская-школа", "mode": "public_transport", "min": 20, "azimuth": 17.2, "width_deg": 20, "r_max_km": 6.12, "area_km2": 1.58, "elongation": 4.3, "zone_share": 0.1903, "thr_km": 3.66, "k_mad": 3, "suspicious": ""}, "geometry": {"type": "MultiPolygon", "coordinates": [[[[37.51705, 55.7343], [37.508443, 55.729748], [37.501846, 55.729836], [37.499665130411366, 55.72800431231396], [37.47168, 55.72432], [37.48557413794505, 55.73155283041002], [37.48599, 55.731441], [37.486366768886114, 55.73196544796118], [37.49033272583707, 55.73402999447376], [37.491713, 55.7336], [37.50132, 55.735944], [37.50581259493344, 55.735773083871536], [37.50387272656592, 55.73447032769695], [37.525389918758485, 55.73622720231974], [37.51909655260618, 55.73317520313384], [37.51705, 55.7343]]], [[[37.515567, 55.743796], [37.515342, 55.743683], [37.515158, 55.74355], [37.515015, 55.74342], [37.514934, 55.743336], [37.514667, 55.743255], [37.514328, 55.743217], [37.513954, 55.743139], [37.513638, 55.743045], [37.51354, 55.743184], [37.513505, 55.743352], [37.513534, 55.743514], [37.513618, 55.743692], [37.513724, 55.74387], [37.513827, 55.744029], [37.513951, 55.744197], [37.514106, 55.744388], [37.514305, 55.744589], [37.51454, 55.744754], [37.514828, 55.744838], [37.515164, 55.744793], [37.51533715614219, 55.74472888839039], [37.51574197622889, 55.743860748912894], [37.515567, 55.743796]]]]}}, {"type": "Feature", "properties": {"lobe_id": "ломоносовская-школа-pt20-2", "school_id": "ломоносовская-школа", "mode": "public_transport", "min": 20, "azimuth": 184.8, "width_deg": 15, "r_max_km": 5.74, "area_km2": 0.88, "elongation": 7.3, "zone_share": 0.1059, "thr_km": 3.66, "k_mad": 3, "suspicious": ""}, "geometry": {"type": "Polygon", "coordinates": [[[37.427356, 55.722253], [37.433042, 55.721751], [37.437745, 55.724811], [37.447901, 55.724571], [37.44617807665106, 55.725433438019394], [37.47168, 55.72432], [37.447823444257075, 55.719031128922744], [37.447904, 55.719604], [37.446244221795844, 55.719827034070896], [37.44604703152315, 55.72094535567944], [37.42559261138814, 55.72183754195009], [37.427356, 55.722253]]]}}, {"type": "Feature", "properties": {"lobe_id": "ломоносовская-школа-pt40-1", "school_id": "ломоносовская-школа", "mode": "public_transport", "min": 40, "azimuth": 9.8, "width_deg": 15, "r_max_km": 22.16, "area_km2": 17.34, "elongation": 4.9, "zone_share": 0.1464, "thr_km": 16.69, "k_mad": 3, "suspicious": ""}, "geometry": {"type": "MultiPolygon", "coordinates": [[[[37.587185, 55.729968], [37.58228, 55.739482], [37.571101, 55.736222], [37.566881, 55.736009], [37.566424, 55.737537], [37.549122, 55.728511], [37.54917650150288, 55.727703570327726], [37.517193402909975, 55.72630715808602], [37.517012, 55.726708], [37.51505466705296, 55.726213778861876], [37.47168, 55.72432], [37.561720457283926, 55.75270964713173], [37.567973, 55.753484], [37.568633738038095, 55.7548893961807], [37.587509324640834, 55.760840845775924], [37.590663, 55.757583], [37.588285, 55.756936], [37.589904, 55.755266], [37.594857, 55.756939], [37.592727, 55.757641], [37.599091, 55.7591], [37.604412, 55.757489], [37.608304, 55.758052], [37.612493, 55.762765], [37.617437, 55.763875], [37.61832503650871, 55.76368913613535], [37.62005977494596, 55.75721500414968], [37.63054954294384, 55.75573542840566], [37.629749, 55.753011], [37.613231, 55.747187], [37.618618, 55.74489], [37.61742, 55.740725], [37.624207, 55.736844], [37.619682, 55.732956], [37.624431, 55.733218], [37.62781570670126, 55.731137032176264], [37.60311655399673, 55.73005864388014], [37.602296, 55.731739], [37.596283, 55.731749], [37.59470022695103, 55.7296911791055], [37.59021099284406, 55.72949517491145], [37.587185, 55.729968]], [[37.613878, 55.736899], [37.610262, 55.745508], [37.603343, 55.742343], [37.596139, 55.74199], [37.603645, 55.73731], [37.599784, 55.734863], [37.607701, 55.732535], [37.613878, 55.736899]], [[37.546515, 55.733639], [37.548121, 55.735578], [37.545885, 55.737507], [37.542297, 55.736222], [37.545422, 55.733853], [37.541159, 55.733623], [37.538894, 55.736287], [37.534099, 55.733759], [37.536807, 55.73238], [37.532857, 55.729777], [37.536393, 55.729492], [37.546515, 55.733639]]], [[[37.631658, 55.737307], [37.63542, 55.734271], [37.641198, 55.733364], [37.64120525285011, 55.73172163238624], [37.631089793044644, 55.73127998187318], [37.631658, 55.737307]]], [[[37.61259, 55.765835], [37.608468, 55.763894], [37.60246, 55.763997], [37.60198459839058, 55.76540488205791], [37.611478032367735, 55.76839815029321], [37.61259, 55.765835]]], [[[37.649929, 55.741437], [37.651587, 55.743725], [37.654979, 55.744035], [37.656618, 55.740767], [37.652875, 55.738815], [37.649929, 55.741437]]], [[[37.624997, 55.741382], [37.628326, 55.743948], [37.631842, 55.742488], [37.628746, 55.7401], [37.624997, 55.741382]]]]}}, {"type": "Feature", "properties": {"lobe_id": "образовательный-цент-pt20-1", "school_id": "образовательный-центр-протон", "mode": "public_transport", "min": 20, "azimuth": 15.2, "width_deg": 15, "r_max_km": 3.76, "area_km2": 0.41, "elongation": 5.2, "zone_share": 0.0874, "thr_km": 2.86, "k_mad": 3, "suspicious": ""}, "geometry": {"type": "MultiPolygon", "coordinates": [[[[37.511706, 55.749443], [37.512006231497715, 55.749376361612306], [37.51163576328537, 55.749327588546876], [37.511706, 55.749443]]], [[[37.50108694276378, 55.747938809978606], [37.498559, 55.747606], [37.5037863717151, 55.74977124825996], [37.50108694276378, 55.747938809978606]]], [[[37.525165, 55.751753], [37.515635, 55.752956], [37.51694467712038, 55.75522159681667], [37.523218826125465, 55.757820434426925], [37.524705, 55.757961], [37.52604567735108, 55.757630233670355], [37.526488973726295, 55.75641228688932], [37.531563102895106, 55.75492283345716], [37.531551397195265, 55.75491355942968], [37.525165, 55.751753]]]]}}, {"type": "Feature", "properties": {"lobe_id": "образовательный-цент-pt20-2", "school_id": "образовательный-центр-протон", "mode": "public_transport", "min": 20, "azimuth": 197.4, "width_deg": 20, "r_max_km": 4.1, "area_km2": 0.83, "elongation": 4.7, "zone_share": 0.1772, "thr_km": 2.86, "k_mad": 3, "suspicious": ""}, "geometry": {"type": "MultiPolygon", "coordinates": [[[[37.490704, 55.744297], [37.48968555321744, 55.74298677598017], [37.478547958615344, 55.73718891120792], [37.47779293077055, 55.73786612383488], [37.47734806441617, 55.73882014281055], [37.476823131776186, 55.73873597271412], [37.476075, 55.739407], [37.469771, 55.740103], [37.4735605346274, 55.744314889597845], [37.498559, 55.747606], [37.49198928409179, 55.7441860223667], [37.490704, 55.744297]]], [[[37.469252308908, 55.73752203240562], [37.46380809853167, 55.73664908285458], [37.46319825260841, 55.7382087479888], [37.469252308908, 55.73752203240562]]]]}}, {"type": "Feature", "properties": {"lobe_id": "образовательный-цент-pt20-3", "school_id": "образовательный-центр-протон", "mode": "public_transport", "min": 20, "azimuth": 350.2, "width_deg": 15, "r_max_km": 5.71, "area_km2": 0.24, "elongation": 8.4, "zone_share": 0.051, "thr_km": 2.86, "k_mad": 3, "suspicious": ""}, "geometry": {"type": "MultiPolygon", "coordinates": [[[[37.511329, 55.744705], [37.509476425408394, 55.744163748991056], [37.506340170265254, 55.7451526064393], [37.509705, 55.746155], [37.510276693521504, 55.747094394452134], [37.51829657352445, 55.746744238929196], [37.51822012916304, 55.74587047588001], [37.51373441075391, 55.74282121136855], [37.51338902679037, 55.74293011051395], [37.511329, 55.744705]]], [[[37.500414, 55.747482], [37.500401395720296, 55.74702509486075], [37.498559, 55.747606], [37.50047352916606, 55.747522409851385], [37.500414, 55.747482]]], [[[37.536991964518165, 55.738585120086995], [37.531582604687166, 55.73955270419665], [37.53274935051917, 55.74094636124881], [37.537286713000015, 55.739678361749725], [37.536991964518165, 55.738585120086995]]]]}}, {"type": "Feature", "properties": {"lobe_id": "образовательный-цент-pt40-1", "school_id": "образовательный-центр-протон", "mode": "public_transport", "min": 40, "azimuth": 7.1, "width_deg": 20, "r_max_km": 14.77, "area_km2": 13.97, "elongation": 3.4, "zone_share": 0.1497, "thr_km": 11.46, "k_mad": 3, "suspicious": ""}, "geometry": {"type": "MultiPolygon", "coordinates": [[[[37.595282, 55.746702], [37.592119715360056, 55.74352105094818], [37.498559, 55.747606], [37.59302473034041, 55.7773909303669], [37.593164, 55.776979], [37.59039, 55.773777], [37.592284, 55.772232], [37.591157, 55.765375], [37.587616, 55.765356], [37.589504, 55.762759], [37.588004, 55.757428], [37.590579, 55.756881], [37.596314, 55.760187], [37.599292, 55.760203], [37.599669, 55.762691], [37.603417, 55.764049], [37.602512, 55.766743], [37.60585786318981, 55.76664976754848], [37.60688308563992, 55.763007988582594], [37.603639, 55.759517], [37.606743, 55.757547], [37.61245644293071, 55.760032758347656], [37.62616977226422, 55.75514746632224], [37.626161, 55.754713], [37.619282, 55.753209], [37.620197, 55.75042], [37.613375, 55.749766], [37.615106, 55.748517], [37.612835, 55.745903], [37.61777361073266, 55.74484651450024], [37.61420436463245, 55.74255681433715], [37.61110334948408, 55.7426922075825], [37.61134, 55.746132], [37.607767, 55.743741], [37.60393101086184, 55.743005358649604], [37.59718028623138, 55.74330010165229], [37.595282, 55.746702]]], [[[37.595731, 55.778072], [37.595796367707216, 55.77826482427186], [37.60214839146295, 55.780267609668975], [37.60336803724191, 55.77571582965465], [37.595731, 55.778072]]], [[[37.594857, 55.768338], [37.593468, 55.771494], [37.59864, 55.770207], [37.598134, 55.768425], [37.594857, 55.768338]]]]}}, {"type": "Feature", "properties": {"lobe_id": "образовательный-цент-pt40-2", "school_id": "образовательный-центр-протон", "mode": "public_transport", "min": 40, "azimuth": 192.5, "width_deg": 10, "r_max_km": 11.61, "area_km2": 6.1, "elongation": 6.0, "zone_share": 0.0654, "thr_km": 11.46, "k_mad": 3, "suspicious": ""}, "geometry": {"type": "MultiPolygon", "coordinates": [[[[37.451569, 55.740695], [37.461791, 55.741993], [37.46404916648902, 55.74306269422695], [37.498559, 55.747606], [37.39953783934877, 55.71638474797327], [37.401045, 55.719501], [37.39789508447078, 55.72056472751591], [37.39670011131783, 55.72502442803642], [37.39665829259963, 55.72674028433731], [37.400973, 55.727246], [37.402416, 55.726099], [37.405236, 55.727352], [37.396969, 55.72913], [37.39867990836328, 55.73445666812926], [37.44951840918162, 55.74114968373559], [37.451569, 55.740695]], [[37.42852, 55.728456], [37.421946, 55.732503], [37.413552, 55.730464], [37.413529, 55.728965], [37.41906, 55.730318], [37.422642, 55.727663], [37.42852, 55.728456]]], [[[37.457488, 55.742029], [37.45586081502135, 55.74198467730511], [37.45768480502269, 55.74222481014436], [37.457488, 55.742029]]]]}}, {"type": "Feature", "properties": {"lobe_id": "образовательный-цент-pt40-3", "school_id": "образовательный-центр-протон", "mode": "public_transport", "min": 40, "azimuth": 347.9, "width_deg": 20, "r_max_km": 15.0, "area_km2": 9.58, "elongation": 5.1, "zone_share": 0.1027, "thr_km": 11.46, "k_mad": 3, "suspicious": ""}, "geometry": {"type": "MultiPolygon", "coordinates": [[[[37.626529, 55.72451], [37.622056, 55.724685], [37.617144, 55.727938], [37.615813, 55.725708], [37.605671, 55.72505], [37.602466, 55.73181], [37.597611, 55.73306], [37.594009, 55.729771], [37.587621, 55.730088], [37.582519, 55.737737], [37.575594, 55.733413], [37.567554, 55.732319], [37.569178, 55.735274], [37.559528, 55.733662], [37.549142, 55.728508], [37.548737758974234, 55.72682127748982], [37.498559, 55.747606], [37.59211971536005, 55.74352105094818], [37.589352, 55.740737], [37.598715, 55.741411], [37.60367, 55.736912], [37.599718, 55.734931], [37.604136, 55.732908], [37.608258, 55.732597], [37.613599, 55.73507], [37.614878, 55.731402], [37.61823, 55.730998], [37.624235, 55.733034], [37.628869, 55.729985], [37.630206151472024, 55.72644416314114], [37.62999196030784, 55.726055111929504], [37.626529, 55.72451]]], [[[37.600206, 55.742291], [37.597254, 55.743168], [37.59718028623138, 55.74330010165229], [37.603931010861835, 55.743005358649604], [37.600206, 55.742291]]], [[[37.616819, 55.738841], [37.619162, 55.736805], [37.614255, 55.737572], [37.610972, 55.740783], [37.61110334948408, 55.7426922075825], [37.618003537911484, 55.74239093884951], [37.616819, 55.738841]]], [[[37.563058, 55.726482], [37.570808, 55.724613], [37.571374, 55.718782], [37.56988156381413, 55.71806322676497], [37.552378106317015, 55.725313396248694], [37.563058, 55.726482]]], [[[37.630904, 55.737245], [37.63269137193774, 55.73594818851648], [37.63242219514598, 55.732871483707925], [37.630904, 55.737245]]], [[[37.58638, 55.723049], [37.586834, 55.726297], [37.591433, 55.727178], [37.588809, 55.722525], [37.58638, 55.723049]]], [[[37.610081, 55.717904], [37.609753, 55.717791], [37.609425, 55.71769], [37.609078, 55.717613], [37.608649, 55.717561], [37.608221, 55.717538], [37.607864, 55.717558], [37.607557, 55.717613], [37.6072, 55.717697], [37.606807, 55.717797], [37.606493, 55.717924], [37.606381, 55.718076], [37.606511, 55.718234], [37.606749, 55.71839], [37.606956, 55.718552], [37.607022, 55.71874], [37.606947, 55.718953], [37.606807, 55.719154], [37.606677, 55.719303], [37.6066, 55.719436], [37.606554, 55.719611], [37.606539, 55.719818], [37.606559, 55.719986], [37.606657, 55.720083], [37.60683, 55.720151], [37.607106, 55.720239], [37.607468, 55.72032], [37.607919, 55.720342], [37.608376, 55.720258], [37.608721, 55.720087], [37.608928, 55.719863], [37.609069, 55.719662], [37.609253, 55.719488], [37.60946, 55.719335], [37.609661, 55.719161], [37.609799, 55.718966], [37.609914, 55.718769], [37.610032, 55.718584], [37.610193, 55.718403], [37.610328, 55.718247], [37.610397, 55.718121], [37.610411, 55.718056], [37.610081, 55.717904]]], [[[37.629933, 55.741857], [37.630028, 55.741634], [37.630114, 55.741394], [37.630163, 55.741171], [37.630177, 55.740967], [37.63018, 55.740754], [37.63016, 55.74054], [37.630131, 55.740336], [37.630079, 55.740161], [37.630039, 55.740058], [37.629697, 55.739932], [37.629352, 55.739896], [37.629007, 55.739906], [37.628694, 55.739948], [37.628432, 55.740029], [37.628165, 55.740148], [37.627829, 55.740284], [37.627412, 55.740411], [37.626983, 55.740547], [37.626641, 55.740686], [37.626417, 55.740796], [37.626253, 55.740838], [37.626055, 55.740809], [37.625793, 55.740731], [37.625486, 55.74065], [37.625187, 55.740621], [37.62494, 55.740676], [37.624773, 55.740805], [37.624684, 55.74098], [37.624664, 55.741171], [37.62473, 55.741365], [37.624914, 55.741517], [37.625193, 55.741618], [37.625532, 55.74166], [37.625903, 55.741676], [37.626294, 55.741683], [37.626676, 55.741695], [37.627061, 55.741702], [37.627455, 55.741718], [37.627831, 55.741728], [37.628202, 55.741747], [37.628593, 55.741786], [37.629027, 55.741877], [37.62911234317968, 55.74190591793692], [37.6299266969416, 55.74187036248381], [37.629933, 55.741857]]]]}}]}