{"type": "FeatureCollection", "features": [{"type": "Feature", "properties": {"tag": "reverse:true", "mode": "public_transport", "min": 20}, "geometry": {"type": "MultiPolygon", "coordinates": [[[[37.527574, 55.675326], [37.536591, 55.680512], [37.545736, 55.68106], [37.547368, 55.683109], [37.558743, 55.685549], [37.559755, 55.689377], [37.557826, 55.690893], [37.560842, 55.693764], [37.575833, 55.6953], [37.574444, 55.698071], [37.579078, 55.699023], [37.583508, 55.704411], [37.589984, 55.707129], [37.592054, 55.709688], [37.590579, 55.71096], [37.595251, 55.714202], [37.594066, 55.715589], [37.5978, 55.715993], [37.597507, 55.718128], [37.604771, 55.720113], [37.603645, 55.722797], [37.596826, 55.722654], [37.596665, 55.71919], [37.587751, 55.713607], [37.578216, 55.712133], [37.578015, 55.710261], [37.573832, 55.708761], [37.563906, 55.70787], [37.556199, 55.697329], [37.543168, 55.696211], [37.540055, 55.692326], [37.535183, 55.694186], [37.536675, 55.688311], [37.532722, 55.68762], [37.532242, 55.681838], [37.52695, 55.678986], [37.525763, 55.675553], [37.527574, 55.675326]]], [[[37.566838, 55.685578], [37.568367, 55.689361], [37.564429, 55.690835], [37.561856, 55.687008], [37.566838, 55.685578]]], [[[37.56912, 55.715449], [37.572487, 55.719488], [37.566004, 55.717415], [37.566591, 55.715602], [37.56912, 55.715449]]], [[[37.531216, 55.682379], [37.531081, 55.684541], [37.526237, 55.684807], [37.527085, 55.682292], [37.531216, 55.682379]]], [[[37.611489, 55.727158], [37.611708, 55.727223], [37.612081, 55.727417], [37.612398, 55.72766], [37.612507, 55.727783], [37.612605, 55.727861], [37.612794, 55.727984], [37.613076, 55.728181], [37.613315, 55.728408], [37.613387, 55.728641], [37.613286, 55.728868], [37.613085, 55.729065], [37.612803, 55.729208], [37.612458, 55.729266], [37.612059, 55.729256], [37.611691, 55.729214], [37.611432, 55.729169], [37.611291, 55.729123], [37.611182, 55.729046], [37.611032, 55.728906], [37.610843, 55.728715], [37.610636, 55.728499], [37.610426, 55.728298], [37.610216, 55.728123], [37.610041, 55.727955], [37.609946, 55.72777], [37.60998, 55.727531], [37.610084, 55.727297], [37.610153, 55.727184], [37.610179, 55.727155], [37.610222, 55.727148], [37.610391, 55.727142], [37.611124, 55.727136], [37.611331, 55.727139], [37.611489, 55.727158]]], [[[37.523279, 55.671325], [37.523408, 55.671448], [37.523641, 55.67161], [37.523943, 55.671763], [37.524213, 55.671912], [37.524323, 55.672064], [37.524185, 55.672207], [37.523854, 55.672333], [37.523486, 55.672495], [37.523236, 55.672709], [37.523176, 55.672933], [37.523302, 55.673095], [37.523555, 55.673183], [37.523837, 55.673238], [37.524035, 55.673303], [37.524113, 55.673407], [37.524047, 55.67353], [37.523848, 55.673637], [37.523541, 55.673666], [37.523216, 55.67363], [37.52294, 55.673559], [37.522762, 55.673468], [37.522658, 55.673345], [37.522592, 55.67317], [37.522497, 55.672946], [37.522325, 55.672709], [37.52206, 55.672502], [37.521781, 55.67234], [37.521546, 55.672191], [37.521411, 55.672038], [37.521293, 55.671857], [37.521077, 55.671672], [37.520784, 55.671533], [37.520563, 55.671468], [37.520471, 55.671439], [37.520439, 55.671416], [37.520453, 55.67139], [37.52056, 55.671361], [37.520804, 55.671306], [37.521204, 55.671231], [37.521652, 55.671163], [37.522049, 55.671127], [37.522399, 55.671124], [37.522782, 55.671176], [37.523279, 55.671325]]], [[[37.519804, 55.669383], [37.519815, 55.669519], [37.519789, 55.669727], [37.519726, 55.669937], [37.519671, 55.670142], [37.519689, 55.670343], [37.519735, 55.670563], [37.519746, 55.670777], [37.519631, 55.670942], [37.519341, 55.670994], [37.518964, 55.67093], [37.518631, 55.67078], [37.518409, 55.670583], [37.51828, 55.670385], [37.5182, 55.670232], [37.518139, 55.670122], [37.518044, 55.669986], [37.517918, 55.669772], [37.517866, 55.669529], [37.518004, 55.669347], [37.518335, 55.669231], [37.518786, 55.669192], [37.519289, 55.669231], [37.519804, 55.669383]]], [[[37.533507, 55.688839], [37.533461, 55.688943], [37.533323, 55.689092], [37.533064, 55.689244], [37.532734, 55.68939], [37.532417, 55.689529], [37.532167, 55.689633], [37.531926, 55.689701], [37.531624, 55.689736], [37.531265, 55.689753], [37.530931, 55.68974], [37.530693, 55.689675], [37.530578, 55.689542], [37.530572, 55.689354], [37.530618, 55.689153], [37.53069, 55.688988], [37.530788, 55.688878], [37.530963, 55.68881], [37.531245, 55.688768], [37.531627, 55.688722], [37.532084, 55.688677], [37.532581, 55.688631], [37.533073, 55.688654], [37.533507, 55.688839]]], [[[37.570155, 55.68436], [37.570135, 55.684415], [37.570035, 55.684506], [37.569805, 55.684639], [37.569486, 55.684801], [37.569187, 55.684963], [37.568948, 55.685083], [37.568715, 55.685151], [37.56841, 55.68519], [37.568025, 55.685228], [37.56764, 55.685248], [37.567358, 55.685203], [37.567295, 55.685063], [37.567424, 55.684891], [37.567669, 55.684726], [37.567962, 55.684574], [37.568247, 55.684438], [37.568531, 55.68434], [37.56883, 55.684282], [37.569184, 55.684266], [37.569552, 55.684263], [37.569885, 55.684289], [37.570155, 55.68436]]], [[[37.524072, 55.685692], [37.524153, 55.685763], [37.524297, 55.685906], [37.524469, 55.686097], [37.524604, 55.686317], [37.524662, 55.686538], [37.524627, 55.686758], [37.524501, 55.686972], [37.524274, 55.687141], [37.523966, 55.687209], [37.523684, 55.687137], [37.523521, 55.686972], [37.523495, 55.686761], [37.523535, 55.686554], [37.523604, 55.68633], [37.523673, 55.686094], [37.523753, 55.685877], [37.523822, 55.685737], [37.523888, 55.685682], [37.52396, 55.685666], [37.524072, 55.685692]]]]}}, {"type": "Feature", "properties": {"tag": "no_reverse", "mode": "public_transport", "min": 20}, "geometry": {"type": "MultiPolygon", "coordinates": [[[[37.527574, 55.675326], [37.536591, 55.680512], [37.545736, 55.68106], [37.547368, 55.683109], [37.558743, 55.685549], [37.559755, 55.689377], [37.557826, 55.690893], [37.560842, 55.693764], [37.575833, 55.6953], [37.574444, 55.698071], [37.579078, 55.699023], [37.583508, 55.704411], [37.589984, 55.707129], [37.592054, 55.709688], [37.590579, 55.71096], [37.595251, 55.714202], [37.594066, 55.715589], [37.5978, 55.715993], [37.597507, 55.718128], [37.604771, 55.720113], [37.603645, 55.722797], [37.596826, 55.722654], [37.596665, 55.71919], [37.587751, 55.713607], [37.578216, 55.712133], [37.578015, 55.710261], [37.573832, 55.708761], [37.563906, 55.70787], [37.556199, 55.697329], [37.543168, 55.696211], [37.540055, 55.692326], [37.535183, 55.694186], [37.536675, 55.688311], [37.532722, 55.68762], [37.532242, 55.681838], [37.52695, 55.678986], [37.525763, 55.675553], [37.527574, 55.675326]]], [[[37.566838, 55.685578], [37.568367, 55.689361], [37.564429, 55.690835], [37.561856, 55.687008], [37.566838, 55.685578]]], [[[37.56912, 55.715449], [37.572487, 55.719488], [37.566004, 55.717415], [37.566591, 55.715602], [37.56912, 55.715449]]], [[[37.531216, 55.682379], [37.531081, 55.684541], [37.526237, 55.684807], [37.527085, 55.682292], [37.531216, 55.682379]]], [[[37.611489, 55.727158], [37.611708, 55.727223], [37.612081, 55.727417], [37.612398, 55.72766], [37.612507, 55.727783], [37.612605, 55.727861], [37.612794, 55.727984], [37.613076, 55.728181], [37.613315, 55.728408], [37.613387, 55.728641], [37.613286, 55.728868], [37.613085, 55.729065], [37.612803, 55.729208], [37.612458, 55.729266], [37.612059, 55.729256], [37.611691, 55.729214], [37.611432, 55.729169], [37.611291, 55.729123], [37.611182, 55.729046], [37.611032, 55.728906], [37.610843, 55.728715], [37.610636, 55.728499], [37.610426, 55.728298], [37.610216, 55.728123], [37.610041, 55.727955], [37.609946, 55.72777], [37.60998, 55.727531], [37.610084, 55.727297], [37.610153, 55.727184], [37.610179, 55.727155], [37.610222, 55.727148], [37.610391, 55.727142], [37.611124, 55.727136], [37.611331, 55.727139], [37.611489, 55.727158]]], [[[37.523279, 55.671325], [37.523408, 55.671448], [37.523641, 55.67161], [37.523943, 55.671763], [37.524213, 55.671912], [37.524323, 55.672064], [37.524185, 55.672207], [37.523854, 55.672333], [37.523486, 55.672495], [37.523236, 55.672709], [37.523176, 55.672933], [37.523302, 55.673095], [37.523555, 55.673183], [37.523837, 55.673238], [37.524035, 55.673303], [37.524113, 55.673407], [37.524047, 55.67353], [37.523848, 55.673637], [37.523541, 55.673666], [37.523216, 55.67363], [37.52294, 55.673559], [37.522762, 55.673468], [37.522658, 55.673345], [37.522592, 55.67317], [37.522497, 55.672946], [37.522325, 55.672709], [37.52206, 55.672502], [37.521781, 55.67234], [37.521546, 55.672191], [37.521411, 55.672038], [37.521293, 55.671857], [37.521077, 55.671672], [37.520784, 55.671533], [37.520563, 55.671468], [37.520471, 55.671439], [37.520439, 55.671416], [37.520453, 55.67139], [37.52056, 55.671361], [37.520804, 55.671306], [37.521204, 55.671231], [37.521652, 55.671163], [37.522049, 55.671127], [37.522399, 55.671124], [37.522782, 55.671176], [37.523279, 55.671325]]], [[[37.519804, 55.669383], [37.519815, 55.669519], [37.519789, 55.669727], [37.519726, 55.669937], [37.519671, 55.670142], [37.519689, 55.670343], [37.519735, 55.670563], [37.519746, 55.670777], [37.519631, 55.670942], [37.519341, 55.670994], [37.518964, 55.67093], [37.518631, 55.67078], [37.518409, 55.670583], [37.51828, 55.670385], [37.5182, 55.670232], [37.518139, 55.670122], [37.518044, 55.669986], [37.517918, 55.669772], [37.517866, 55.669529], [37.518004, 55.669347], [37.518335, 55.669231], [37.518786, 55.669192], [37.519289, 55.669231], [37.519804, 55.669383]]], [[[37.533507, 55.688839], [37.533461, 55.688943], [37.533323, 55.689092], [37.533064, 55.689244], [37.532734, 55.68939], [37.532417, 55.689529], [37.532167, 55.689633], [37.531926, 55.689701], [37.531624, 55.689736], [37.531265, 55.689753], [37.530931, 55.68974], [37.530693, 55.689675], [37.530578, 55.689542], [37.530572, 55.689354], [37.530618, 55.689153], [37.53069, 55.688988], [37.530788, 55.688878], [37.530963, 55.68881], [37.531245, 55.688768], [37.531627, 55.688722], [37.532084, 55.688677], [37.532581, 55.688631], [37.533073, 55.688654], [37.533507, 55.688839]]], [[[37.570155, 55.68436], [37.570135, 55.684415], [37.570035, 55.684506], [37.569805, 55.684639], [37.569486, 55.684801], [37.569187, 55.684963], [37.568948, 55.685083], [37.568715, 55.685151], [37.56841, 55.68519], [37.568025, 55.685228], [37.56764, 55.685248], [37.567358, 55.685203], [37.567295, 55.685063], [37.567424, 55.684891], [37.567669, 55.684726], [37.567962, 55.684574], [37.568247, 55.684438], [37.568531, 55.68434], [37.56883, 55.684282], [37.569184, 55.684266], [37.569552, 55.684263], [37.569885, 55.684289], [37.570155, 55.68436]]], [[[37.524072, 55.685692], [37.524153, 55.685763], [37.524297, 55.685906], [37.524469, 55.686097], [37.524604, 55.686317], [37.524662, 55.686538], [37.524627, 55.686758], [37.524501, 55.686972], [37.524274, 55.687141], [37.523966, 55.687209], [37.523684, 55.687137], [37.523521, 55.686972], [37.523495, 55.686761], [37.523535, 55.686554], [37.523604, 55.68633], [37.523673, 55.686094], [37.523753, 55.685877], [37.523822, 55.685737], [37.523888, 55.685682], [37.52396, 55.685666], [37.524072, 55.685692]]]]}}, {"type": "Feature", "properties": {"tag": "metro", "mode": "public_transport", "min": 20}, "geometry": {"type": "MultiPolygon", "coordinates": [[[[37.563184, 55.687643], [37.570144, 55.688897], [37.569655, 55.691081], [37.573501, 55.692721], [37.573889, 55.698434], [37.572001, 55.699289], [37.574082, 55.704061], [37.567445, 55.705036], [37.559054, 55.708683], [37.556544, 55.70697], [37.550326, 55.706844], [37.548075, 55.704304], [37.540532, 55.704459], [37.540377, 55.700543], [37.542358, 55.699956], [37.538834, 55.698103], [37.538816, 55.695423], [37.541513, 55.688366], [37.563184, 55.687643]]]]}}, {"type": "Feature", "properties": {"tag": "metro_mcc_mcd", "mode": "public_transport", "min": 20}, "geometry": {"type": "MultiPolygon", "coordinates": [[[[37.563184, 55.687643], [37.570144, 55.688897], [37.569655, 55.691081], [37.573501, 55.692721], [37.573889, 55.698434], [37.572001, 55.699289], [37.574082, 55.704061], [37.567445, 55.705036], [37.559054, 55.708683], [37.556544, 55.70697], [37.550326, 55.706844], [37.548075, 55.704304], [37.540532, 55.704459], [37.540377, 55.700543], [37.542358, 55.699956], [37.538834, 55.698103], [37.538816, 55.695423], [37.541513, 55.688366], [37.563184, 55.687643]]]]}}, {"type": "Feature", "properties": {"tag": "evening", "mode": "public_transport", "min": 20}, "geometry": {"type": "MultiPolygon", "coordinates": [[[[37.523081, 55.669402], [37.52108, 55.671374], [37.533058, 55.67602], [37.536537, 55.680525], [37.546083, 55.680461], [37.552701, 55.683744], [37.552313, 55.68587], [37.558553, 55.688317], [37.556096, 55.690903], [37.558447, 55.69218], [37.575588, 55.694591], [37.576983, 55.696285], [37.574965, 55.697815], [37.582485, 55.700283], [37.582436, 55.702004], [37.585296, 55.703374], [37.590919, 55.703021], [37.593977, 55.705279], [37.59145, 55.707699], [37.593627, 55.709014], [37.592592, 55.712855], [37.596524, 55.713772], [37.599356, 55.71871], [37.603794, 55.720715], [37.602351, 55.722642], [37.59791, 55.722175], [37.596964, 55.71941], [37.586443, 55.716155], [37.585, 55.712901], [37.578135, 55.712881], [37.571282, 55.708334], [37.567752, 55.709289], [37.563429, 55.7056], [37.561615, 55.706571], [37.559815, 55.702597], [37.55605, 55.700744], [37.555354, 55.696927], [37.544373, 55.696856], [37.541562, 55.692374], [37.534056, 55.694908], [37.533113, 55.691529], [37.535999, 55.690015], [37.531406, 55.686765], [37.532288, 55.682221], [37.526243, 55.679627], [37.524095, 55.675374], [37.520545, 55.674305], [37.519568, 55.66995], [37.523081, 55.669402]]], [[[37.557912, 55.67905], [37.559508, 55.681183], [37.555808, 55.682315], [37.554839, 55.6799], [37.557912, 55.67905]]], [[[37.572501, 55.686314], [37.572711, 55.686369], [37.573047, 55.686444], [37.573412, 55.686512], [37.573777, 55.686567], [37.574151, 55.686612], [37.574559, 55.686642], [37.57495, 55.686638], [37.575332, 55.686625], [37.575712, 55.686616], [37.576077, 55.686635], [37.576428, 55.686684], [37.576727, 55.686765], [37.576954, 55.686872], [37.577052, 55.687017], [37.577, 55.687192], [37.576868, 55.687374], [37.576681, 55.687542], [37.576439, 55.687705], [37.57614, 55.687883], [37.575856, 55.688064], [37.575672, 55.6882], [37.5756, 55.688317], [37.575611, 55.688489], [37.575666, 55.688706], [37.575715, 55.688861], [37.575732, 55.688923], [37.575706, 55.688955], [37.575606, 55.688998], [37.575384, 55.689088], [37.575022, 55.689234], [37.574608, 55.689351], [37.5742, 55.689377], [37.573826, 55.689322], [37.573507, 55.689218], [37.57326, 55.689069], [37.573059, 55.688891], [37.572875, 55.688699], [37.572705, 55.688511], [37.572561, 55.688317], [37.572418, 55.688119], [37.572257, 55.687925], [37.572081, 55.687753], [37.57188, 55.687572], [37.571653, 55.687377], [37.57144, 55.687186], [37.571308, 55.687004], [37.571322, 55.686807], [37.571495, 55.68659], [37.571765, 55.686408], [37.572027, 55.686304], [37.572248, 55.686279], [37.572501, 55.686314]]], [[[37.606108, 55.723163], [37.60806, 55.723946], [37.606743, 55.725921], [37.603064, 55.723231], [37.606108, 55.723163]]], [[[37.602262, 55.709662], [37.602311, 55.709726], [37.602403, 55.709869], [37.602523, 55.710083], [37.602636, 55.710326], [37.602742, 55.710556], [37.602828, 55.71076], [37.602797, 55.710938], [37.602498, 55.711061], [37.602115, 55.711148], [37.601759, 55.711226], [37.601405, 55.711326], [37.601034, 55.711411], [37.600643, 55.711407], [37.600273, 55.711288], [37.599988, 55.711135], [37.59981, 55.711012], [37.599623, 55.710886], [37.599338, 55.710708], [37.599062, 55.710513], [37.598927, 55.710332], [37.598979, 55.710144], [37.599163, 55.709934], [37.599413, 55.709743], [37.599657, 55.70961], [37.599925, 55.709535], [37.600235, 55.709496], [37.6006, 55.709477], [37.601, 55.70948], [37.601411, 55.709503], [37.601782, 55.709542], [37.602058, 55.709587], [37.602262, 55.709662]]], [[[37.611489, 55.727158], [37.611708, 55.727223], [37.612081, 55.727417], [37.612398, 55.72766], [37.612507, 55.727783], [37.612605, 55.727861], [37.612794, 55.727984], [37.613076, 55.728181], [37.613315, 55.728408], [37.613387, 55.728641], [37.613286, 55.728868], [37.613085, 55.729065], [37.612803, 55.729208], [37.612458, 55.729266], [37.612059, 55.729256], [37.611691, 55.729214], [37.611432, 55.729169], [37.611291, 55.729123], [37.611182, 55.729046], [37.611032, 55.728906], [37.610843, 55.728715], [37.610636, 55.728499], [37.610426, 55.728298], [37.610216, 55.728123], [37.610041, 55.727955], [37.609946, 55.72777], [37.60998, 55.727531], [37.610084, 55.727297], [37.610153, 55.727184], [37.610179, 55.727155], [37.610222, 55.727148], [37.610391, 55.727142], [37.611124, 55.727136], [37.611331, 55.727139], [37.611489, 55.727158]]], [[[37.609155, 55.71871], [37.609138, 55.71874], [37.609078, 55.718804], [37.608957, 55.71894], [37.608804, 55.719144], [37.608687, 55.719381], [37.60862, 55.719601], [37.608577, 55.719821], [37.608534, 55.720048], [37.608503, 55.720262], [37.608451, 55.720459], [37.608342, 55.720647], [37.608158, 55.720802], [37.607908, 55.720864], [37.607646, 55.720799], [37.607425, 55.72065], [37.607264, 55.720459], [37.607172, 55.720258], [37.607114, 55.720045], [37.607091, 55.719828], [37.607077, 55.719607], [37.607037, 55.719407], [37.606927, 55.719225], [37.60672, 55.719063], [37.606496, 55.718898], [37.606378, 55.71873], [37.606493, 55.718578], [37.606786, 55.718464], [37.607146, 55.7184], [37.607517, 55.718374], [37.607905, 55.718361], [37.608293, 55.71837], [37.608643, 55.718413], [37.608925, 55.718526], [37.609155, 55.71871]]], [[[37.563311, 55.677864], [37.563366, 55.677974], [37.563463, 55.678117], [37.563613, 55.678247], [37.563834, 55.678337], [37.564084, 55.678412], [37.564283, 55.678486], [37.564357, 55.678571], [37.5643, 55.678649], [37.564104, 55.678704], [37.563802, 55.678733], [37.563423, 55.678749], [37.563038, 55.678759], [37.562653, 55.678778], [37.562267, 55.678798], [37.561885, 55.67882], [37.561509, 55.678833], [37.561149, 55.67883], [37.560801, 55.678798], [37.560543, 55.67871], [37.560445, 55.678558], [37.56054, 55.678383], [37.560744, 55.678208], [37.560997, 55.678055], [37.561264, 55.677903], [37.561583, 55.677751], [37.561934, 55.677631], [37.562316, 55.67755], [37.562673, 55.67752], [37.563006, 55.677589], [37.563311, 55.677864]]], [[[37.5267, 55.668083], [37.526662, 55.668199], [37.526507, 55.668345], [37.526211, 55.668439], [37.525846, 55.668462], [37.525461, 55.668459], [37.525041, 55.668491], [37.524601, 55.668608], [37.524248, 55.668754], [37.524035, 55.668867], [37.523917, 55.66891], [37.523831, 55.6689], [37.523782, 55.668825], [37.523748, 55.668663], [37.523725, 55.668446], [37.523739, 55.668242], [37.523848, 55.668102], [37.524058, 55.668018], [37.524363, 55.667969], [37.524737, 55.66794], [37.525127, 55.667914], [37.525495, 55.667891], [37.525849, 55.667888], [37.526234, 55.667937], [37.5267, 55.668083]]], [[[37.611532, 55.730376], [37.611627, 55.730473], [37.611757, 55.7306], [37.611915, 55.73071], [37.612119, 55.730784], [37.612429, 55.730839], [37.61282, 55.730872], [37.613226, 55.730881], [37.613594, 55.730897], [37.613884, 55.730956], [37.614007, 55.731069], [37.613901, 55.731198], [37.613608, 55.731276], [37.613237, 55.731276], [37.612863, 55.731241], [37.61249, 55.731211], [37.612113, 55.731208], [37.611728, 55.731215], [37.6114, 55.731205], [37.61115, 55.731131], [37.611004, 55.730995], [37.610903, 55.73081], [37.610843, 55.730609], [37.610883, 55.730444], [37.611073, 55.73035], [37.611311, 55.730328], [37.611532, 55.730376]]]]}}, {"type": "Feature", "properties": {"tag": "mcc_only", "mode": "public_transport", "min": 20}, "geometry": {"type": "MultiPolygon", "coordinates": [[[[37.563184, 55.687643], [37.570144, 55.688897], [37.569655, 55.691081], [37.573501, 55.692721], [37.573889, 55.698434], [37.572001, 55.699289], [37.574082, 55.704061], [37.567445, 55.705036], [37.559054, 55.708683], [37.556544, 55.70697], [37.550326, 55.706844], [37.548075, 55.704304], [37.540532, 55.704459], [37.540377, 55.700543], [37.542358, 55.699956], [37.538834, 55.698103], [37.538816, 55.695423], [37.541513, 55.688366], [37.563184, 55.687643]]]]}}]}